STATION NAME,AGENCY,NO. OF PLUGS,TYPE OF CHARGER,ADDRESS,CITY,POSTCODE,BOROUGH,LATITUDE,LONGITUDE,COMMUNITY DISTRICT,COUNCIL DISTRICT,CENSUS TRACT 2020,BIN,BBL,NEIGHBORHOOD TABULATION AREA (NTA) (2020)
NYC FLEET / ACS_LINDEN_1_L3,ACS,1,Level 3 Fast Charger,2554 Linden Blvd,East New York,11208,Brooklyn,40.668034,-73.869949,305,42,1220,3098733,3044840013,BK0505
NYC FLEET / ACS_LINDEN_2_L3,ACS,1,Level 3 Fast Charger,2554 Linden Blvd,East New York,11208,Brooklyn,40.668034,-73.869949,305,42,1220,3098733,3044840013,BK0505
NYC FLEET / ACS_LINDEN-1,ACS,1,Level 2 Charger,2554 Linden Blvd,Brooklyn,11208,Brooklyn,40.668034,-73.869949,305,42,1220,3098733,3044840013,BK0505
NYC FLEET / ACSSTMARKSPL1,ACS,1,Level 2 Charger,350 St Marks Pl,Staten Island,10301,Staten Island,40.640708,-74.077697,501,49,3,5000185,5000160054,SI0101
NYC FLEET / CITYHALL EAST,CITYHALL,2,Level 2 Charger,New York City Hall,New York,10007,Manhattan,40.712806,-74.006096,101,1,31,1079147,1001220001,MN0102
NYC FLEET / CITYHALL WEST,CITYHALL,2,Level 2 Charger,New York City Hall,New York,10007,Manhattan,40.712806,-74.006096,101,1,31,1079147,1001220001,MN0102
NYC FLEET / DCAS_1CENTRE-S1,DCAS,1,EV Solar Arc Charger,1 Centre St,New York,10007,Manhattan,40.713001,-74.004181,101,1,2901,1001394,1001210001,MN0102
NYC FLEET / DCAS_1CNTR_1_L3,DCAS,1,Level 3 Fast Charger,1 Centre St,New York,10007,Manhattan,40.713001,-74.004181,101,1,2901,1001394,1001210001,MN0102
NYC FLEET / DCAS_1CNTR_2_L3,DCAS,1,Level 3 Fast Charger,1 Centre St,New York,10007,Manhattan,40.713001,-74.004181,101,1,2901,1001394,1001210001,MN0102
NYC FLEET / DCAS_BKNVY_1_L3,DCAS,1,Level 3 Fast Charger,2 Navy St,Brooklyn,11201,Brooklyn,40.70061,-73.98042,302,35,23,,,BK0202
NYC FLEET / DCAS_KENTAVE1,DCAS,1,Level 2 Charger,390 Kent Ave,Brooklyn,11249,Brooklyn,40.711246,-73.968348,301,33,549,3063635,3024670001,BK0102
NYC FLEET / DCAS_KENTAVE2,DCAS,1,Level 2 Charger,390 Kent Ave,Brooklyn,11249,Brooklyn,40.711246,-73.968348,301,33,549,3063635,3024670001,BK0102
NYC FLEET / DCAS_KENTAVE3,DCAS,1,Level 2 Charger,390 Kent Ave,Brooklyn,11249,Brooklyn,40.711246,-73.968348,301,33,549,3063635,3024670001,BK0102
NYC FLEET / DCAS_KENTAVE4,DCAS,2,Level 2 Charger,390 Kent Ave,Brooklyn,11249,Brooklyn,40.711246,-73.968348,301,33,549,3063635,3024670001,BK0102
NYC FLEET / DCAS_KNTAV_1_L3,DCAS,1,Level 3 Fast Charger,390 Kent Ave,Southside,11249,Brooklyn,40.711246,-73.968348,301,33,549,3063635,3024670001,BK0102
NYC FLEET / DCAS_KNTAV_2_L3,DCAS,1,Level 3 Fast Charger,390 Kent Ave,Southside,11249,Brooklyn,40.711246,-73.968348,301,33,549,3063635,3024670001,BK0102
NYC FLEET / DCAS_QBH_1_L3,DCAS,1,Level 3 Fast Charger,Union Tpke/Queens Blvd,Jamaica,11415,Queens,,,,,,,,
NYC FLEET / DCAS_QBH_2_L3,DCAS,1,Level 3 Fast Charger,Union Tpke/Queens Blvd,Jamaica,11415,Queens,,,,,,,,
NYC FLEET / DCAS_QBH_3_L3,DCAS,1,Level 3 Fast Charger,Union Tpke/Queens Blvd,Jamaica,11415,Queens,,,,,,,,
NYC FLEET / DCAS100GLD_1_L3,DCAS,1,Level 3 Fast Charger,100 Gold St,New York,10038,Manhattan,40.710353,-74.004007,101,1,1501,1001289,1000940025,MN0101
NYC FLEET / DCAS100GLD_2_L3,DCAS,1,Level 3 Fast Charger,100 Gold Street,New York,10038,Manhattan,40.710353,-74.004007,101,1,1501,1001289,1000940025,MN0101
NYC FLEET / DCAS100GLD_3_L3,DCAS,1,Level 3 Fast Charger,100 Gold St,New York,10038,Manhattan,40.710353,-74.004007,101,1,1501,1001289,1000940025,MN0101
NYC FLEET / DCAS100GLD_4_L3,DCAS,1,Level 3 Fast Charger,100 Gold St,New York,10038,Manhattan,40.710353,-74.004007,101,1,1501,1001289,1000940025,MN0101
NYC FLEET / DCAS100GLD_5_L3,DCAS,1,Level 3 Fast Charger,100 Gold St,New York,10038,Manhattan,40.710353,-74.004007,101,1,1501,1001289,1000940025,MN0101
NYC FLEET / DCAS100GOLD,DCAS,1,Level 2 Charger,100 Gold St,New York,10038,Manhattan,40.710353,-74.004007,101,1,1501,1001289,1000940025,MN0101
NYC FLEET / DCASCSTHSE_1_L3,DCAS,1,Level 3 Fast Charger,6626 Metropolitan Ave,Middle Village,11379,Queens,40.712377,-73.892143,405,30,61301,4443103,4036050001,QN0502
NYC FLEET / DCASCSTHSE_2_L3,DCAS,1,Level 3 Fast Charger,6626 Metropolitan Ave,Middle Village,11379,Queens,40.712377,-73.892143,405,30,61301,4443103,4036050001,QN0502
NYC FLEET / DCASCSTHSE_3_L3,DCAS,1,Level 3 Fast Charger,6626 Metropolitan Ave,Middle Village,11379,Queens,40.712377,-73.892143,405,30,61301,4443103,4036050001,QN0502
NYC FLEET / DCASNAVYYARD01,DCAS,1,Level 2 Charger,2 Navy St,Brooklyn,11201,Brooklyn,40.70061,-73.98042,302,35,23,,,BK0202
NYC FLEET / DCASNAVYYARD02,DCAS,1,Level 2 Charger,2 Navy St,Brooklyn,11201,Brooklyn,40.70061,-73.98042,302,35,23,,,BK0202
NYC FLEET / DCASNAVYYARD03,DCAS,1,Level 2 Charger,2 Navy St,Brooklyn,11201,Brooklyn,40.70061,-73.98042,302,35,23,,,BK0202
NYC FLEET / DCASNAVYYARD04,DCAS,1,Level 2 Charger,2 Navy St,Downtown Brooklyn,11201,Brooklyn,40.70061,-73.98042,302,35,23,,,BK0202
NYC FLEET / DCASNAVYYARD05,DCAS,1,Level 2 Charger,2 Navy St,Brooklyn,11201,Brooklyn,40.70061,-73.98042,302,35,23,,,BK0202
NYC FLEET / DDC_HQ-S1,DDC,1,EV Solar Arc Charger,3030 Thomson Ave,Queens,11101,Queens,40.745042,-73.936191,402,26,17902,4003533,4002770001,QN0202
NYC FLEET / DDC_HQ-S2,DDC,1,EV Solar Arc Charger,3030 Thomson Ave,Queens,11101,Queens,40.745042,-73.936191,402,26,17902,4003533,4002770001,QN0202
NYC FLEET / DDC_LIC-2,DDC,2,Level 2 Charger,30-30 Thomson Ave,Long Island City,11101,Queens,40.745042,-73.936191,402,26,17902,4003533,4002770001,QN0202
NYC FLEET / DDC_LIC-3,DDC,1,Level 2 Charger,2 31St St,Long Island City,11101,Queens,,,,,,,,
NYC FLEET / DDC_LIC-S1,DDC,1,EV Solar Arc Charger,30-20 Thomson Ave,Long Island City,11101,Queens,40.745095,-73.936635,402,26,17902,4003517,4002740001,QN0202
NYC FLEET / DDC_LIC-S2,DDC,1,EV Solar Arc Charger,30-20 Thomson Ave,Long Island City,11101,Queens,40.745095,-73.936635,402,26,17902,4003517,4002740001,QN0202
NYC FLEET / DEP_ CONEY ISLA,DEP,2,Level 2 Charger,2501 Knapp St,Brooklyn,11235,Brooklyn,40.592214,-73.932546,315,46,628,3414032,3088350001,BK1503
NYC FLEET / DEP_26WARD# 1,DEP,2,Level 2 Charger,12266 Flatlands Ave,Brooklyn,11207,Brooklyn,40.654817,-73.881479,305,42,107003,3000000,3044400001,BK0504
NYC FLEET / DEP_26WARD# 2,DEP,2,Level 2 Charger,12266 Flatlands Ave,Brooklyn,11207,Brooklyn,40.654817,-73.881479,305,42,107003,3000000,3044400001,BK0504
NYC FLEET / DEP_26WARD_1_L3,DEP,1,Level 3 Fast Charger,165 Schroeders Ave,Starrett City,11239,Brooklyn,,,,,,,,
NYC FLEET / DEP_26WARD_2_L3,DEP,1,Level 3 Fast Charger,1540 Van Siclen Ave,Starrett City,11239,Brooklyn,40.648214,-73.877613,305,42,105801,3343608,3044520200,BK0504
NYC FLEET / DEP_26WARD_3_L3,DEP,1,Level 3 Fast Charger,12266 Flatlands Ave,Brooklyn,11207,Brooklyn,40.654817,-73.881479,305,42,107003,3000000,3044400001,BK0504
NYC FLEET / DEP_26WARD_4_L3,DEP,1,Level 3 Fast Charger,12266 Flatlands Ave,Brooklyn,11207,Brooklyn,40.654817,-73.881479,305,42,107003,3000000,3044400001,BK0504
NYC FLEET / DEP_26WARD_5_L3,DEP,1,Level 3 Fast Charger,12266 Flatlands Ave,Brooklyn,11207,Brooklyn,40.654817,-73.881479,305,42,107003,3000000,3044400001,BK0504
NYC FLEET / DEP_26WARD_6_L3,DEP,1,Level 3 Fast Charger,12266 Flatlands Ave,Brooklyn,11207,Brooklyn,40.654817,-73.881479,305,42,107003,3000000,3044400001,BK0504
NYC FLEET / DEP_26WRDP_1_L3,DEP,1,Level 3 Fast Charger,12266 Flatlands Ave,Brooklyn,11207,Brooklyn,40.654817,-73.881479,305,42,107003,3000000,3044400001,BK0504
NYC FLEET / DEP_26WRDP_2_L3,DEP,1,Level 3 Fast Charger,12266 Flatlands Ave,Brooklyn,11207,Brooklyn,40.654817,-73.881479,305,42,107003,3000000,3044400001,BK0504
NYC FLEET / DEP_26WRDP_3_L3,DEP,1,Level 3 Fast Charger,12266 Flatlands Ave,Brooklyn,11207,Brooklyn,40.654817,-73.881479,305,42,107003,3000000,3044400001,BK0504
NYC FLEET / DEP_3701JEROME2,DEP,2,Level 2 Charger,3701 Jerome Ave,Bronx,10467,Bronx,40.887018,-73.878095,226,11,43503,2112995,2059000001,BX2691
NYC FLEET / DEP_623MYRTLE1,DEP,2,Level 2 Charger,623 Myrtle Ave,Bedford-Stuyvesant,11205,Brooklyn,40.694275,-73.958854,303,33,1237,3341943,3018980001,BK0301
NYC FLEET / DEP_623MYRTLE2,DEP,2,Level 2 Charger,623 Myrtle Ave,Bedford-Stuyvesant,11205,Brooklyn,40.694275,-73.958854,303,33,1237,3341943,3018980001,BK0301
NYC FLEET / DEP_6PCT_1_L3,DEP,1,Level 3 Fast Charger,2 Walker Rd,Valhalla,10595,Upstate,,,,,,,,
NYC FLEET / DEP_7WARDSI-S2,DEP,1,EV Solar Arc Charger,4 Central Rd,New York,10035,Manhattan,,,,,,,,
NYC FLEET / DEP_7WARDSI-S3,DEP,1,EV Solar Arc Charger,116 K Rd,New York,10035,Manhattan,40.791469,-73.921474,111,8,240,1089375,1018190030,MN1191
NYC FLEET / DEP_7WARDSI-S4,DEP,1,EV Solar Arc Charger,117 K Rd,New York,10035,Manhattan,40.791483,-73.921463,111,8,240,1088056,1018190015,MN1191
NYC FLEET / DEP_7WARDSI-S5,DEP,1,EV Solar Arc Charger,116 K Rd,New York,10035,Manhattan,40.791469,-73.921474,111,8,240,1089375,1018190030,MN1191
NYC FLEET / DEP_7WARDSI-S6,DEP,1,EV Solar Arc Charger,116 K Rd,New York,10035,Manhattan,40.791469,-73.921474,111,8,240,1089375,1018190030,MN1191
NYC FLEET / DEP_7WARDSI-S7,DEP,1,EV Solar Arc Charger,116 K Rd,New York,10035,Manhattan,40.791469,-73.921474,111,8,240,1089375,1018190030,MN1191
NYC FLEET / DEP_930ZEREGA_1,DEP,2,Level 2 Charger,930 Zerega Ave,East Bronx,10473,Bronx,40.827109,-73.843596,209,18,90,2000000,2037060001,BX0903
NYC FLEET / DEP_ARKVILLE-1,DEP,2,Level 2 Charger,Co Rd 38,Arkville,12406,Upstate,,,,,,,,
NYC FLEET / DEP_ASHOKANBNL1,DEP,2,Level 2 Charger,2471 B W S Rd,Olivebridge,12461,Upstate,,,,,,,,
NYC FLEET / DEP_ASHOKANBNL2,DEP,2,Level 2 Charger,2471 B W S Rd,Olivebridge,12461,Upstate,,,,,,,,
NYC FLEET / DEP_ASHOKN_1_L3,DEP,1,Level 3 Fast Charger,2398 NY-28A,Olivebridge,12461,Upstate,,,,,,,,
NYC FLEET / DEP_ASTORIA #1,DEP,2,Level 2 Charger,43-1 Berrian Blvd,Queens,11105,Queens,40.778421,-73.894593,401,22,10701,4442400,4007760150,QN0101
NYC FLEET / DEP_ASTORIA#2,DEP,2,Level 2 Charger,43-1 Berrian Blvd,Queens,11105,Queens,40.778421,-73.894593,401,22,10701,4442400,4007760150,QN0101
NYC FLEET / DEP_BEERSTNPCT,DEP,2,Level 2 Charger,21852 NY-10,Walton,13856,Upstate,,,,,,,,
NYC FLEET / DEP_BKHZMT_1_L3,DEP,2,Level 3 Fast Charger - Boost,623 Myrtle Ave,Brooklyn,11205,Brooklyn,40.694275,-73.958854,303,33,1237,3341943,3018980001,BK0301
NYC FLEET / DEP_BKHZMT_2_L3,DEP,2,Level 3 Fast Charger - Boost,623 Myrtle Ave,Brooklyn,11205,Brooklyn,40.694275,-73.958854,303,33,1237,3341943,3018980001,BK0301
NYC FLEET / DEP_BKSEWR_1_L3,DEP,1,Level 3 Fast Charger,855 Remsen Ave,Brooklyn,11236,Brooklyn,40.646913,-73.913395,318,42,960,3397904,3081160001,BK1803
NYC FLEET / DEP_BKSEWR_2_L3,DEP,1,Level 3 Fast Charger,855 Remsen Ave,Brooklyn,11236,Brooklyn,40.646913,-73.913395,318,42,960,3397904,3081160001,BK1803
NYC FLEET / DEP_BKSEWR_3_L3,DEP,1,Level 3 Fast Charger,855 Remsen Ave,Brooklyn,11236,Brooklyn,40.646913,-73.913395,318,42,960,3397904,3081160001,BK1803
NYC FLEET / DEP_BKSEWR_4_L3,DEP,1,Level 3 Fast Charger,855 Remsen Ave,Brooklyn,11236,Brooklyn,40.646913,-73.913395,318,42,960,3397904,3081160001,BK1803
NYC FLEET / DEP_BKWATER-S1,DEP,1,EV Solar Arc Charger,22 N 15th St,Brooklyn,11222,Brooklyn,40.724702,-73.956934,301,33,561,3065473,3026130001,BK0101
NYC FLEET / DEP_BWRYBY_1_L3,DEP,1,Level 3 Fast Charger,4301 Berrian Blvd,Astoria,11105,Queens,40.778421,-73.894593,401,22,10701,4442400,4007760150,QN0101
NYC FLEET / DEP_BXWM-S1,DEP,1,EV Solar Arc Charger,3201 Jerome Ave,The Bronx,10468,Bronx,40.877534,-73.887189,207,11,409,2015443,2032510401,BX0702
NYC FLEET / DEP_CDIS4_01,DEP,2,Level 2 Charger,911 State Rt. 208,Gardiner,12589,Upstate,,,,,,,,
NYC FLEET / DEP_CFP_1_L3,DEP,1,Level 3 Fast Charger,3701 Jerome Ave,The Bronx,10467,Bronx,40.887018,-73.878095,226,11,43503,2112995,2059000001,BX2691
NYC FLEET / DEP_CLOVEPUMP,DEP,2,Level 2 Charger,1270 Victory Blvd,Staten Island,10301,Staten Island,40.615436,-74.105751,501,49,16901,5112448,5006690001,SI0105
NYC FLEET / DEP_CROTONFP-BX,DEP,2,Level 2 Charger,3701 Jerome Ave,Bronx,10467,Bronx,40.887018,-73.878095,226,11,43503,2112995,2059000001,BX2691
NYC FLEET / DEP_CROTONFP-S1,DEP,1,EV Solar Arc Charger,3701 Jerome Ave,Bronx,10467,Bronx,40.887018,-73.878095,226,11,43503,2112995,2059000001,BX2691
NYC FLEET / DEP_CROTONLK-1,DEP,2,Level 2 Charger,1020 Croton Dam Road,Yorktown Heights,10598,Upstate,,,,,,,,
NYC FLEET / DEP_CROTONLK-2,DEP,2,Level 2 Charger,1120 Croton Dam Road,Ossining,10598,Upstate,,,,,,,,
NYC FLEET / DEP_CRSSRIVER-1,DEP,2,Level 2 Charger,241 Cross River Rd,Katonah,10536,Upstate,,,,,,,,
NYC FLEET / DEP_CRSSRIVER-2,DEP,2,Level 2 Charger,241 Cross River Rd,Katonah,10536,Upstate,,,,,,,,
NYC FLEET / DEP_CRTNLK_1_L3,DEP,1,Level 3 Fast Charger,1120 Croton Dam Road,Ossining,10598,Upstate,,,,,,,,
NYC FLEET / DEP_GILBOA_1_L3,DEP,1,Level 3 Fast Charger,370 NY-990V,Gilboa,12076,Upstate,,,,,,,,
NYC FLEET / DEP_GOWANUSSP,DEP,2,Level 2 Charger,201 Douglass St,Brooklyn,11217,Brooklyn,40.681639,-73.987684,306,39,71,3336088,3004110014,BK0601
NYC FLEET / DEP_GRAHMSVLLE1,DEP,2,Level 2 Charger,7870 Ny-42,Grahamsville,12740,Upstate,,,,,,,,
NYC FLEET / DEP_GRAHMSVLLE2,DEP,2,Level 2 Charger,7866 Ny-42,Grahamsville,12740,Upstate,,,,,,,,
NYC FLEET / DEP_GRAHMSVLLE3,DEP,2,Level 2 Charger,7866 NY-42,Grahamsville,12740,Upstate,,,,,,,,
NYC FLEET / DEP_GRHMS_1_L3,DEP,1,Level 3 Fast Charger,7892 42,Neversink,12740,Upstate,,,,,,,,
NYC FLEET / DEP_GRN_INFRA_1,DEP,2,Level 2 Charger,305 Seigel St,East Williamsburg,11206,Brooklyn,40.705517,-73.934242,301,34,485,,,BK0104
NYC FLEET / DEP_HILLVW1A-B,DEP,2,Level 2 Charger,123 Hillview Ave,Yonkers,10704,Upstate,,,,,,,,
NYC FLEET / DEP_HILLVW-S1,DEP,1,EV Solar Arc Charger,412-494 Central Park Ave,Yonkers,10704,Upstate,,,,,,,,
NYC FLEET / DEP_HILLVW-S2,DEP,1,EV Solar Arc Charger,492 Central Park Ave,Yonkers,10704,Upstate,,,,,,,,
NYC FLEET / DEP_HILLVW-S3,DEP,1,EV Solar Arc Charger,100 Central Park Ave,Yonkers,10704,Upstate,,,,,,,,
NYC FLEET / DEP_HNTSPT_1_L3,DEP,1,Level 3 Fast Charger,1270 Ryawa Ave,Bronx,10474,Bronx,40.804827,-73.884759,202,17,9302,2118156,2027800002,BX0201
NYC FLEET / DEP_HNTSPT_2_L3,DEP,1,Level 3 Fast Charger,1270 Ryawa Ave,Bronx,10474,Bronx,40.804827,-73.884759,202,17,9302,2118156,2027800002,BX0201
NYC FLEET / DEP_HNTSPT_3_L3,DEP,1,Level 3 Fast Charger,1270 Ryawa Ave,Bronx,10474,Bronx,40.804827,-73.884759,202,17,9302,2118156,2027800002,BX0201
NYC FLEET / DEP_HNTSPT_4_L3,DEP,1,Level 3 Fast Charger,1270 Ryawa Ave,Bronx,10474,Bronx,40.804827,-73.884759,202,17,9302,2118156,2027800002,BX0201
NYC FLEET / DEP_HNTSPT_5_L3,DEP,1,Level 3 Fast Charger,1270 Ryawa Ave,Bronx,10474,Bronx,40.804827,-73.884759,202,17,9302,2118156,2027800002,BX0201
NYC FLEET / DEP_HNTSPT_6_L3,DEP,1,Level 3 Fast Charger,1270 Ryawa Ave,Bronx,10474,Bronx,40.804827,-73.884759,202,17,9302,2118156,2027800002,BX0201
NYC FLEET / DEP_JAMAICAPLNT,DEP,1,Level 2 Charger,150-20 134Th St,Jamaica,11420,Queens,40.662964,-73.806765,410,31,716,4459547,4119000002,QN8381
NYC FLEET / DEP_JEROME_1_L3,DEP,1,Level 3 Fast Charger,3201 Jerome Ave,West Bronx,10468,Bronx,40.877534,-73.887189,207,11,409,2015443,2032510401,BX0702
NYC FLEET / DEP_KINGSTON-1,DEP,2,Level 2 Charger,91 Smith Ave,Kingston,12401,Upstate,,,,,,,,
NYC FLEET / DEP_KINGSTON-2,DEP,2,Level 2 Charger,91 Smith Ave,Kingston,12401,Upstate,,,,,,,,
NYC FLEET / DEP_KINGSTON-3,DEP,2,Level 2 Charger,91 Smith Ave,Kingston,12401,Upstate,,,,,,,,
NYC FLEET / DEP_KINGSTONDPS,DEP,2,Level 2 Charger,134 Flatbush Ave,Kingston,12401,Upstate,,,,,,,,
NYC FLEET / DEP_LFRK_66+67,DEP,2,Level 2 Charger,59-17 Junction Blvd,Flushing,11373,Queens,40.734606,-73.864774,404,21,455,4047310,4019180001,QN0402
NYC FLEET / DEP_LFRK_68+69,DEP,2,Level 2 Charger,59-17 Junction Blvd,Flushing,11373,Queens,40.734606,-73.864774,404,21,455,4047310,4019180001,QN0402
NYC FLEET / DEP_LFRK_70+71,DEP,2,Level 2 Charger,59-17 Junction Blvd,Flushing,11373,Queens,40.734606,-73.864774,404,21,455,4047310,4019180001,QN0402
NYC FLEET / DEP_LFRK_72+73,DEP,2,Level 2 Charger,59-17 Junction Blvd,Flushing,11373,Queens,40.734606,-73.864774,404,21,455,4047310,4019180001,QN0402
NYC FLEET / DEP_LFRK_74+75,DEP,2,Level 2 Charger,59-17 Junction Blvd,Flushing,11373,Queens,40.734606,-73.864774,404,21,455,4047310,4019180001,QN0402
NYC FLEET / DEP_LFRK_76+77,DEP,2,Level 2 Charger,59-17 Junction Blvd,Flushing,11373,Queens,40.734606,-73.864774,404,21,455,4047310,4019180001,QN0402
NYC FLEET / DEP_LFRK_78+79,DEP,2,Level 2 Charger,59-17 Junction Blvd,Flushing,11373,Queens,40.734606,-73.864774,404,21,455,4047310,4019180001,QN0402
NYC FLEET / DEP_LFRK_80+81,DEP,2,Level 2 Charger,59-17 Junction Blvd 2,Corona,11373,Queens,40.734606,-73.864774,404,21,455,4047310,4019180001,QN0402
NYC FLEET / DEP_LFRK_82+83,DEP,2,Level 2 Charger,59-17 Junction Blvd,Corona,11373,Queens,40.734606,-73.864774,404,21,455,4047310,4019180001,QN0402
NYC FLEET / DEP_LFRK101+102,DEP,2,Level 2 Charger,96-08 57Th Ave,Corona,11368,Queens,40.73698,-73.864625,404,21,455,4047316,4019180055,QN0402
NYC FLEET / DEP_LFRK103+104,DEP,2,Level 2 Charger,96-08 57Th Ave,Corona,11368,Queens,40.73698,-73.864625,404,21,455,4047316,4019180055,QN0402
NYC FLEET / DEP_LFRK105+106,DEP,2,Level 2 Charger,96-08 57Th Ave,Corona,11368,Queens,40.73698,-73.864625,404,21,455,4047316,4019180055,QN0402
NYC FLEET / DEP_LFRK107+108,DEP,2,Level 2 Charger,96-08 57Th Ave,Corona,11368,Queens,40.73698,-73.864625,404,21,455,4047316,4019180055,QN0402
NYC FLEET / DEP_LFRK109+110,DEP,2,Level 2 Charger,59-17 Junction Blvd,Corona,11373,Queens,40.734606,-73.864774,404,21,455,4047310,4019180001,QN0402
NYC FLEET / DEP_LFRK111+112,DEP,2,Level 2 Charger,96-08 57Th Ave,Corona,11368,Queens,40.73698,-73.864625,404,21,455,4047316,4019180055,QN0402
NYC FLEET / DEP_LFRK113+114,DEP,2,Level 2 Charger,58-17 Junction Blvd,Flushing,11373,Queens,40.735229,-73.865098,404,21,455,4047312,4019180025,QN0402
NYC FLEET / DEP_LFRK115+116,DEP,2,Level 2 Charger,58-17 Junction Blvd,Flushing,11373,Queens,40.735229,-73.865098,404,21,455,4047312,4019180025,QN0402
NYC FLEET / DEP_LFRK117+118,DEP,2,Level 2 Charger,58-17 Junction Blvd,Flushing,11373,Queens,40.735229,-73.865098,404,21,455,4047312,4019180025,QN0402
NYC FLEET / DEP_MNREPAIR-1,DEP,2,Level 2 Charger,28 Pike St,New York,10002,Manhattan,40.71282,-73.992461,103,1,8,,,MN0301
NYC FLEET / DEP_MNRPR_1_L3,DEP,1,Level 3 Fast Charger,30 Pike St,New York,10002,Manhattan,40.712735,-73.99245,103,1,8,1003286,1002750028,MN0301
NYC FLEET / DEP_MNSEWR_1_L3,DEP,1,Level 3 Fast Charger,886 St Nicholas Ave,New York,10032,Manhattan,40.83028,-73.941602,109,9,23501,1075503,1020690026,MN0903
NYC FLEET / DEP_MNSEWR_2_L3,DEP,1,Level 3 Fast Charger,886 St Nicholas Ave,New York,10032,Manhattan,40.83028,-73.941602,109,9,23501,1075503,1020690026,MN0903
NYC FLEET / DEP_NEWTOWN CRE,DEP,2,Level 2 Charger,329 Greenpoint Ave,Brooklyn,11222,Brooklyn,40.731483,-73.946271,301,33,57902,3332517,3025250001,BK0101
NYC FLEET / DEP_NEWTOWNC-S1,DEP,1,EV Solar Arc Charger,267 Greenpoint Ave,Greenpoint,11222,Brooklyn,40.730718,-73.948891,301,33,57902,3398219,3025250001,BK0101
NYC FLEET / DEP_NEWTOWNC-S2,DEP,1,EV Solar Arc Charger,267 Greenpoint Ave,Greenpoint,11222,Brooklyn,40.730718,-73.948891,301,33,57902,3398219,3025250001,BK0101
NYC FLEET / DEP_OAKWOOD BEA,DEP,2,Level 2 Charger,751 Mill Road,Staten Island,10306,Staten Island,40.552071,-74.116133,503,50,12805,5135536,5050670500,SI0301
NYC FLEET / DEP_OWLS HE,DEP,2,Level 2 Charger,6700 Shore Rd,Brooklyn,11220,Brooklyn,40.6418,-74.034055,310,47,34,3391506,3058350001,BK1001
NYC FLEET / DEP_OWLSHD_1_L3,DEP,1,Level 3 Fast Charger,6700 Shore Rd,Brooklyn,11220,Brooklyn,40.6418,-74.034055,310,47,34,3391506,3058350001,BK1001
NYC FLEET / DEP_OWLSHD_2_L3,DEP,1,Level 3 Fast Charger,6700 Shore Rd,Brooklyn,11220,Brooklyn,40.6418,-74.034055,310,47,34,3391506,3058350001,BK1001
NYC FLEET / DEP_PORT RICHMO,DEP,2,Level 2 Charger,1759-1839 Richmond Terrace,Staten Island,10310,Staten Island,40.637411,-74.124854,501,49,13302,,,SI0106
NYC FLEET / DEP_PORTJERVIS,DEP,2,Level 2 Charger,43 N Maple Ave,Port Jervis,12771,Upstate,,,,,,,,
NYC FLEET / DEP_PRDGT_1_L3,DEP,1,Level 3 Fast Charger,1875 Ralph Ave,Bergen Beach,11234,Brooklyn,40.631422,-73.91852,318,46,69601,3398530,3083380001,BK1802
NYC FLEET / DEP_QNS180ST-S1,DEP,1,EV Solar Arc Charger,106-36 180Th Street,Jamaica,11433,Queens,40.703128,-73.77772,412,27,414,4459328,4103350032,QN1202
NYC FLEET / DEP_QNSREPAIR01,DEP,2,Level 2 Charger,106-36 180Th St,Jamaica,11433,Queens,40.703128,-73.77772,412,27,414,4459328,4103350032,QN1202
NYC FLEET / DEP_QNSREPAIR02,DEP,2,Level 2 Charger,106-36 180Th St,Jamaica,11433,Queens,40.703128,-73.77772,412,27,414,4459328,4103350032,QN1202
NYC FLEET / DEP_QNSREPAIR03,DEP,2,Level 2 Charger,106-36 180Th St,Jamaica,11433,Queens,40.703128,-73.77772,412,27,414,4459328,4103350032,QN1202
NYC FLEET / DEP_QNSREPAIR04,DEP,2,Level 2 Charger,106-36 180Th St,Jamaica,11433,Queens,40.703128,-73.77772,412,27,414,4459328,4103350032,QN1202
NYC FLEET / DEP_RED HOOK,DEP,2,Level 2 Charger,63 Flushing Ave,Brooklyn,11205,Brooklyn,40.69802,-73.974986,302,33,543,3335129,3020230001,BK0261
NYC FLEET / DEP_RHWWTP_1_L3,DEP,1,Level 3 Fast Charger,63 Flushing Ave,Brooklyn,11205,Brooklyn,40.69802,-73.974986,302,33,543,3335129,3020230001,BK0261
NYC FLEET / DEP_RHWWTP_2_L3,DEP,1,Level 3 Fast Charger,63 Flushing Ave,Brooklyn,11205,Brooklyn,40.69802,-73.974986,302,33,543,3335129,3020230001,BK0261
NYC FLEET / DEP_ROCKAWAY106,DEP,2,Level 2 Charger,5-36 Beach Channel Dr,Queens,11694,Queens,,,,,,,,
NYC FLEET / DEP_SH18_1_L3,DEP,1,Level 3 Fast Charger,20 Westlake Dr,Valhalla,10595,Upstate,,,,,,,,
NYC FLEET / DEP_SHAFT10-1,DEP,2,Level 2 Charger,1286 US-6,Carmel Hamlet,10512,Upstate,,,,,,,,
NYC FLEET / DEP_SHAFT10-2,DEP,2,Level 2 Charger,1286 US-6,Carmel Hamlet,10512,Upstate,,,,,,,,
NYC FLEET / DEP_SHAFT18,DEP,2,Level 2 Charger,20 Westlake Dr,Valhalla,10595,Upstate,,,,,,,,
NYC FLEET / DEP_SHAFT18-2,DEP,2,Level 2 Charger,1 W Westlake Dr,Valhalla,10595,Upstate,,,,,,,,
NYC FLEET / DEP_SHAFT18-3,DEP,2,Level 2 Charger,1 W Westlake Dr,Valhalla,10595,Upstate,,,,,,,,
NYC FLEET / DEP_SHAFT18-4,DEP,2,Level 2 Charger,20 Westlake Dr,Valhalla,10595,Upstate,,,,,,,,
NYC FLEET / DEP_SIREPAIR-S1,DEP,1,EV Solar Arc Charger,182 Joline Ave,Staten Island,10307,Staten Island,40.508319,-74.235614,503,51,24401,5087579,5078410154,SI0305
NYC FLEET / DEP_SIREPAIR-S2,DEP,1,EV Solar Arc Charger,182 Joline Ave,Staten Island,10307,Staten Island,40.508319,-74.235614,503,51,24401,5087579,5078410154,SI0305
NYC FLEET / DEP_SMAINT_1_L3,DEP,1,Level 3 Fast Charger,350 Flushing Ave,Brooklyn,11205,Brooklyn,40.69834,-73.960921,303,33,1237,3054189,3018820001,BK0301
NYC FLEET / DEP_SMAINT_2_L3,DEP,1,Level 3 Fast Charger,350 Flushing Ave,Brooklyn,11205,Brooklyn,40.69834,-73.960921,303,33,1237,3054189,3018820001,BK0301
NYC FLEET / DEP_TALLMAN-1,DEP,2,Level 2 Charger,182 Powells Cove Blvd,Queens,11356,Queens,,,,,,,,
NYC FLEET / DEP_TALLMAN-2,DEP,2,Level 2 Charger,182 Powells Cove Blvd,Queens,11356,Queens,,,,,,,,
NYC FLEET / DEP_TALLMAN-3,DEP,2,Level 2 Charger,182 Powells Cove Blvd,Queens,11356,Queens,,,,,,,,
NYC FLEET / DEP_TALLMAN-4,DEP,2,Level 2 Charger,182 Powells Cove Blvd,Queens,11356,Queens,,,,,,,,
NYC FLEET / DEP_TALLMAN-5,DEP,2,Level 2 Charger,182 Powells Cove Blvd,Queens,11356,Queens,,,,,,,,
NYC FLEET / DEP_TALLMAN-6,DEP,2,Level 2 Charger,182 Powells Cove Blvd,Queens,11356,Queens,,,,,,,,
NYC FLEET / DEP_TALLMAN-7,DEP,2,Level 2 Charger,182 Powells Cove Blvd,Queens,11356,Queens,,,,,,,,
NYC FLEET / DEP_TALLMAN-8,DEP,2,Level 2 Charger,182 Powells Cove Blvd,Queens,11356,Queens,,,,,,,,
NYC FLEET / DEP_TALLMAN-9,DEP,2,Level 2 Charger,182 Powells Cove Blvd,Queens,11356,Queens,,,,,,,,
NYC FLEET / DEP_TALLMN_1_L3,DEP,1,Level 3 Fast Charger,127-01 Powell Cove Blvd,Queens,11356,Queens,40.793864,-73.840525,407,19,939,4453834,4039250001,QN0701
NYC FLEET / DEP_TALLMN_2_L3,DEP,1,Level 3 Fast Charger,127-01 Powell Cove Blvd,Queens,11356,Queens,40.793864,-73.840525,407,19,939,4453834,4039250001,QN0701
NYC FLEET / DEP_W135ST#1,DEP,2,Level 2 Charger,725 W 135Th St,New York,10031,Manhattan,40.821384,-73.9581,109,7,22301,1084789,1021010117,MN0902
NYC FLEET / DEP_W135ST#2,DEP,2,Level 2 Charger,725 W 135Th St,New York,10031,Manhattan,40.821384,-73.9581,109,7,22301,1084789,1021010117,MN0902
NYC FLEET / DEP_WARDMRNE-1,DEP,1,Level 2 Charger,148 6 Dr,New York,10035,Manhattan,40.788869,-73.920097,111,8,240,1088060,1018190015,MN1191
NYC FLEET / DEP_WARDNEWADMN,DEP,2,Level 2 Charger,104 B Rd,New York,10035,Manhattan,40.787146,-73.925083,111,8,240,1088039,1018190015,MN1191
NYC FLEET / DEP_WARDS ISLAN,DEP,2,Level 2 Charger,Hell Gate Cir,New York,10035,Manhattan,,,,,,,,
NYC FLEET / DEP_WARDS_1_L3,DEP,1,Level 3 Fast Charger,104 B Rd,New York,10035,Manhattan,40.787146,-73.925083,111,8,240,1088039,1018190015,MN1191
NYC FLEET / DEP_WARDS_2_L3,DEP,1,Level 3 Fast Charger,104 B Rd,New York,10035,Manhattan,40.787146,-73.925083,111,8,240,1088039,1018190015,MN1191
NYC FLEET / DEP_WARDS_3_L3,DEP,1,Level 3 Fast Charger,142 A Rd,New York,10035,Manhattan,40.785113,-73.923366,111,8,240,1088037,1018190015,MN1191
NYC FLEET / DEP_WARDS_4_L3,DEP,1,Level 3 Fast Charger,142 A Rd,New York,10035,Manhattan,40.785113,-73.923366,111,8,240,1088037,1018190015,MN1191
NYC FLEET / DEP_WARDS_5_L3,DEP,1,Level 3 Fast Charger,142 A Rd,New York,10035,Manhattan,40.785113,-73.923366,111,8,240,1088037,1018190015,MN1191
NYC FLEET / DEP_WARDS_6_L3,DEP,1,Level 3 Fast Charger,142 A Rd,New York,10035,Manhattan,40.785113,-73.923366,111,8,240,1088037,1018190015,MN1191
NYC FLEET / DEP_WARDS_7_L3,DEP,1,Level 3 Fast Charger,149 8 Dr,New York,10035,Manhattan,40.788166,-73.919762,111,8,240,1088059,1018190015,MN1191
NYC FLEET / DEP_WARDS_8_L3,DEP,1,Level 3 Fast Charger,149 8 Dr,New York,10035,Manhattan,40.788166,-73.919762,111,8,240,1088059,1018190015,MN1191
NYC FLEET / DEP_WARDSADMN-1,DEP,1,Level 2 Charger,106 2Nd Dr,New York,10035,Manhattan,40.788715,-73.924539,111,8,240,1088029,1018190015,MN1191
NYC FLEET / DEP_WARDS-ARC,DEP,1,EV Solar Arc Charger,111 3Rd Dr,New York,10035,Manhattan,40.787573,-73.924403,111,8,240,1088032,1018190015,MN1191
NYC FLEET / DEP_WARDSTLR-1,DEP,1,Level 2 Charger,143 A Rd,New York,10035,Manhattan,40.785113,-73.923366,111,8,240,1088038,1018190015,MN1191
NYC FLEET / DEP_WARDTRLR116,DEP,2,Level 2 Charger,116 4Th Dr,New York,10035,Manhattan,40.791082,-73.921051,111,8,240,1088022,1018190030,MN1191
NYC FLEET / DEP_WDRC#1,DEP,2,Level 2 Charger,3525 State Highway 10,Deposit,13754,Upstate,,,,,,,,
NYC FLEET / DEP_WS_JEROME,DEP,2,Level 2 Charger,3327-3549 Jerome Ave,West Bronx,10468,Bronx,40.879456,-73.885016,207,11,421,,,BX0703
NYC FLEET / DEP_WS465COLU1,DEP,2,Level 2 Charger,465 Columbus Ave,Valhalla,10595,Upstate,,,,,,,,
NYC FLEET / DEP_WS465COLU2,DEP,2,Level 2 Charger,465 Columbus Ave,Valhalla,10595,Upstate,,,,,,,,
NYC FLEET / DEP_WT_HP_ADMIN,DEP,2,Level 2 Charger,1260 Ryawa Ave,Bronx,10474,Bronx,40.804742,-73.885322,202,17,9302,2118134,2027800002,BX0201
NYC FLEET / DEP_WT_HP_CONST,DEP,2,Level 2 Charger,1260 Ryawa Ave,Bronx,10474,Bronx,40.804742,-73.885322,202,17,9302,2118134,2027800002,BX0201
NYC FLEET / DEP_WT_PAEDERGA,DEP,2,Level 2 Charger,1887 Ralph Ave,Brooklyn,11234,Brooklyn,40.631239,-73.918502,318,46,69601,3398349,3083380001,BK1802
NYC FLEET / DEP_WTNEWTOWN-1,DEP,1,Level 2 Charger,289-369 Greenpoint Ave,Brooklyn,11222,Brooklyn,40.730973,-73.947675,301,33,57902,,,BK0101
NYC FLEET / DEPCNY_ISL_1_L3,DEP,1,Level 3 Fast Charger,2509 Knapp St,Sheepshead Bay,11235,Brooklyn,40.592085,-73.932521,315,46,628,3404766,3088340175,BK1503
NYC FLEET / DEPCNY_ISL_2_L3,DEP,1,Level 3 Fast Charger,3002 Knapp St,Sheepshead Bay,11235,Brooklyn,,,,,,,,
NYC FLEET / DEPDOWNSVILLE_1,DEP,2,Level 2 Charger,20 New York City Highway 30A,Downsville,13755,Upstate,,,,,,,,
NYC FLEET / DEPDOWNSVILLE_2,DEP,2,Level 2 Charger,40 New York City Highway 30A,Downsville,13755,Upstate,,,,,,,,
NYC FLEET / DEPDOWNSVILLE_3,DEP,2,Level 2 Charger,20 New York City Highway 30A,Downsville,13755,Upstate,,,,,,,,
NYC FLEET / DEPDOWNSVILLE_4,DEP,2,Level 2 Charger,20 New York City Highway 30A,Downsville,13755,Upstate,,,,,,,,
NYC FLEET / DEPDOWNSVILLE_5,DEP,2,Level 2 Charger,20 New York City Highway 30A,Downsville,13755,Upstate,,,,,,,,
NYC FLEET / DEP-FMC,DEP,2,Level 2 Charger,58-30 Grand Ave,Maspeth,11378,Queens,40.719651,-73.91119,405,30,525,4059931,4026810001,QN0501
NYC FLEET / DEPJAMAICA_1_L3,DEP,1,Level 3 Fast Charger,150-20 134th St,Queens,11420,Queens,40.662964,-73.806765,410,31,716,4459547,4119000002,QN8381
NYC FLEET / DEPJAMAICA_2_L3,DEP,1,Level 3 Fast Charger,150-20 134 Street,Queens,11430,Queens,40.662964,-73.806765,410,31,716,4459547,4119000002,QN8381
NYC FLEET / DEPJAMAICA_3_L3,DEP,1,Level 3 Fast Charger,150-20 134th St,Queens,11420,Queens,40.662964,-73.806765,410,31,716,4459547,4119000002,QN8381
NYC FLEET / DEPJAMAICA_4_L3,DEP,1,Level 3 Fast Charger,150-20 134 Street,Queens,11436,Queens,40.662964,-73.806765,410,31,716,4459547,4119000002,QN8381
NYC FLEET / DEPNEWTOWNCRK01,DEP,2,Level 2 Charger,319 Greenpoint Ave,Greenpoint,11222,Brooklyn,40.731272,-73.946848,301,33,57902,3397231,3025250001,BK0101
NYC FLEET / DEPNEWTOWNCRK02,DEP,2,Level 2 Charger,319 Greenpoint Ave,Greenpoint,11222,Brooklyn,40.731272,-73.946848,301,33,57902,3397231,3025250001,BK0101
NYC FLEET / DEPNEWTOWNCRK03,DEP,2,Level 2 Charger,319 Greenpoint Ave,Greenpoint,11222,Brooklyn,40.731272,-73.946848,301,33,57902,3397231,3025250001,BK0101
NYC FLEET / DEPNORTHRIVER01,DEP,1,Level 2 Charger,750 W 145Th St,New York,10031,Manhattan,40.827108,-73.95466,109,7,225,1086244,1021010100,MN0903
NYC FLEET / DEPNRVWWTP_1_L3,DEP,1,Level 3 Fast Charger,725 W 135Th St,New York,10031,Manhattan,40.821384,-73.9581,109,7,22301,1084789,1021010117,MN0902
NYC FLEET / DEPNRVWWTP_2_L3,DEP,1,Level 3 Fast Charger,725 W 135th St,New York,10031,Manhattan,40.821384,-73.9581,109,7,22301,1084789,1021010117,MN0902
NYC FLEET / DEPNRVWWTP_3_L3,DEP,1,Level 3 Fast Charger,725 W 135th St,New York,10031,Manhattan,40.821384,-73.9581,109,7,22301,1084789,1021010117,MN0902
NYC FLEET / DEPNRVWWTP_4_L3,DEP,1,Level 3 Fast Charger,725 W 135th St,New York,10031,Manhattan,40.821384,-73.9581,109,7,22301,1084789,1021010117,MN0902
NYC FLEET / DEPNRVWWTP_5_L3,DEP,1,Level 3 Fast Charger,725 W 135th St,New York,10031,Manhattan,40.821384,-73.9581,109,7,22301,1084789,1021010117,MN0902
NYC FLEET / DEPNRVWWTP_6_L3,DEP,1,Level 3 Fast Charger,725 W 135th St,New York,10031,Manhattan,40.821384,-73.9581,109,7,22301,1084789,1021010117,MN0902
NYC FLEET / DEPNRVWWTP_7_L3,DEP,1,Level 3 Fast Charger,725 W 135th St,New York,10031,Manhattan,40.821384,-73.9581,109,7,22301,1084789,1021010117,MN0902
NYC FLEET / DEPNTWNCRK_1_L3,DEP,1,Level 3 Fast Charger,327 Greenpoint Ave,Greenpoint,11222,Brooklyn,40.731351,-73.946628,301,33,57902,3336623,3025250001,BK0101
NYC FLEET / DEPNTWNCRK_2_L3,DEP,1,Level 3 Fast Charger,319 Greenpoint Ave,Greenpoint,11222,Brooklyn,40.731272,-73.946848,301,33,57902,3397231,3025250001,BK0101
NYC FLEET / DEPNTWNCRK_3_L3,DEP,1,Level 3 Fast Charger,319 Greenpoint Ave,Greenpoint,11222,Brooklyn,40.731272,-73.946848,301,33,57902,3397231,3025250001,BK0101
NYC FLEET / DEPNTWNCRK_4_L3,DEP,1,Level 3 Fast Charger,319 Greenpoint Ave,Greenpoint,11222,Brooklyn,40.731272,-73.946848,301,33,57902,3397231,3025250001,BK0101
NYC FLEET / DEPNTWNCRK_5_L3,DEP,1,Level 3 Fast Charger,319 Greenpoint Ave,Greenpoint,11222,Brooklyn,40.731272,-73.946848,301,33,57902,3397231,3025250001,BK0101
NYC FLEET / DEPNTWNCRK_6_L3,DEP,1,Level 3 Fast Charger,319 Greenpoint Ave,Greenpoint,11222,Brooklyn,40.731272,-73.946848,301,33,57902,3397231,3025250001,BK0101
NYC FLEET / DEPOAKWWTP_1_L3,DEP,1,Level 3 Fast Charger,683 Mill Rd,Staten Island,10306,Staten Island,40.553917,-74.117306,503,50,12805,5000000,5047460007,SI0301
NYC FLEET / DEPOAKWWTP_2_L3,DEP,1,Level 3 Fast Charger,683 Mill Rd,Staten Island,10306,Staten Island,40.553917,-74.117306,503,50,12805,5000000,5047460007,SI0301
NYC FLEET / DEPOAKWWTP_3_L3,DEP,1,Level 3 Fast Charger,751 Mill Rd,Staten Island,10306,Staten Island,40.552071,-74.116133,503,50,12805,5135536,5050670500,SI0301
NYC FLEET / DEPOAKWWTP_4_L3,DEP,1,Level 3 Fast Charger,751 Mill Rd,Staten Island,10306,Staten Island,40.552071,-74.116133,503,50,12805,5135536,5050670500,SI0301
NYC FLEET / DEPOAKWWTP_5_L3,DEP,1,Level 3 Fast Charger,751 Mill Rd,Staten Island,10306,Staten Island,40.552071,-74.116133,503,50,12805,5135536,5050670500,SI0301
NYC FLEET / DEPOAKWWTP_6_L3,DEP,1,Level 3 Fast Charger,751 Mill Rd,Staten Island,10306,Staten Island,40.552071,-74.116133,503,50,12805,5135536,5050670500,SI0301
NYC FLEET / DEPOAKWWTP_7_L3,DEP,1,Level 3 Fast Charger,751 Mill Rd,Staten Island,10306,Staten Island,40.552071,-74.116133,503,50,12805,5135536,5050670500,SI0301
NYC FLEET / DEPOAKWWTP_8_L3,DEP,1,Level 3 Fast Charger,751 Mill Rd,Staten Island,10306,Staten Island,40.552071,-74.116133,503,50,12805,5135536,5050670500,SI0301
NYC FLEET / DEPQUEENSREP-S1,DEP,1,EV Solar Arc Charger,106-36 180th St,Queens,11433,Queens,40.703128,-73.77772,412,27,414,4459328,4103350032,QN1202
NYC FLEET / DEPROCKAWY_1_L3,DEP,1,Level 3 Fast Charger,106 Beach Channel Dr,Queens,11694,Queens,,,,,,,,
NYC FLEET / DEPROCKAWY_2_L3,DEP,1,Level 3 Fast Charger,106 Beach Channel Dr,Queens,11694,Queens,,,,,,,,
NYC FLEET / DEPROCKAWY_3_L3,DEP,1,Level 3 Fast Charger,106 Beach Channel Dr,Queens,11694,Queens,,,,,,,,
NYC FLEET / DEPROCKAWY_4_L3,DEP,1,Level 3 Fast Charger,106 Beach Channel Dr,Queens,11694,Queens,,,,,,,,
NYC FLEET / DEPROCKAWY_5_L3,DEP,1,Level 3 Fast Charger,106 Beach Channel Dr,Queens,11694,Queens,,,,,,,,
NYC FLEET / DEPROCKAWY_6_L3,DEP,1,Level 3 Fast Charger,106 Beach Channel Dr,Queens,11694,Queens,,,,,,,,
NYC FLEET / DEPVALHALLA1_L3,DEP,1,Level 3 Fast Charger,10 Walker Rd,Valhalla,10595,Upstate,,,,,,,,
NYC FLEET / DHS_BKLMNR_1_L3,DHS,1,Level 3 Fast Charger,300 Skillman Ave,Brooklyn,11211,Brooklyn,40.71663,-73.939205,301,34,44901,3338304,3028850035,BK0104
NYC FLEET / DHS_BKLMNR-1,DHS,2,Level 2 Charger,300 Skillman Ave,East Williamsburg,11211,Brooklyn,40.71663,-73.939205,301,34,44901,3338304,3028850035,BK0104
NYC FLEET / DHS_BKLMNR-2,DHS,2,Level 2 Charger,300 Skillman Ave,East Williamsburg,11211,Brooklyn,40.71663,-73.939205,301,34,44901,3338304,3028850035,BK0104
NYC FLEET / DHS_COMM#27,DHS,1,Level 2 Charger,64 Sunken Garden Loop,New York,10035,Manhattan,40.785494,-73.931397,111,8,240,1085877,1018190010,MN1191
NYC FLEET / DHS_FARRAGUT-1,DHS,1,Level 2 Charger,10107 Farragut Rd,Brooklyn,11236,Brooklyn,40.648081,-73.901772,318,42,1098,3229148,3081490001,BK0503
NYC FLEET / DHS_FARRAGUT-2,DHS,1,Level 2 Charger,10107 Farragut Rd,Brooklyn,11236,Brooklyn,40.648081,-73.901772,318,42,1098,3229148,3081490001,BK0503
NYC FLEET / DHS_FARRAGUT-3,DHS,1,Level 2 Charger,10107 Farragut Rd,Brooklyn,11236,Brooklyn,40.648081,-73.901772,318,42,1098,3229148,3081490001,BK0503
NYC FLEET / DHSFARAGUT_1_L3,DHS,1,Level 3 Fast Charger,10107 Farragut Rd,Brooklyn,11236,Brooklyn,40.648081,-73.901772,318,42,1098,3229148,3081490001,BK0503
NYC FLEET / DHSFARAGUT_2_L3,DHS,1,Level 3 Fast Charger,10107 Farragut Rd,Brooklyn,11236,Brooklyn,40.648081,-73.901772,318,42,1098,3229148,3081490001,BK0503
NYC FLEET / DHSFARAGUT_3_L3,DHS,1,Level 3 Fast Charger,10107 Farragut Rd,Brooklyn,11236,Brooklyn,40.648081,-73.901772,318,42,1098,3229148,3081490001,BK0503
NYC FLEET / DHSFARAGUT_4_L3,DHS,1,Level 3 Fast Charger,10107 Farragut Rd,Brooklyn,11236,Brooklyn,40.648081,-73.901772,318,42,1098,3229148,3081490001,BK0503
NYC FLEET / DOB_BRDWY_1_L3,DOB,1,Level 3 Fast Charger,280 Broadway,Manhattan,10007,Manhattan,40.714417,-74.006089,101,1,31,1079215,1001530001,MN0102
NYC FLEET / DOC_CHAPEL_1_L3,DOC,1,Level 3 Fast Charger,0 Hazen St,Queens,11370,Bronx,,,,,,,,
NYC FLEET / DOC_CHAPEL_2_L3,DOC,1,Level 3 Fast Charger,16-16 Hazen St,Queens,11370,Queens,40.790301,-73.884412,401,22,1,,,QN0151
NYC FLEET / DOC_CHAPEL_3_L3,DOC,1,Level 3 Fast Charger,16-16 Hazen St,Queens,11370,Queens,40.790301,-73.884412,401,22,1,,,QN0151
NYC FLEET / DOC_CHAPEL_4_L3,DOC,1,Level 3 Fast Charger,16-16 Hazen St,Queens,11370,Queens,40.790301,-73.884412,401,22,1,,,QN0151
NYC FLEET / DOC_CHAPEL_5_L3,DOC,1,Level 3 Fast Charger,16-16 Hazen St,Queens,11370,Queens,40.790301,-73.884412,401,22,1,,,QN0151
NYC FLEET / DOC_CHAPEL_6_L3,DOC,1,Level 3 Fast Charger,16-16 Hazen St,Queens,11370,Queens,40.790301,-73.884412,401,22,1,,,QN0151
NYC FLEET / DOC_CHAPEL-1,DOC,2,Level 2 Charger,12-00 Hazen Street,East Elmhurst,11370,Queens,40.793765,-73.884156,401,22,1,,,QN0151
NYC FLEET / DOC_CHAPEL-S1,DOC,1,EV Solar Arc Charger,15-0 Hazen St,East Elmhurst,11370,Queens,40.790985,-73.884396,401,22,1,2116652,2026050040,QN0151
NYC FLEET / DOC_DCFLEET,DOC,2,Level 2 Charger,15 Hazen St,Queens,11370,Bronx,,,,,,,,
NYC FLEET / DOC_DCJC,DOC,2,Level 2 Charger,Rikers Island,East Elmhurst,11370,Queens,40.790576,-73.881894,401,22,1,2000000,2026050040,QN0151
NYC FLEET / DOC_DIVISION-1,DOC,2,Level 2 Charger,30 N Perimeter Rd,Bronx,11320,Bronx,,,,,,,,
NYC FLEET / DOC_DIVISION-2,DOC,2,Level 2 Charger,Hillside Ave,Bronx,10474,Bronx,,,,,,,,
NYC FLEET / DOC_EMTC-1,DOC,2,Level 2 Charger,10- 10 Hazen St,Queens,11370,Bronx,40.793474,-73.884161,401,22,1,2116651,2026050040,QN0151
NYC FLEET / DOC_ENVHEALTH,DOC,2,Level 2 Charger,Hillside Ave,Bronx,10474,Bronx,,,,,,,,
NYC FLEET / DOC_ETAYLOR-S,DOC,1,EV Solar Arc Charger,Rikers Is Br Appr,Flushing,11371,Queens,,,,,,,,
NYC FLEET / DOC_FFF-CPT,DOC,2,Level 2 Charger,120 Construction Way,Riker's Island,11105,Queens,,,,,,,,
NYC FLEET / DOC_FLEETMT1A-B,DOC,2,Level 2 Charger,1717 Hazen St.,Riker's Island,11370,Queens,40.789275,-73.884406,401,22,1,,,QN0151
NYC FLEET / DOC_FLEETMT2A-B,DOC,2,Level 2 Charger,1717 Hazen Street,Riker's Island,11370,Queens,40.789275,-73.884406,401,22,1,,,QN0151
NYC FLEET / DOC_FLEETUNIT-1,DOC,2,Level 2 Charger,17-17 Hazen St,Bronx,11474,Bronx,40.789275,-73.884406,401,22,1,,,QN0151
NYC FLEET / DOC_FMRDCOMPLEX,DOC,2,Level 2 Charger,0 Hazen St,Riker's Island,11370,Queens,,,,,,,,
NYC FLEET / DOC_FMRD-WH,DOC,2,Level 2 Charger,Hazen St,Riker's Island,10474,Bronx,,,,,,,,
NYC FLEET / DOC_GRVC-1,DOC,2,Level 2 Charger,09-09 Hazen Street,The Bronx,11370,Queens,40.794577,-73.884162,401,22,1,2096863,2026050040,QN0151
NYC FLEET / DOC_HAZEN16,DOC,2,Level 2 Charger,16-16 Hazen St,East Elmhurst,11370,Bronx,40.790301,-73.884412,401,22,1,,,QN0151
NYC FLEET / DOC_HAZENDCFC,DOC,1,Level 3 Fast Charger,Hazen St,Riker's Island,10474,Bronx,,,,,,,,
NYC FLEET / DOC_HAZENLOT4,DOC,1,Level 2 Charger,15-15 Hazen St,Bronx,10474,Bronx,40.790976,-73.884374,401,22,1,2097042,2026050040,QN0151
NYC FLEET / DOC_HAZENLOT-S1,DOC,1,EV Solar Arc Charger,Hazen St,Riker's Island,10474,Bronx,,,,,,,,
NYC FLEET / DOC_HAZENLOT-S2,DOC,1,EV Solar Arc Charger,Hazen St,Riker's Island,10474,Bronx,,,,,,,,
NYC FLEET / DOC_HAZENLOT-S3,DOC,1,EV Solar Arc Charger,Hazen St,Riker's Island,10474,Bronx,,,,,,,,
NYC FLEET / DOC_HAZENLT1A-B,DOC,2,Level 2 Charger,Hazen St,Riker's Island,10474,Bronx,,,,,,,,
NYC FLEET / DOC_HAZENLT2A-B,DOC,2,Level 2 Charger,Hazen St,Riker's Island,10474,Bronx,,,,,,,,
NYC FLEET / DOC_IT_WAREHSE,DOC,2,Level 2 Charger,15B West 5th Street East Elmhurst,Riker's Island,11370,Bronx,,,,,,,,
NYC FLEET / DOC_MCD_IT_1,DOC,2,Level 2 Charger,0 Hazen St,New York,11370,Bronx,,,,,,,,
NYC FLEET / DOC_NIC-1,DOC,2,Level 2 Charger,15-00 Hazen St,Queens,11370,Bronx,40.790985,-73.884396,401,22,1,2116652,2026050040,QN0151
NYC FLEET / DOC_OBCC1,DOC,2,Level 2 Charger,16-00 Hazen Street,The Bronx,11370,Bronx,40.790312,-73.884412,401,22,1,2109474,2026050040,QN0151
NYC FLEET / DOC_PREA-1,DOC,2,Level 2 Charger,1 Construction Way,Bronx,11371,Bronx,,,,,,,,
NYC FLEET / DOC_PREA-2,DOC,2,Level 2 Charger,1 Construction Way,Bronx,11371,Bronx,,,,,,,,
NYC FLEET / DOC_QNSCOURT,DOC,2,Level 2 Charger,125-01 82Nd Ave,Kew Gardens,11415,Queens,40.710935,-73.831627,409,29,775,4079703,4033370047,QN0901
NYC FLEET / DOC_RADIO-1,DOC,2,Level 2 Charger,1616 Hazen St,The Bronx,10457,Bronx,40.790301,-73.884412,401,22,1,,,QN0151
NYC FLEET / DOC_RI-INVDIV-1,DOC,2,Level 2 Charger,Hillside Ave,Bronx,10474,Bronx,,,,,,,,
NYC FLEET / DOC_RI-INVDIV-2,DOC,2,Level 2 Charger,Hillside Ave,Bronx,10474,Bronx,,,,,,,,
NYC FLEET / DOC_RI-INVDIV-S,DOC,1,EV Solar Arc Charger,Hillside Ave,Bronx,10474,Bronx,,,,,,,,
NYC FLEET / DOC_RMSC-1,DOC,2,Level 2 Charger,19-19 Hazen St,New York,11370,Queens,40.788432,-73.884444,401,22,1,2109477,2026050040,QN0151
NYC FLEET / DOC_RNDC-1,DOC,2,Level 2 Charger,11-11 Hazen Street,The Bronx,11370,Staten Island,,,,,,,,
NYC FLEET / DOC_SDC-1,DOC,2,Level 2 Charger,SDC OFFICE,Queens,11370,Bronx,,,,,,,,
NYC FLEET / DOC_SLRCANOPY1,DOC,1,EV Solar Canopy Charger,11-15 Hazen St,East Elmhurst,11370,Bronx,40.793737,-73.884135,401,22,1,,,QN0151
NYC FLEET / DOC_SLRCANOPY2,DOC,1,EV Solar Canopy Charger,11-15 Hazen St,East Elmhurst,11370,Bronx,40.793737,-73.884135,401,22,1,,,QN0151
NYC FLEET / DOC_SLRCANOPY3,DOC,1,EV Solar Canopy Charger,11-15 Hazen St,East Elmhurst,11370,Bronx,40.793737,-73.884135,401,22,1,,,QN0151
NYC FLEET / DOC_SLRCANOPY4,DOC,1,EV Solar Canopy Charger,11-15 Hazen St,East Elmhurst,11370,Bronx,40.793737,-73.884135,401,22,1,,,QN0151
NYC FLEET / DOC_SLRCANOPY5,DOC,1,EV Solar Canopy Charger,11-15 Hazen St,East Elmhurst,11370,Bronx,40.793737,-73.884135,401,22,1,,,QN0151
NYC FLEET / DOC_SLRCANOPY6,DOC,1,EV Solar Canopy Charger,11-15 Hazen St,East Elmhurst,11370,Bronx,40.793737,-73.884135,401,22,1,,,QN0151
NYC FLEET / DOC_VBAIN-S,DOC,1,EV Solar Arc Charger,1 Halleck Street,Bronx,10474,Bronx,40.802228,-73.877557,202,17,9302,2128421,2027800073,BX0201
NYC FLEET / DOC_VCBC1,DOC,2,Level 2 Charger,1280 Ryawa Ave,The Bronx,10474,Bronx,40.804859,-73.884531,202,17,9302,,,BX0201
NYC FLEET / DOC_VTF_1,DOC,2,Level 2 Charger,15 W 5th St,New York,11370,Bronx,,,,,,,,
NYC FLEET / DOC_WFACADMIN-1,DOC,2,Level 2 Charger,1616 Hazen St,The Bronx,11370,Bronx,40.790301,-73.884412,401,22,1,,,QN0151
NYC FLEET / DOCCIBWESTFAC,DOC,2,Level 2 Charger,West Facility Cib,Elmhurst,11370,Queens,,,,,,,,
NYC FLEET / DOCCMUTRAILER01,DOC,2,Level 2 Charger,50 Construction Way,Flushing,11371,Queens,,,,,,,,
NYC FLEET / DOCCWOD3,DOC,2,Level 2 Charger,Hillside Ave,Bronx,10474,Bronx,,,,,,,,
NYC FLEET / DOCFLEETMT_1_L3,DOC,1,Level 3 Fast Charger,17-17 Hazen St,Flushing,11370,Queens,40.789275,-73.884406,401,22,1,,,QN0151
NYC FLEET / DOCFLEETMT_2_L3,DOC,1,Level 3 Fast Charger,17-17 Hazen St.,Flushing,11370,Queens,40.789275,-73.884406,401,22,1,,,QN0151
NYC FLEET / DOCTRANSARSEN01,DOC,2,Level 2 Charger,Hillside Ave,Bronx,10474,Bronx,,,,,,,,
NYC FLEET / DOCTRANSARSEN02,DOC,2,Level 2 Charger,Hillside Ave,Bronx,10474,Bronx,,,,,,,,
NYC FLEET / DOCWELLNES_1_L3,DOC,1,Level 3 Fast Charger,Hazen St,Bronx,10474,Bronx,,,,,,,,
NYC FLEET / DOE Q859,DOE,2,Level 2 Charger,30-48 Linden Pl,Flushing,11354,Queens,40.770185,-73.832925,407,20,869,4100749,4043700050,QN0707
NYC FLEET / DOE_ Q0001,DOE,1,Level 2 Charger,165-65 84Th Ave,Queens,11432,Queens,40.715389,-73.800369,408,24,452,4211027,4098670002,QN0805
NYC FLEET / DOE_ Q0002,DOE,1,Level 2 Charger,165-65 84Th Ave,Queens,11432,Queens,40.715389,-73.800369,408,24,452,4211027,4098670002,QN0805
NYC FLEET / DOE_ R0001,DOE,1,Level 2 Charger,6581 Hylan Blvd,Staten Island,10309,Staten Island,40.509084,-74.22093,503,51,198,5123970,5076640001,SI0304
NYC FLEET / DOE_131LIV-1,DOE,2,Level 2 Charger,131 Livingston St,Downtown Brooklyn,11201,Brooklyn,40.690743,-73.988605,302,33,37,3000420,3001540001,BK0202
NYC FLEET / DOE_131LIV-2,DOE,1,Level 2 Charger,131 Livingston St,Brooklyn,11201,Brooklyn,40.690743,-73.988605,302,33,37,3000420,3001540001,BK0202
NYC FLEET / DOE_B&GHS-1,DOE,1,Level 2 Charger,1700 Fulton St,Brooklyn,11213,Brooklyn,40.67944,-73.932407,303,36,271,3047996,3017010001,BK0302
NYC FLEET / DOE_BRONXX475,DOE,1,Level 2 Charger,99 Terrace Ave.,Bronx,10463,Bronx,,,,,,,,
NYC FLEET / DOE_BXSCIHS-1,DOE,1,Level 2 Charger,71 W 205th St,The Bronx,10468,Bronx,40.877537,-73.890921,207,11,409,,,BX0702
NYC FLEET / DOE_EDISONHS-S1,DOE,1,EV Solar Arc Charger,165-65 84Th Ave,Queens,11432,Queens,40.715389,-73.800369,408,24,452,4211027,4098670002,QN0805
NYC FLEET / DOE_ELECBUS,DOE,2,Level 2 Charger,231 Malta St,East New York,11207,Brooklyn,40.655179,-73.892416,305,42,1104,3000000,3043650100,BK0503
NYC FLEET / DOE_FLATLANDS-1,DOE,2,Level 2 Charger,6565 Flatlands Ave,Brooklyn,11236,Brooklyn,40.633285,-73.916735,318,46,950,3224139,3079980005,BK1803
NYC FLEET / DOE_GRANDST,DOE,2,Level 2 Charger,128 Waterbury St,Brooklyn,11206,Brooklyn,40.711722,-73.937926,301,34,485,3325747,3030210001,BK0104
NYC FLEET / DOE_HERBLHS-1,DOE,1,Level 2 Charger,3000 E Tremont Ave,The Bronx,10462,Bronx,40.840733,-73.838685,210,13,194,2074045,2053680001,BX1002
NYC FLEET / DOE_JADAMSHS1,DOE,2,Level 2 Charger,101-01 Rockaway Blvd,Queens,11417,Queens,40.679639,-73.837298,410,28,864,4202849,4095400002,QN1001
NYC FLEET / DOE_JADAMSHS2,DOE,2,Level 2 Charger,101-01 Rockaway Blvd,Queens,11417,Queens,40.679639,-73.837298,410,28,864,4202849,4095400002,QN1001
NYC FLEET / DOE_JFKHS-S1,DOE,1,EV Solar Arc Charger,1-49 Teunissen Pl,Bronx,10463,Bronx,40.876606,-73.912839,208,10,309,,,BX0802
NYC FLEET / DOE_K0001,DOE,1,Level 2 Charger,50 Bedford Ave,Brooklyn,11222,Brooklyn,40.721981,-73.953281,301,33,517,3066698,3026700001,BK0102
NYC FLEET / DOE_M104,DOE,2,Level 2 Charger,344-360 2nd Ave,New York,10010,Manhattan,40.736103,-73.982196,106,2,64,1081671,1009260001,MN0602
NYC FLEET / DOE_M466,DOE,1,Level 2 Charger,549 Audubon Ave,New York,10040,Manhattan,40.855855,-73.92712,112,10,277,1076751,1021600018,MN1202
NYC FLEET / DOE_M646,DOE,1,Level 2 Charger,321 E 96Th St,New York,10128,Manhattan,40.783638,-73.945626,111,8,15602,1083927,1016680001,MN1101
NYC FLEET / DOE_MANORSI-1,DOE,2,Level 2 Charger,1220 Manor Rd,Staten Island,10314,Staten Island,40.596745,-74.124263,502,50,181,5164530,5009550100,SI0203
NYC FLEET / DOE_MTWAIN-1,DOE,1,Level 2 Charger,2401 Neptune Ave,Brooklyn,11224,Brooklyn,40.578188,-73.99203,313,47,330,3188221,3069650140,BK1302
NYC FLEET / DOE_MTWAIN-2,DOE,2,Level 2 Charger,2401 Neptune Ave,Brooklyn,11224,Brooklyn,40.578188,-73.99203,313,47,330,3188221,3069650140,BK1302
NYC FLEET / DOE_PS59-#1,DOE,1,Level 2 Charger,2195 Bathgate Ave,New York,10065,Manhattan,,,,,,,,
NYC FLEET / DOE_Q142,DOE,2,Level 2 Charger,142-10 Linden Blvd,Queens,11436,Queens,40.684142,-73.801479,412,28,192,4259200,4119720070,QN1203
NYC FLEET / DOE_Q430-1,DOE,2,Level 2 Charger,58-20 Utopia Pkwy,Queens,11365,Queens,40.740724,-73.79283,411,20,1417,4148763,4068820001,QN1101
NYC FLEET / DOE_Q566,DOE,2,Level 2 Charger,74-20 Commonwealth Blvd,Queens,11426,Queens,40.746088,-73.727535,413,23,1567,4529899,4078700072,QN1302
NYC FLEET / DOE_Q80101,DOE,2,Level 2 Charger,5-1-5-41 44Th Dr,Long Island City,11101,Queens,,,,,,,,
NYC FLEET / DOE_Q80102,DOE,2,Level 2 Charger,44-36 Vernon Blvd,Long Island City,11101,Queens,40.749384,-73.952233,402,26,103,4005429,4004890001,QN0201
NYC FLEET / DOE_Q80103,DOE,2,Level 2 Charger,49-16 Vernon Blvd,Queens,11101,Queens,40.743237,-73.953941,402,26,701,4000124,4000320003,QN0201
NYC FLEET / DOE_Q80104,DOE,2,Level 2 Charger,49-16 Vernon Blvd,Queens,11101,Queens,40.743237,-73.953941,402,26,701,4000124,4000320003,QN0201
NYC FLEET / DOE_Q80105,DOE,2,Level 2 Charger,49-16 Vernon Blvd,Queens,11101,Queens,40.743237,-73.953941,402,26,701,4000124,4000320003,QN0201
NYC FLEET / DOE_Q859LINDEN,DOE,2,Level 2 Charger,30-48 Linden Pl,Queens,11354,Queens,40.770185,-73.832925,407,20,869,4100749,4043700050,QN0707
NYC FLEET / DOE_R0002,DOE,2,Level 2 Charger,6581 Hylan Blvd,Staten Island,10309,Staten Island,40.509084,-74.22093,503,51,198,5123970,5076640001,SI0304
NYC FLEET / DOE_SBCHS-1,DOE,1,Level 2 Charger,173 Conover St,Brooklyn,11231,Brooklyn,40.677969,-74.014363,306,38,5301,3398190,3005750003,BK0601
NYC FLEET / DOE_SPRGFLDHS-1,DOE,2,Level 2 Charger,143-10 Springfield Blvd,Queens,11413,Queens,40.668235,-73.756839,412,31,330,4280845,4130570056,QN1204
NYC FLEET / DOE_SSD_DK_1_L3,DOE,1,Level 3 Fast Charger,43-30 Dutch Kill Street,Long Island City,11101,Queens,,,,,,,,
NYC FLEET / DOE_STJOSEPH-1,DOE,1,Level 2 Charger,85 St Josephs Ave,Staten Island,10302,Staten Island,40.634573,-74.141818,501,49,213,5026076,5011210001,SI0106
NYC FLEET / DOE_ZEREGA-1,DOE,2,Level 2 Charger,1230 Zerega Ave,The Bronx,10462,Bronx,40.833586,-73.845099,209,18,96,2027195,2038420002,BX1001
NYC FLEET / DOE1230ZEREGAAV,DOE,1,Level 2 Charger,1230 Zerega Ave,Bronx,10462,Bronx,40.833586,-73.845099,209,18,96,2027195,2038420002,BX1001
NYC FLEET / DOE715OCEANTSI1,DOE,1,Level 2 Charger,715 Ocean Terrace,Staten Island,10301,Staten Island,40.608756,-74.102344,502,50,17701,5113169,5006830001,SI0203
NYC FLEET / DOE715OCEANTSI2,DOE,1,Level 2 Charger,715 Ocean Terrace,Staten Island,10301,Staten Island,40.608756,-74.102344,502,50,17701,5113169,5006830001,SI0203
NYC FLEET / DOE90-27SUTPHIN,DOE,2,Level 2 Charger,90-24-90-26 Sutphin Blvd,Jamaica,11435,Queens,,,,,,,,
NYC FLEET / DOEFACILITIES 1,DOE,2,Level 2 Charger,44-36 Vernon Blvd,Queens,11101,Queens,40.749384,-73.952233,402,26,103,4005429,4004890001,QN0201
NYC FLEET / DOEFACILITIES 2,DOE,2,Level 2 Charger,44-36 Vernon Blvd,Queens,11101,Queens,40.749384,-73.952233,402,26,103,4005429,4004890001,QN0201
NYC FLEET / DOEM535,DOE,2,Level 2 Charger,525 West 50Th St,New York,10019,Manhattan,40.765234,-73.993076,104,3,13501,1083802,1010790029,MN0402
NYC FLEET / DOEPETRIDES-S1,DOE,1,EV Solar Arc Charger,21 Safety City Blvd,Todt Hill,10301,Staten Island,,,,,,,,
NYC FLEET / DOEVERNON_1_L3,DOE,1,Level 3 Fast Charger,44-36 Vernon Blvd,Long Island City,11101,Queens,40.749384,-73.952233,402,26,103,4005429,4004890001,QN0201
NYC FLEET / DOEVERNONBLVD-1,DOE,1,Level 2 Charger,5-40 44Th Dr,Long Island City,11101,Queens,40.749341,-73.954023,402,26,103,4518727,4000240007,QN0201
NYC FLEET / DOEVERNONBLVD-2,DOE,1,Level 2 Charger,44-36 Vernon Blvd,Long Island City,11101,Queens,40.749384,-73.952233,402,26,103,4005429,4004890001,QN0201
NYC FLEET / DOEVERNONBLVD-3,DOE,1,Level 2 Charger,44-36 Vernon Blvd,Long Island City,11101,Queens,40.749384,-73.952233,402,26,103,4005429,4004890001,QN0201
NYC FLEET / DOEVERNONBLVD-4,DOE,1,Level 2 Charger,44-36 Vernon Boulevard,Long Island City,11101,Queens,40.749384,-73.952233,402,26,103,4005429,4004890001,QN0201
NYC FLEET / DOEVERNONBLVD-5,DOE,1,Level 2 Charger,44-36 Vernon Boulevard,Long Island City,11101,Queens,40.749384,-73.952233,402,26,103,4005429,4004890001,QN0201
NYC FLEET / DOEVERNONBLVD-6,DOE,1,Level 2 Charger,49-44 Vernon Blvd,Queens,11101,Queens,40.743099,-73.953992,402,26,701,,,QN0201
NYC FLEET / DOEVERNONBLVD-7,DOE,1,Level 2 Charger,44-36 Vernon Blvd,Queens,11101,Queens,40.749384,-73.952233,402,26,103,4005429,4004890001,QN0201
NYC FLEET / DOF_STARR#1,DOF,2,Level 2 Charger,31-46 Greenpoint Ave,Queens,11101,Queens,40.734714,-73.93697,402,26,19901,4003713,4003110023,QN0202
NYC FLEET / DOF_STARR#2,DOF,2,Level 2 Charger,31-32 Greenpoint Ave,Queens,11101,Queens,40.73466,-73.93711,402,26,19901,4003709,4003110018,QN0202
NYC FLEET / DOF_STARR_1_L3,DOF,1,Level 3 Fast Charger,3010 Starr Ave,Long Island City,11101,Queens,40.737775,-73.938082,402,26,19902,4307187,4002950045,QN0202
NYC FLEET / DOF_STARR_2_L3,DOF,1,Level 3 Fast Charger,3010 Starr Ave,Long Island City,11101,Queens,40.737775,-73.938082,402,26,19902,4307187,4002950045,QN0202
NYC FLEET / DOH_56 DRIVE,DOH,1,Level 2 Charger,5617 56Th Dr,Queens,11378,Queens,40.72441,-73.914492,402,26,219,4058946,4025850002,QN0501
NYC FLEET / DOH_BEDFORDHCS1,DOH,1,EV Solar Arc Charger,515 Putnam Ave,Bedford-Stuyvesant,11221,Brooklyn,40.685146,-73.940431,303,36,277,3051831,3018260070,BK0302
NYC FLEET / DOT_22STLOT-1,DOT,2,Level 2 Charger,41-54 22Nd St,Queens,11101,Queens,40.752701,-73.942118,401,26,3301,4542032,4004110010,QN0105
NYC FLEET / DOT_22STLOT-2,DOT,2,Level 2 Charger,41-54 22Nd St,Queens,11101,Queens,40.752701,-73.942118,401,26,3301,4542032,4004110010,QN0105
NYC FLEET / DOT_22STLOT-3,DOT,2,Level 2 Charger,41-54 22Nd St,Queens,11101,Queens,40.752701,-73.942118,401,26,3301,4542032,4004110010,QN0105
NYC FLEET / DOT_29ST-S2,DOT,1,EV Solar Arc Charger,9 29Th St,Greenwood,11232,Brooklyn,40.661018,-74.004859,307,38,1802,3378171,3006620001,BK0702
NYC FLEET / DOT_448HAMILTON,DOT,2,Level 2 Charger,448 Hamilton Ave,Brooklyn,11232,Brooklyn,40.670361,-73.997693,307,38,1801,3336712,3006250002,BK0702
NYC FLEET / DOT_CNNRYD_1_L3,DOT,1,Level 3 Fast Charger,3200 Conner St,East Bronx,10475,Bronx,40.880471,-73.821784,210,12,46203,2118086,2052560195,BX1004
NYC FLEET / DOT_COLUMB-1,DOT,1,Level 2 Charger,166 Columbia St,Brooklyn,11231,Brooklyn,40.686448,-74.002026,306,39,47,3000000,3003180028,BK0601
NYC FLEET / DOT_COLUMB-2,DOT,1,Level 2 Charger,184 Columbia St,Brooklyn,11231,Brooklyn,40.686039,-74.002221,306,39,47,3000000,3003180037,BK0601
NYC FLEET / DOT_FBF-S1,DOT,1,EV Solar Arc Charger,3159 Flatbush Ave,Brooklyn,11234,Brooklyn,40.589157,-73.899781,356,46,70202,3397777,3085910075,BK5691
NYC FLEET / DOT_FRYMT_1_L3,DOT,1,Level 3 Fast Charger,1 Bay St,Staten Island,10306,Staten Island,40.643733,-74.072789,501,49,3,5141706,5000020001,SI0101
NYC FLEET / DOT_FRYMT_2_L3,DOT,1,Level 3 Fast Charger,1 Bay St,Staten Island,10306,Staten Island,40.643733,-74.072789,501,49,3,5141706,5000020001,SI0101
NYC FLEET / DOT_FRYTRM_1_L3,DOT,1,Level 3 Fast Charger,1 Bay St,Staten Island,10301,Staten Island,40.643733,-74.072789,501,49,3,5141706,5000020001,SI0101
NYC FLEET / DOT_FRYTRM_2_L3,DOT,1,Level 3 Fast Charger,1 Bay St,Staten Island,10301,Staten Island,40.643733,-74.072789,501,49,3,5141706,5000020001,SI0101
NYC FLEET / DOT_FRYTRM_3_L3,DOT,1,Level 3 Fast Charger,1 Bay St,Staten Island,10301,Staten Island,40.643733,-74.072789,501,49,3,5141706,5000020001,SI0101
NYC FLEET / DOT_FRYTRM_4_L3,DOT,1,Level 3 Fast Charger,1 Bay St,Staten Island,10301,Staten Island,40.643733,-74.072789,501,49,3,5141706,5000020001,SI0101
NYC FLEET / DOT_FTTOTTEN,DOT,2,Level 2 Charger,423 Abbott Rd,Bayside,11359,Queens,40.79419,-73.77855,407,19,999,,,QN0761
NYC FLEET / DOT_GLENDALE-S1,DOT,1,EV Solar Arc Charger,69-46 Sybilla St,Queens,11375,Queens,40.709174,-73.854849,406,29,645,4095043,4038860558,QN0602
NYC FLEET / DOT_GLENDALE-S2,DOT,1,EV Solar Arc Charger,69-46 Sybilla St,Queens,11375,Queens,40.709174,-73.854849,406,29,645,4095043,4038860558,QN0602
NYC FLEET / DOT_HARPER-S1,DOT,1,EV Solar Arc Charger,32-11 Harper St,Flushing,11368,Queens,40.764102,-73.842217,407,21,38301,4444576,4017900001,QN0707
NYC FLEET / DOT_HARPER-S2,DOT,1,EV Solar Arc Charger,32-1 Harper St,Corona,11368,Queens,40.764388,-73.842368,407,21,38301,4045010,4017900001,QN0707
NYC FLEET / DOT_KENTAVE-1,DOT,1,Level 2 Charger,372 Kent Ave,Brooklyn,11249,Brooklyn,40.711965,-73.968027,301,33,549,3335960,3024530001,BK0102
NYC FLEET / DOT_KENTAVE-2,DOT,1,Level 2 Charger,372 Kent Ave,Brooklyn,11249,Brooklyn,40.711965,-73.968027,301,33,549,3335960,3024530001,BK0102
NYC FLEET / DOT_KENTAVE-3,DOT,1,Level 2 Charger,372 Kent Ave,Brooklyn,11249,Brooklyn,40.711965,-73.968027,301,33,549,3335960,3024530001,BK0102
NYC FLEET / DOT_OLDSLIP-1,DOT,1,Level 2 Charger,32 Old Slip,New York,10005,Manhattan,40.703573,-74.008036,101,1,7,1000867,1000350001,MN0101
NYC FLEET / DOT_OLDSLIP-2,DOT,1,Level 2 Charger,32 Old Slip,New York,10005,Manhattan,40.703573,-74.008036,101,1,7,1000867,1000350001,MN0101
NYC FLEET / DOT_OLDSLIP-3,DOT,1,Level 2 Charger,42 South St,New York,10005,Manhattan,40.703466,-74.007538,101,1,7,1000867,1000350001,MN0101
NYC FLEET / DOT_OLDSLIP-4,DOT,1,Level 2 Charger,42 South St,New York,10005,Manhattan,40.703466,-74.007538,101,1,7,1000867,1000350001,MN0101
NYC FLEET / DOT_PIER36-S1,DOT,1,EV Solar Arc Charger,299 South St,New York,10002,Manhattan,40.710508,-73.986196,103,1,201,1079600,1002410013,MN0301
NYC FLEET / DOT_SIDUBOIS-1,DOT,1,Level 2 Charger,5 Dubois Ave,Staten Island,10310,Staten Island,40.631925,-74.129397,501,49,13302,5104536,5002150100,SI0106
NYC FLEET / DOT_SIFERRYTERM,DOT,2,Level 2 Charger,10 Richmond Terrace,Mid Island,10301,Staten Island,40.642367,-74.075274,501,49,3,5000063,5000070001,SI0101
NYC FLEET / DOT_SISIMYARD,DOT,2,Level 2 Charger,99-2703 Richmond Terrace,Staten Island,10303,Staten Island,40.644935,-74.077204,501,49,7,,,SI0101
NYC FLEET / DOT_VERNONYARD,DOT,2,Level 2 Charger,4200 Vernon Blvd,LIC,11101,Queens,40.754395,-73.94923,402,26,103,4005413,4004770007,QN0201
NYC FLEET / DOT_WBSTR_1_L3,DOT,1,Level 3 Fast Charger,2144 Webster Ave,Belmont,10457,Bronx,40.853544,-73.897301,206,15,379,2011136,2030300028,BX0502
NYC FLEET / DOT_WBSTR_2_L3,DOT,1,Level 3 Fast Charger,2144 Webster Ave,Fordham Heights,10457,Bronx,40.853544,-73.897301,206,15,379,2011136,2030300028,BX0502
NYC FLEET / DOT_WILLIAMSBR,DOT,2,Level 2 Charger,1400 Williamsbridge Road,The Bronx,10461,Bronx,40.842206,-73.844168,210,18,200,2044091,2040740001,BX1001
NYC FLEET / DOT2811QNSPLAZA,DOT,1,Level 2 Charger,28-11 Queens Plaza North,Queens,11101,Queens,40.75008,-73.938208,401,26,3301,4005022,4004170002,QN0105
NYC FLEET / DOTFLATLANDS-S1,DOT,1,EV Solar Arc Charger,928 E 76Th St,Canarsie,11236,Brooklyn,40.633144,-73.91573,318,46,998,3325351,3080120400,BK1803
NYC FLEET / DOTFLTLNDS_1_L3,DOT,1,Level 3 Fast Charger,6080 Flatlands Ave,Canarsie,11236,Brooklyn,40.633452,-73.916446,318,46,998,3325350,3080120400,BK1803
NYC FLEET / DOTHPRASPH_1_L3,DOT,1,Level 3 Fast Charger,32-1 Harper St,Corona,11368,Queens,40.764388,-73.842368,407,21,38301,4045010,4017900001,QN0707
NYC FLEET / DOTHPRASPH_2_L3,DOT,1,Level 3 Fast Charger,32-1 Harper St,Corona,11368,Queens,40.764388,-73.842368,407,21,38301,4045010,4017900001,QN0707
NYC FLEET / DOTMASPETHQNS-1,DOT,1,Level 2 Charger,58-50 57th Rd,Maspeth,11378,Queens,40.722386,-73.910043,405,30,531,4059838,4026750015,QN0501
NYC FLEET / DOTMASPETHQNS-2,DOT,1,Level 2 Charger,58-50 57th R,Maspeth,11378,Queens,,,,,,,,
NYC FLEET / DOTMSPTH_SHP_1,DOT,1,Level 2 Charger,57-50 57Th Rd,Maspeth,11378,Queens,40.722361,-73.912677,405,30,531,4567284,4026710001,QN0501
NYC FLEET / DOTMSPTH_SHP_2,DOT,1,Level 2 Charger,57-50 57Th Rd,Maspeth,11378,Queens,40.722361,-73.912677,405,30,531,4567284,4026710001,QN0501
NYC FLEET / DOTPITKINAVE-1,DOT,1,Level 2 Charger,88-26 Pitkin Ave,Queens,11417,Queens,40.673779,-73.847565,410,32,58,4539787,4113680020,QN1002
NYC FLEET / DOTPITKINAVE-2,DOT,1,Level 2 Charger,88-26 Pitkin Ave,Queens,11417,Queens,40.673779,-73.847565,410,32,58,4539787,4113680020,QN1002
NYC FLEET / DOTQNSBLVD-1,DOT,1,Level 2 Charger,34-2 Queens Blvd,Queens,11101,Queens,40.744537,-73.930602,402,26,17902,4003435,4002460001,QN0202
NYC FLEET / DOTQNSBLVD-2,DOT,1,Level 2 Charger,34-2 Queens Blvd,Queens,11101,Queens,40.744537,-73.930602,402,26,17902,4003435,4002460001,QN0202
NYC FLEET / DOTQNSBLVD-3,DOT,1,Level 2 Charger,34-2 Queens Blvd,Queens,11101,Queens,40.744537,-73.930602,402,26,17902,4003435,4002460001,QN0202
NYC FLEET / DOTQNSBLVD-4,DOT,1,Level 2 Charger,34-2 Queens Blvd,Queens,11101,Queens,40.744537,-73.930602,402,26,17902,4003435,4002460001,QN0202
NYC FLEET / DOTSIDUBOIS,DOT,1,Level 2 Charger,5 Dubois Ave,Staten Island,10310,Staten Island,40.631925,-74.129397,501,49,13302,5104536,5002150100,SI0106
NYC FLEET / DPR_5BORO#4A-B,DPR,2,Level 2 Charger,14 Bronx Shore Rd,New York,10035,Manhattan,40.79872,-73.921194,111,8,240,1088069,1018190203,MN1191
NYC FLEET / DPR_5BORO#9A-B,DPR,2,Level 2 Charger,13 Bronx Shore Rd,New York,10035,Manhattan,,,,,,,,
NYC FLEET / DPR_5BORO-S1,DPR,1,EV Solar Arc Charger,37-49 Bronx Shore Rd,New York,10035,Manhattan,40.800068,-73.925671,111,8,240,1088067,1018190203,MN1191
NYC FLEET / DPR_5BORO-S2,DPR,1,EV Solar Arc Charger,37-49 Bronx Shore Rd,New York,10035,Manhattan,40.800068,-73.925671,111,8,240,1088067,1018190203,MN1191
NYC FLEET / DPR_5BORO-S3,DPR,1,EV Solar Arc Charger,14 Bronx Shore Rd,New York,10035,Manhattan,40.79872,-73.921194,111,8,240,1088069,1018190203,MN1191
NYC FLEET / DPR_ALLIED #2,DPR,2,Level 2 Charger,13 East Rd,Corona,11368,Queens,40.753928,-73.838823,481,21,38302,4439847,4020180001,QN8191
NYC FLEET / DPR_ALLIED_#5,DPR,2,Level 2 Charger,15 East Rd,Corona,11368,Queens,40.754021,-73.838509,481,21,38302,4541447,4020180001,QN8191
NYC FLEET / DPR_ALLIED1,DPR,2,Level 2 Charger,13 East Rd,Corona,11368,Queens,40.753928,-73.838823,481,21,38302,4439847,4020180001,QN8191
NYC FLEET / DPR_ALLIED3,DPR,2,Level 2 Charger,15 East Rd,Corona,11368,Queens,40.754021,-73.838509,481,21,38302,4541447,4020180001,QN8191
NYC FLEET / DPR_ALLIED4,DPR,2,Level 2 Charger,15 East Rd,Corona,11368,Queens,40.754021,-73.838509,481,21,38302,4541447,4020180001,QN8191
NYC FLEET / DPR_ALLIED-S#11,DPR,1,EV Solar Arc Charger,15 East Rd,Corona,11368,Queens,40.754021,-73.838509,481,21,38302,4541447,4020180001,QN8191
NYC FLEET / DPR_ALLIED-S#12,DPR,1,EV Solar Arc Charger,13 East Rd,Corona,11368,Queens,40.753928,-73.838823,481,21,38302,4439847,4020180001,QN8191
NYC FLEET / DPR_ALLIED-S#13,DPR,1,EV Solar Arc Charger,15 East Rd,Corona,11368,Queens,40.754021,-73.838509,481,21,38302,4541447,4020180001,QN8191
NYC FLEET / DPR_ALLIED-S#14,DPR,1,EV Solar Arc Charger,13 East Rd,Corona,11368,Queens,40.753928,-73.838823,481,21,38302,4439847,4020180001,QN8191
NYC FLEET / DPR_ALOERTER#1,DPR,2,Level 2 Charger,131-40 Fowler Ave,Flushing,11355,Queens,40.751616,-73.834155,407,20,38302,4540092,4020180001,QN8191
NYC FLEET / DPR_ALOERTER#2,DPR,2,Level 2 Charger,131-40 Fowler Ave,Brooklyn,11355,Queens,40.751616,-73.834155,407,20,38302,4540092,4020180001,QN8191
NYC FLEET / DPR_ALOERTER4#5,DPR,2,Level 2 Charger,131-40 Fowler Ave,Flushing,11355,Queens,40.751616,-73.834155,407,20,38302,4540092,4020180001,QN8191
NYC FLEET / DPR_ANCHPL-S1,DPR,1,EV Solar Arc Charger,82 Old Fulton St.,Brooklyn,11201,Brooklyn,40.70138,-73.991723,302,33,1,,,BK0201
NYC FLEET / DPR_ARSENAL17,DPR,1,Level 2 Charger,East Dr,New York,10019,Manhattan,,,,,,,,
NYC FLEET / DPR_ARSENAL18,DPR,1,Level 2 Charger,East Dr,New York,10024,Manhattan,,,,,,,,
NYC FLEET / DPR_BAISLEY-S1,DPR,1,EV Solar Arc Charger,118- 9 155th St,Queens,11434,Queens,40.681158,-73.787784,412,28,28803,4265591,4122290001,QN1203
NYC FLEET / DPR_BAY8TH#1,DPR,2,Level 2 Charger,Independence Ave,Brooklyn,11228,Brooklyn,,,,,,,,
NYC FLEET / DPR_BAY8TH#2,DPR,2,Level 2 Charger,330 Bay 8th St,Brooklyn,11228,Brooklyn,40.605116,-74.017319,310,50,154,3402737,3064180001,BK1091
NYC FLEET / DPR_BKSHOPS#1,DPR,2,Level 2 Charger,48 West Drive,Brooklyn,11215,Brooklyn,40.664987,-73.973384,355,39,177,3411717,3011170001,BK5591
NYC FLEET / DPR_BKSHOPS#2,DPR,2,Level 2 Charger,46 West Dr,Brooklyn,11215,Brooklyn,40.665253,-73.973164,355,39,177,3347254,3011170001,BK5591
NYC FLEET / DPR_BKSHOPS#3,DPR,2,Level 2 Charger,50 West Dr,Brooklyn,11215,Brooklyn,40.664701,-73.973557,355,39,177,3411716,3011170001,BK5591
NYC FLEET / DPR_BOROCREWS#1,DPR,2,Level 2 Charger,50 West Dr,Brooklyn,11215,Brooklyn,40.664701,-73.973557,355,39,177,3411716,3011170001,BK5591
NYC FLEET / DPR_BOROCREWS#2,DPR,2,Level 2 Charger,50 West Dr,Brooklyn,11215,Brooklyn,40.664701,-73.973557,355,39,177,3411716,3011170001,BK5591
NYC FLEET / DPR_BOROCREWS#3,DPR,2,Level 2 Charger,50 West Dr,Brooklyn,11215,Brooklyn,40.664701,-73.973557,355,39,177,3411716,3011170001,BK5591
NYC FLEET / DPR_BOROCREWS#4,DPR,2,Level 2 Charger,50 West Dr,Brooklyn,11215,Brooklyn,40.664701,-73.973557,355,39,177,3411716,3011170001,BK5591
NYC FLEET / DPR_BOROCREWS#5,DPR,2,Level 2 Charger,50 West Dr,Brooklyn,11215,Brooklyn,40.664701,-73.973557,355,39,177,3411716,3011170001,BK5591
NYC FLEET / DPR_BXRVRH-S1,DPR,1,EV Solar Arc Charger,1490 Sheridan Blvd.,Bronx,10459,Bronx,40.833338,-73.883614,209,17,157,2128943,2030190100,BX0303
NYC FLEET / DPR_CANARSIE#1,DPR,2,Level 2 Charger,E 88th St,Brooklyn,11236,Brooklyn,,,,,,,,
NYC FLEET / DPR_CENTRALCOM1,DPR,2,Level 2 Charger,313 Broome St,New York,10002,Manhattan,40.718875,-73.992735,103,1,18,1086508,1004180001,MN0302
NYC FLEET / DPR_CHELSEAPARK,DPR,2,Level 2 Charger,437-401-437-407 W 27Th St,New York,10001,Manhattan,,,,,,,,
NYC FLEET / DPR_CIG-S2,DPR,1,EV Solar Arc Charger,1521-1529 E 102Nd St,Brooklyn,11236,Brooklyn,40.635668,-73.885339,318,46,103402,,,BK1893
NYC FLEET / DPR_CNRSIEPK-S1,DPR,1,EV Solar Arc Charger,1501 E 102nd St,Brooklyn,11236,Brooklyn,40.636143,-73.885842,318,46,103402,,,BK1893
NYC FLEET / DPR_COFFEYPK-1,DPR,2,Level 2 Charger,58 Dwight St,Brooklyn,11231,Brooklyn,40.67671,-74.008238,306,38,85,3008423,3005320001,BK0601
NYC FLEET / DPR_CPTENNIS#1,DPR,2,Level 2 Charger,Central Park Gothic BridgeWest Dr,New York,10128,Manhattan,40.78237,-73.965238,164,6,143,1000000,1011110001,MN6491
NYC FLEET / DPR_CROTONAPL#1,DPR,2,Level 2 Charger,1700 Fulton Ave,Bronx,10457,Bronx,40.841369,-73.897872,203,15,163,2114529,2029410001,BX0391
NYC FLEET / DPR_CWSSHOPS#1,DPR,2,Level 2 Charger,850 E 138th St,Bronx,10454,Bronx,40.803141,-73.909049,201,8,1903,2086438,2025890031,BX0101
NYC FLEET / DPR_CWSSHOPS#10,DPR,2,Level 2 Charger,850 E 138th St,The Bronx,10454,Bronx,40.803141,-73.909049,201,8,1903,2086438,2025890031,BX0101
NYC FLEET / DPR_CWSSHOPS#2,DPR,2,Level 2 Charger,860 E 138th St,Bronx,10454,Bronx,40.803059,-73.908904,201,8,1903,,,BX0101
NYC FLEET / DPR_CWSSHOPS#3,DPR,2,Level 2 Charger,860 E 138th St,Bronx,10454,Bronx,40.803059,-73.908904,201,8,1903,,,BX0101
NYC FLEET / DPR_CWSSHOPS#4,DPR,2,Level 2 Charger,860 E 138th St,The Bronx,10454,Bronx,40.803059,-73.908904,201,8,1903,,,BX0101
NYC FLEET / DPR_CWSSHOPS#5,DPR,2,Level 2 Charger,860 E 138th St,The Bronx,10454,Bronx,40.803059,-73.908904,201,8,1903,,,BX0101
NYC FLEET / DPR_CWSSHOPS#6,DPR,2,Level 2 Charger,860 E 138th St,The Bronx,10454,Bronx,40.803059,-73.908904,201,8,1903,,,BX0101
NYC FLEET / DPR_CWSSHOPS#7,DPR,2,Level 2 Charger,860 E 138th St,The Bronx,10454,Bronx,40.803059,-73.908904,201,8,1903,,,BX0101
NYC FLEET / DPR_CWSSHOPS#8,DPR,2,Level 2 Charger,860 E 138th St,The Bronx,10454,Bronx,40.803059,-73.908904,201,8,1903,,,BX0101
NYC FLEET / DPR_CWSSHOPS#9,DPR,2,Level 2 Charger,860 E 138th St,The Bronx,10454,Bronx,40.803059,-73.908904,201,8,1903,,,BX0101
NYC FLEET / DPR_CWSTURF#2,DPR,2,Level 2 Charger,20 Randalls Island Park,New York,10035,Manhattan,40.796655,-73.923829,111,8,240,1000000,1018190203,MN1191
NYC FLEET / DPR_DRYHARBOR#1,DPR,2,Level 2 Charger,80-11 Myrtle Avenue,Glendale,11385,Queens,40.702998,-73.868023,405,32,635,4093558,4038310006,QN0503
NYC FLEET / DPR_DRYHARBOR#2,DPR,2,Level 2 Charger,80-11 Myrtle Avenue,Glendale,11385,Queens,40.702998,-73.868023,405,32,635,4093558,4038310006,QN0503
NYC FLEET / DPR_FRSTRYRES#2,DPR,2,Level 2 Charger,1010 Queens Plaza South,Queens,11101,Queens,40.753521,-73.947412,402,26,1903,4436827,4004600016,QN0201
NYC FLEET / DPR_FTTOTTEN422,DPR,2,Level 2 Charger,421 Sylvester Ln,Fort Totten,11359,Queens,40.793297,-73.777047,407,19,999,4539829,4059170001,QN0761
NYC FLEET / DPR_GLDITRPK-S1,DPR,1,EV Solar Arc Charger,40 W 143rd St,New York,10037,Manhattan,40.818365,-73.935359,110,9,214,1053944,1017400017,MN1002
NYC FLEET / DPR_GRACIEMAN,DPR,2,Level 2 Charger,181 East End Ave,New York,10028,Manhattan,40.776309,-73.943758,108,5,14402,1085796,1015920001,MN0803
NYC FLEET / DPR_ICAHN_1_L3,DPR,1,Level 3 Fast Charger,10 Central Rd,New York,10035,Manhattan,40.792269,-73.923827,111,8,240,1085645,1018190203,MN1191
NYC FLEET / DPR_ICAHN_2_L3,DPR,1,Level 3 Fast Charger,10 Central Rd,New York,10035,Manhattan,40.792269,-73.923827,111,8,240,1085645,1018190203,MN1191
NYC FLEET / DPR_ICAHN_3_L3,DPR,1,Level 3 Fast Charger,10 Central Rd,New York,10035,Manhattan,40.792269,-73.923827,111,8,240,1085645,1018190203,MN1191
NYC FLEET / DPR_ICAHN1,DPR,2,Level 2 Charger,Rivers Edge Rd,New York,10035,Manhattan,,,,,,,,
NYC FLEET / DPR_ICAHN2,DPR,2,Level 2 Charger,Rivers Edge Rd,New York,10035,Manhattan,,,,,,,,
NYC FLEET / DPR_ICAHN3,DPR,2,Level 2 Charger,Rivers Edge Rd,New York,10035,Manhattan,,,,,,,,
NYC FLEET / DPR_ICAHN4,DPR,2,Level 2 Charger,Hell Gate Cir,New York,10035,Manhattan,,,,,,,,
NYC FLEET / DPR_KAISERPARK1,DPR,2,Level 2 Charger,2529 Neptune Ave,Brooklyn,11224,Brooklyn,40.578084,-73.992966,313,47,330,3188219,3069650100,BK1302
NYC FLEET / DPR_LRP#1#2,DPR,2,Level 2 Charger,42-12 Queens Plaza S,Long Island City,11101,Queens,,,,,,,,
NYC FLEET / DPR_MARCSGARV#1,DPR,2,Level 2 Charger,3 W 124th St,New York,10027,Manhattan,40.805856,-73.943,110,9,200,1053461,1017220033,MN1001
NYC FLEET / DPR_MIDLAND-S4,DPR,1,EV Solar Arc Charger,3 Iroquois St.,Midland Beach,10305,Staten Island,40.574514,-74.085629,502,50,11201,5000000,5038590021,SI0202
NYC FLEET / DPR_MILLPOND-S1,DPR,1,EV Solar Arc Charger,5968 Maj Wm Deegan Blvd,The Bronx,10451,Bronx,40.82064,-73.931104,204,8,6301,,,BX0401
NYC FLEET / DPR_MNBEACH-1,DPR,2,Level 2 Charger,760 Oriental Blvd,Brooklyn,11235,Brooklyn,40.577846,-73.944047,315,48,616,3347138,3087600485,BK1503
NYC FLEET / DPR_MSPTHPK-1,DPR,2,Level 2 Charger,54-54 43rd St,Queens,11378,Queens,40.73087,-73.925175,402,26,205,4058801,4025170032,QN0202
NYC FLEET / DPR_OKRDGE_1_L3,DPR,1,Level 3 Fast Charger,1 Forest Park Dr,Queens,11421,Queens,40.696323,-73.866356,482,32,64102,4558619,4038660070,QN8291
NYC FLEET / DPR_OKRDGE_2_L3,DPR,1,Level 3 Fast Charger,1 Forest Park Dr,Queens,11421,Queens,40.696323,-73.866356,482,32,64102,4558619,4038660070,QN8291
NYC FLEET / DPR_OLMSTED-S1,DPR,1,EV Solar Arc Charger,12 Olmsted Dr,Queens,11368,Queens,40.752161,-73.849609,481,21,38302,4619884,4020180500,QN8191
NYC FLEET / DPR_ORCH-BCH-S1,DPR,1,EV Solar Arc Charger,Park Dr,Bronx,10464,Bronx,,,,,,,,
NYC FLEET / DPR_OVERLOOK_1,DPR,2,Level 2 Charger,80-30 Park Ln,Kew Gardens,11415,Queens,40.710954,-73.835147,482,29,773,4442874,4033122000,QN0901
NYC FLEET / DPR_OVERLOOK-S1,DPR,1,EV Solar Arc Charger,80-30 Park Ln,Queens,11415,Queens,40.710954,-73.835147,482,29,773,4442874,4033122000,QN0901
NYC FLEET / DPR_OVERLOOK-S2,DPR,1,EV Solar Arc Charger,80-30 Park Ln,Queens,11415,Queens,40.710954,-73.835147,482,29,773,4442874,4033122000,QN0901
NYC FLEET / DPR_QBLIC#9&10,DPR,2,Level 2 Charger,1001 Queens Plaza S,LIC,11101,Queens,40.753562,-73.947466,402,26,1903,4000000,4004650400,QN0201
NYC FLEET / DPR_QBLIC_5&6,DPR,2,Level 2 Charger,1001 Queens Plaza S,LIC,11101,Queens,40.753562,-73.947466,402,26,1903,4000000,4004650400,QN0201
NYC FLEET / DPR_QBLIC_7&8,DPR,2,Level 2 Charger,1001 Queens Plaza S,LIC,11101,Queens,40.753562,-73.947466,402,26,1903,4000000,4004650400,QN0201
NYC FLEET / DPR_QBSTWTRAIL1,DPR,2,Level 2 Charger,1001 Queens Plaza S,LIC,11101,Queens,40.753562,-73.947466,402,26,1903,4000000,4004650400,QN0201
NYC FLEET / DPR_RANAQ1,DPR,2,Level 2 Charger,1954-1962 Birchall Ave,New York,10462,Bronx,40.848615,-73.868576,211,13,220,2119362,2040110120,BX0601
NYC FLEET / DPR_RANAQ2,DPR,2,Level 2 Charger,1954-1962 Birchall Ave,Bronx,10462,Bronx,40.848615,-73.868576,211,13,220,2119362,2040110120,BX0601
NYC FLEET / DPR_RANAQU_1_L3,DPR,1,Level 3 Fast Charger,1 Bronx River Pkwy,Bronx,10462,Bronx,40.847311,-73.870827,227,15,334,2101002,2043330001,BX2791
NYC FLEET / DPR_RANDALLS-S1,DPR,1,EV Solar Arc Charger,4 Central Rd,New York,10035,Manhattan,,,,,,,,
NYC FLEET / DPR_RANDALLS-S2,DPR,1,EV Solar Arc Charger,4 Central Rd,New York,10035,Manhattan,,,,,,,,
NYC FLEET / DPR_RICWTURF#1,DPR,1,Level 2 Charger,111 Sunken Garden Loop,New York,10035,Manhattan,40.786373,-73.931656,111,8,240,1088087,1018190010,MN1191
NYC FLEET / DPR_RICWTURF#2,DPR,1,Level 2 Charger,111 Sunken Garden Loop,New York,10035,Manhattan,40.786373,-73.931656,111,8,240,1088087,1018190010,MN1191
NYC FLEET / DPR_RIHORT#1,DPR,1,Level 2 Charger,111 Sunken Garden Loop,New York,10035,Manhattan,40.786373,-73.931656,111,8,240,1088087,1018190010,MN1191
NYC FLEET / DPR_RIHORT#2,DPR,1,Level 2 Charger,111 Sunken Garden Loop,New York,10035,Manhattan,40.786373,-73.931656,111,8,240,1088087,1018190010,MN1191
NYC FLEET / DPR_RIHORT#3,DPR,1,Level 2 Charger,111 Sunken Garden Loop,New York,10035,Manhattan,40.786373,-73.931656,111,8,240,1088087,1018190010,MN1191
NYC FLEET / DPR_RIOPS#1,DPR,1,Level 2 Charger,111 Sunken Garden Loop,New York,10035,Manhattan,40.786373,-73.931656,111,8,240,1088087,1018190010,MN1191
NYC FLEET / DPR_RIOPS#2,DPR,1,Level 2 Charger,111 Sunken Garden Loop,New York,10035,Manhattan,40.786373,-73.931656,111,8,240,1088087,1018190010,MN1191
NYC FLEET / DPR_RIOPS#3,DPR,1,Level 2 Charger,111 Sunken Garden Loop,New York,10035,Manhattan,40.786373,-73.931656,111,8,240,1088087,1018190010,MN1191
NYC FLEET / DPR_ROYWILKINS1,DPR,2,Level 2 Charger,177-01 Baisley Blvd,Jamaica,11434,Queens,40.686284,-73.768455,412,27,426,4268835,4124060180,QN1205
NYC FLEET / DPR_ROYWILKINS2,DPR,2,Level 2 Charger,177-01 Baisley Blvd,Jamaica,11434,Queens,40.686284,-73.768455,412,27,426,4268835,4124060180,QN1205
NYC FLEET / DPR_RUFUSKING#1,DPR,1,Level 2 Charger,150-03 Jamaica Ave,Jamaica,11432,Queens,40.702376,-73.803607,412,27,240,4438667,4096820001,QN1201
NYC FLEET / DPR_SHELTARMS#1,DPR,2,Level 2 Charger,500 W 129th St,New York,10027,Manhattan,40.815204,-73.955246,109,7,219,1076683,1019830006,MN0902
NYC FLEET / DPR_SISHOPS1&2,DPR,2,Level 2 Charger,21 Slosson Ave,Castleton Corners,10314,Staten Island,40.62089,-74.119394,501,49,147,5112422,5003190001,SI0105
NYC FLEET / DPR_SISHOPS3&4,DPR,2,Level 2 Charger,25 Slosson Ave,Staten Island,10314,Staten Island,40.620778,-74.119351,501,49,147,,,SI0105
NYC FLEET / DPR_SROOSEVELT1,DPR,2,Level 2 Charger,Hester St,New York,10002,Manhattan,,,,,,,,
NYC FLEET / DPR_SROOSEVELT2,DPR,2,Level 2 Charger,Hester St,New York,10002,Manhattan,,,,,,,,
NYC FLEET / DPR_STARLTPK#1,DPR,2,Level 2 Charger,1490 Sheridan Blvd,The Bronx,10459,Bronx,40.833338,-73.883614,209,17,157,2128943,2030190100,BX0303
NYC FLEET / DPR_SUNSETPARK1,DPR,1,Level 2 Charger,4119 7th Ave,Brooklyn,11232,Brooklyn,40.647324,-74.000818,307,38,9201,3018162,3009220002,BK0703
NYC FLEET / DPR_VC-GAR-S2,DPR,1,EV Solar Arc Charger,5788 Broadway,North Riverdale,10471,Bronx,40.884065,-73.901217,208,11,283,2016176,2032700009,BX0802
NYC FLEET / DPR_VCP-S1,DPR,1,EV Solar Arc Charger,189 Van Cortlandt Ave W,Bronx,10471,Bronx,,,,,,,,
NYC FLEET / DPR_VCP-S2,DPR,1,EV Solar Arc Charger,Van Cortlandt Park,Bronx,10467,Bronx,40.895835,-73.892345,226,11,43503,2000000,2059000001,BX2691
NYC FLEET / DPR_VCP-S3,DPR,1,EV Solar Arc Charger,6477 US-9,The Bronx,10471,Bronx,,,,,,,,
NYC FLEET / DPR_VCP-S4,DPR,1,EV Solar Arc Charger,David Sheridan Plaza,The Bronx,10471,Bronx,40.904759,-73.896715,208,11,345,,,BX0803
NYC FLEET / DPR_VCP-S5,DPR,1,EV Solar Arc Charger,David Sheridan Plaza,The Bronx,10471,Bronx,40.904759,-73.896715,208,11,345,,,BX0803
NYC FLEET / DPR_WHRLMPIER,DPR,2,Level 2 Charger,698 West 135Th Street,New York,10031,Manhattan,40.821351,-73.958067,109,7,22302,1076688,1020050027,MN0902
NYC FLEET / DPR_WPP-S1,DPR,1,EV Solar Arc Charger,161 Chester Ave,Staten Island,10312,Staten Island,40.52066,-74.184425,503,51,198,,,SI0304
NYC FLEET / DPR5BOROBB_1_L3,DPR,1,Level 3 Fast Charger,20 Bronx Shore Rd,New York,10035,Manhattan,40.79952,-73.92227,111,8,240,1085922,1018190203,MN1191
NYC FLEET / DPR5BOROBB_2_L3,DPR,1,Level 3 Fast Charger,20 Bronx Shore Rd,New York,10035,Manhattan,40.79952,-73.92227,111,8,240,1085922,1018190203,MN1191
NYC FLEET / DPR5BOROBB1A-B,DPR,2,Level 2 Charger,20R Bronx Shore Rd,New York,10035,Manhattan,40.79952,-73.92227,111,8,240,1088246,1018190203,MN1191
NYC FLEET / DPR5BOROBB2A-B,DPR,2,Level 2 Charger,20R Bronx Shore Rd,New York,10035,Manhattan,40.79952,-73.92227,111,8,240,1088246,1018190203,MN1191
NYC FLEET / DPR5BOROBB3A-B,DPR,2,Level 2 Charger,20R Bronx Shore Rd,New York,10035,Manhattan,40.79952,-73.92227,111,8,240,1088246,1018190203,MN1191
NYC FLEET / DPR5BOROBB4A-B,DPR,2,Level 2 Charger,20R Bronx Shore Rd,New York,10035,Manhattan,40.79952,-73.92227,111,8,240,1088246,1018190203,MN1191
NYC FLEET / DPR5BOROBB5A-B,DPR,2,Level 2 Charger,20R Bronx Shore Rd,New York,10035,Manhattan,40.79952,-73.92227,111,8,240,1088246,1018190203,MN1191
NYC FLEET / DPR5BOROBB6A-B,DPR,2,Level 2 Charger,20R Bronx Shore Rd,New York,10035,Manhattan,40.79952,-73.92227,111,8,240,1088246,1018190203,MN1191
NYC FLEET / DPR86MNSHPS#1#2,DPR,2,Level 2 Charger,50 85Th St Transverse,New York,10128,Manhattan,40.781339,-73.962508,164,6,143,,,MN6491
NYC FLEET / DPRABRYAN-S1,DPR,1,EV Solar Arc Charger,3278 Middletown Rd,Bronx,10465,Bronx,40.848118,-73.821238,210,13,27401,2075923,2054130059,BX1003
NYC FLEET / DPRABRYAN-S2,DPR,1,EV Solar Arc Charger,3278 Middletown Rd,East Bronx,10465,Bronx,40.848118,-73.821238,210,13,27401,2075923,2054130059,BX1003
NYC FLEET / DPRALLIED#4,DPR,2,Level 2 Charger,15 East Rd,Corona,11368,Queens,40.754021,-73.838509,481,21,38302,4541447,4020180001,QN8191
NYC FLEET / DPRARSENAL#1,DPR,1,Level 2 Charger,East Dr,New York,10019,Manhattan,,,,,,,,
NYC FLEET / DPRARSENAL#10,DPR,1,Level 2 Charger,East Dr,New York,10019,Manhattan,,,,,,,,
NYC FLEET / DPRARSENAL#11,DPR,1,Level 2 Charger,East Dr,New York,10019,Manhattan,,,,,,,,
NYC FLEET / DPRARSENAL#12,DPR,1,Level 2 Charger,East Dr,New York,10019,Manhattan,,,,,,,,
NYC FLEET / DPRARSENAL#13,DPR,1,Level 2 Charger,East Dr,New York,10019,Manhattan,,,,,,,,
NYC FLEET / DPRARSENAL#14,DPR,1,Level 2 Charger,East Dr,New York,10019,Manhattan,,,,,,,,
NYC FLEET / DPRARSENAL#15,DPR,1,Level 2 Charger,East Dr,New York,10019,Manhattan,,,,,,,,
NYC FLEET / DPRARSENAL#16,DPR,1,Level 2 Charger,East Dr,New York,10019,Manhattan,,,,,,,,
NYC FLEET / DPRARSENAL#17,DPR,1,Level 2 Charger,East Dr,New York,10019,Manhattan,,,,,,,,
NYC FLEET / DPRARSENAL#2,DPR,1,Level 2 Charger,East Dr,New York,10019,Manhattan,,,,,,,,
NYC FLEET / DPRARSENAL#3,DPR,1,Level 2 Charger,East Dr,New York,10019,Manhattan,,,,,,,,
NYC FLEET / DPRARSENAL#4,DPR,1,Level 2 Charger,East Dr,New York,10019,Manhattan,,,,,,,,
NYC FLEET / DPRARSENAL#5,DPR,1,Level 2 Charger,East Dr,New York,10019,Manhattan,,,,,,,,
NYC FLEET / DPRARSENAL#6,DPR,1,Level 2 Charger,East Dr,New York,10019,Manhattan,,,,,,,,
NYC FLEET / DPRARSENAL#7,DPR,1,Level 2 Charger,East Dr,New York,10019,Manhattan,,,,,,,,
NYC FLEET / DPRARSENAL#8,DPR,1,Level 2 Charger,East Dr,New York,10019,Manhattan,,,,,,,,
NYC FLEET / DPRARSENAL#9,DPR,1,Level 2 Charger,East Dr,New York,10019,Manhattan,,,,,,,,
NYC FLEET / DPRARSENAL_1_L3,DPR,1,Level 3 Fast Charger,East Dr,New York,10019,Manhattan,,,,,,,,
NYC FLEET / DPRBKFORST#1A-B,DPR,2,Level 2 Charger,95 Prospect Park West,Brooklyn,11215,Brooklyn,40.667391,-73.974508,355,39,177,3339260,3011170001,BK5591
NYC FLEET / DPRBKFORST#2A-B,DPR,2,Level 2 Charger,95 Prospect Park West,Brooklyn,11215,Brooklyn,40.667391,-73.974508,355,39,177,3339260,3011170001,BK5591
NYC FLEET / DPRBKFORST#3A-B,DPR,2,Level 2 Charger,15 East Rd,Flushing,11355,Queens,40.754021,-73.838509,481,21,38302,4541447,4020180001,QN8191
NYC FLEET / DPRBLUHERON1A-B,DPR,2,Level 2 Charger,222 Poillon Ave,Annadale,10312,Staten Island,40.530065,-74.176447,503,51,176,5133519,5064610002,SI0304
NYC FLEET / DPRBROOKFLD1A-B,DPR,2,Level 2 Charger,575 Arthur Kill Rd,Staten Island,10308,Staten Island,40.56161,-74.160443,503,51,279,5153576,5055550001,SI0203
NYC FLEET / DPRBROOKFLD2A-B,DPR,2,Level 2 Charger,575 Arthur Kill Rd,Staten Island,10308,Staten Island,40.56161,-74.160443,503,51,279,5153576,5055550001,SI0203
NYC FLEET / DPRBROOKFLD3A-B,DPR,2,Level 2 Charger,575 Arthur Kill Rd,Staten Island,10308,Staten Island,40.56161,-74.160443,503,51,279,5153576,5055550001,SI0203
NYC FLEET / DPRBROOKFLD4A-B,DPR,2,Level 2 Charger,575 Arthur Kill Rd,Staten Island,10308,Staten Island,40.56161,-74.160443,503,51,279,5153576,5055550001,SI0203
NYC FLEET / DPRBROOKLYNBPC,DPR,2,Level 2 Charger,334 Furman St,Brooklyn Heights,11201,Brooklyn,40.693999,-73.999196,302,33,301,3423338,3002450015,BK0201
NYC FLEET / DPRBUSHWINL#1#2,DPR,2,Level 2 Charger,110 Kent Ave,Brooklyn,11249,Brooklyn,40.720795,-73.961226,301,33,557,3061864,3023160049,BK0102
NYC FLEET / DPRBUSHWINL#3#4,DPR,2,Level 2 Charger,2-42 N 10Th St,Williamsburg,11249,Brooklyn,40.717655,-73.953014,301,33,519,3398096,3023070001,BK0102
NYC FLEET / DPRBXFORST#1A-B,DPR,2,Level 2 Charger,1 Bronx River Pkwy,Bronx,10462,Bronx,40.847311,-73.870827,227,15,334,2101002,2043330001,BX2791
NYC FLEET / DPRBXFORST#2A-B,DPR,2,Level 2 Charger,1 Bronx River Pkwy,Bronx,10462,Bronx,40.847311,-73.870827,227,15,334,2101002,2043330001,BX2791
NYC FLEET / DPRBXFORST#3A-B,DPR,2,Level 2 Charger,1 Bronx River Pkwy,Bronx,10462,Bronx,40.847311,-73.870827,227,15,334,2101002,2043330001,BX2791
NYC FLEET / DPRBXFORST#4A-B,DPR,2,Level 2 Charger,1 Bronx River Pkwy,Bronx,10462,Bronx,40.847311,-73.870827,227,15,334,2101002,2043330001,BX2791
NYC FLEET / DPRBXFORST#5A-B,DPR,2,Level 2 Charger,1831 Unionport Rd,East Bronx,10462,Bronx,40.845802,-73.868694,211,13,220,2042490,2040110011,BX0601
NYC FLEET / DPRBXFORST#6A-B,DPR,2,Level 2 Charger,1831 Unionport Rd,East Bronx,10462,Bronx,40.845802,-73.868694,211,13,220,2042490,2040110011,BX0601
NYC FLEET / DPRBXFORST#7A-B,DPR,2,Level 2 Charger,1831 Unionport Rd,East Bronx,10462,Bronx,40.845802,-73.868694,211,13,220,2042490,2040110011,BX0601
NYC FLEET / DPRBXFORST#8A-B,DPR,2,Level 2 Charger,1831 Unionport Rd,Bronx,10462,Bronx,40.845802,-73.868694,211,13,220,2042490,2040110011,BX0601
NYC FLEET / DPRBXFORST#9A-B,DPR,2,Level 2 Charger,1831 Unionport Rd,Bronx,10462,Bronx,40.845802,-73.868694,211,13,220,2042490,2040110011,BX0601
NYC FLEET / DPRBXFRST#10A-B,DPR,2,Level 2 Charger,1831 Unionport Rd,Bronx,10462,Bronx,40.845802,-73.868694,211,13,220,2042490,2040110011,BX0601
NYC FLEET / DPRBXPEPNORTH-1,DPR,2,Level 2 Charger,Westchester Av/Burr Av,Pelham Bay,10461,Bronx,,,,,,,,
NYC FLEET / DPRBXPEPNORTH-2,DPR,2,Level 2 Charger,Westchester Av/Burr Av,Pelham Bay,10461,Bronx,,,,,,,,
NYC FLEET / DPRCALVAUX-S1,DPR,1,EV Solar Arc Charger,1990 Shore Pkwy,Gravesend,11214,Brooklyn,40.587383,-73.992191,313,47,31402,,,BK1391
NYC FLEET / DPRCALVAUX-S2,DPR,1,EV Solar Arc Charger,1990 Shore Pkwy,Gravesend,11214,Brooklyn,40.587383,-73.992191,313,47,31402,,,BK1391
NYC FLEET / DPRCALVAUX-S3,DPR,1,EV Solar Arc Charger,1990 Shore Pkwy,Gravesend,11214,Brooklyn,40.587383,-73.992191,313,47,31402,,,BK1391
NYC FLEET / DPRCITYWIDE#1,DPR,2,Level 2 Charger,14 Bronx Shore Rd,New York,10035,Manhattan,40.79872,-73.921194,111,8,240,1088069,1018190203,MN1191
NYC FLEET / DPRCITYWIDE#10,DPR,2,Level 2 Charger,13 Bronx Shore Rd,New York,10035,Manhattan,,,,,,,,
NYC FLEET / DPRCITYWIDE#11,DPR,2,Level 2 Charger,13 Bronx Shore Rd,New York,10035,Manhattan,,,,,,,,
NYC FLEET / DPRCITYWIDE#12,DPR,2,Level 2 Charger,13 Bronx Shore Rd,New York,10035,Manhattan,,,,,,,,
NYC FLEET / DPRCITYWIDE#13,DPR,2,Level 2 Charger,14 Bronx Shore Rd,New York,10035,Manhattan,40.79872,-73.921194,111,8,240,1088069,1018190203,MN1191
NYC FLEET / DPRCITYWIDE#14,DPR,2,Level 2 Charger,13 Bronx Shore Rd,New York,10035,Manhattan,,,,,,,,
NYC FLEET / DPRCITYWIDE#15,DPR,2,Level 2 Charger,13 Bronx Shore Rd,New York,10035,Manhattan,,,,,,,,
NYC FLEET / DPRCITYWIDE#16,DPR,2,Level 2 Charger,14 Bronx Shore Rd,New York,10035,Manhattan,40.79872,-73.921194,111,8,240,1088069,1018190203,MN1191
NYC FLEET / DPRCITYWIDE#17,DPR,2,Level 2 Charger,14 Bronx Shore Rd,New York,10035,Manhattan,40.79872,-73.921194,111,8,240,1088069,1018190203,MN1191
NYC FLEET / DPRCITYWIDE#18,DPR,2,Level 2 Charger,37-49 Bronx Shore Rd,New York,10035,Manhattan,40.800068,-73.925671,111,8,240,1088067,1018190203,MN1191
NYC FLEET / DPRCITYWIDE#2,DPR,2,Level 2 Charger,14 Bronx Shore Rd,New York,10035,Manhattan,40.79872,-73.921194,111,8,240,1088069,1018190203,MN1191
NYC FLEET / DPRCITYWIDE#3,DPR,2,Level 2 Charger,14 Bronx Shore Rd,New York,10035,Manhattan,40.79872,-73.921194,111,8,240,1088069,1018190203,MN1191
NYC FLEET / DPRCITYWIDE#4,DPR,2,Level 2 Charger,Main Roadway/Opp Park & Recreation,New York,10035,Manhattan,,,,,,,,
NYC FLEET / DPRCITYWIDE#5,DPR,2,Level 2 Charger,Main Roadway/Opp Park & Recreation,New York,10035,Manhattan,,,,,,,,
NYC FLEET / DPRCITYWIDE#6,DPR,2,Level 2 Charger,15 Bronx Shore Rd,New York,10035,Manhattan,,,,,,,,
NYC FLEET / DPRCITYWIDE#7,DPR,2,Level 2 Charger,13 Bronx Shore Rd,New York,10035,Manhattan,,,,,,,,
NYC FLEET / DPRCITYWIDE#8,DPR,2,Level 2 Charger,13 Bronx Shore Rd,New York,10035,Manhattan,,,,,,,,
NYC FLEET / DPRCITYWIDE#9,DPR,2,Level 2 Charger,14 Bronx Shore Rd,New York,10035,Manhattan,40.79872,-73.921194,111,8,240,1088069,1018190203,MN1191
NYC FLEET / DPRCONFHSE1A-B,DPR,2,Level 2 Charger,298 Satterlee St,Tottenville,10307,Staten Island,40.502357,-74.25144,503,51,24402,5126463,5078570001,SI0305
NYC FLEET / DPRCUNINGHM1A-B,DPR,2,Level 2 Charger,19600 Union Tpke,Fresh Meadows,11366,Queens,40.730929,-73.774773,408,23,1283,4591812,4072900001,QN0891
NYC FLEET / DPRCUNINGHM2A-B,DPR,2,Level 2 Charger,19600 Union Tpke,Fresh Meadows,11366,Queens,40.730929,-73.774773,408,23,1283,4591812,4072900001,QN0891
NYC FLEET / DPRCUNINGHM3A-B,DPR,2,Level 2 Charger,19600 Union Tpke,Fresh Meadows,11366,Queens,40.730929,-73.774773,408,23,1283,4591812,4072900001,QN0891
NYC FLEET / DPRCUNINGHM4A-B,DPR,2,Level 2 Charger,19600 Union Tpke,Fresh Meadows,11366,Queens,40.730929,-73.774773,408,23,1283,4591812,4072900001,QN0891
NYC FLEET / DPRCUNINGHM5A-B,DPR,2,Level 2 Charger,196-5 Grand Central Parkway N Svc Rd,Queens,11423,Queens,,,,,,,,
NYC FLEET / DPRCUNINGHM6A-B,DPR,2,Level 2 Charger,196-5 Grand Central Parkway N Svc Rd,Queens,11423,Queens,,,,,,,,
NYC FLEET / DPRCUNINGHM-S1,DPR,1,EV Solar Arc Charger,Cunningham Park State Rte,Fresh Meadows,11366,Queens,40.728776,-73.764505,408,23,1283,4000000,4073000001,QN0891
NYC FLEET / DPRCUNINGHM-S2,DPR,1,EV Solar Arc Charger,Cunningham Park State Rte,Fresh Meadows,11366,Queens,40.728776,-73.764505,408,23,1283,4000000,4073000001,QN0891
NYC FLEET / DPRCUNINGHM-S3,DPR,1,EV Solar Arc Charger,196-10 Union Tpke,Queens,11366,Queens,40.730954,-73.77464,408,23,1283,4156608,4072900001,QN0891
NYC FLEET / DPRFLUSHING1A-B,DPR,2,Level 2 Charger,8 Olmsted Dr,Corona,11368,Queens,40.752164,-73.84963,481,21,38302,4541448,4020180500,QN8191
NYC FLEET / DPRFLUSHING2A-B,DPR,2,Level 2 Charger,8 Olmsted Dr,Corona,11368,Queens,40.752164,-73.84963,481,21,38302,4541448,4020180500,QN8191
NYC FLEET / DPRFLUSHING3A-B,DPR,2,Level 2 Charger,8 Olmsted Dr,Corona,11368,Queens,40.752164,-73.84963,481,21,38302,4541448,4020180500,QN8191
NYC FLEET / DPRFLUSHING4A-B,DPR,2,Level 2 Charger,8 Olmsted Dr,Corona,11368,Queens,40.752164,-73.84963,481,21,38302,4541448,4020180500,QN8191
NYC FLEET / DPRFLUSHING5A-B,DPR,2,Level 2 Charger,8 Olmsted Dr,Corona,11368,Queens,40.752164,-73.84963,481,21,38302,4541448,4020180500,QN8191
NYC FLEET / DPRFMAQUA-1A-B,DPR,2,Level 2 Charger,125-40 Roosevelt Ave,Flushing,11355,Queens,40.752442,-73.837885,481,21,38302,4540097,4020180001,QN8191
NYC FLEET / DPRFMAQUATIC-1,DPR,1,Level 2 Charger,13104 Meridian Road,Flushing,11355,Queens,40.752442,-73.837885,481,21,38302,4540097,4020180001,QN8191
NYC FLEET / DPRFRKILLS1A-B,DPR,2,Level 2 Charger,Unnamed Road,Staten Island,10314,Staten Island,,,,,,,,
NYC FLEET / DPRFRKILLS2A-B,DPR,2,Level 2 Charger,Unnamed Road,Staten Island,10314,Staten Island,,,,,,,,
NYC FLEET / DPRFTTOTTEN1A-B,DPR,2,Level 2 Charger,638 Bayside St,Bayside,11359,Queens,,,,,,,,
NYC FLEET / DPRFTTOTTEN2A-B,DPR,2,Level 2 Charger,638 Bayside St,Bayside,11359,Queens,,,,,,,,
NYC FLEET / DPRFTTOTTEN3A-B,DPR,2,Level 2 Charger,638 Bayside St,Bayside,11359,Queens,,,,,,,,
NYC FLEET / DPRFTTOTTEN4A-B,DPR,2,Level 2 Charger,15 East Rd,Flushing,11355,Queens,40.754021,-73.838509,481,21,38302,4541447,4020180001,QN8191
NYC FLEET / DPRFTTOTTEN-S1,DPR,1,EV Solar Arc Charger,Murray Ave,Fort Totten,11359,Queens,,,,,,,,
NYC FLEET / DPRFTTOTTEN-S2,DPR,1,EV Solar Arc Charger,Murray Ave,Fort Totten,11359,Queens,,,,,,,,
NYC FLEET / DPRGREENBELT#1,DPR,1,Level 2 Charger,501 Brielle Ave,Staten Island,10314,Staten Island,40.592224,-74.13628,502,50,27302,5107273,5019550001,SI0203
NYC FLEET / DPRGREENTHUMB#2,DPR,2,Level 2 Charger,25-10 Queens Plaza S,Queens,11101,Queens,40.750369,-73.940301,402,26,1902,4000000,4004230025,QN0201
NYC FLEET / DPRHIGHROCK#1,DPR,1,Level 2 Charger,191-249 Nevada Ave,Staten Island,10306,Staten Island,40.584008,-74.125528,502,50,181,5158050,5009520275,SI0203
NYC FLEET / DPRHIGHWAYP2-S1,DPR,1,EV Solar Arc Charger,2900 Flatbush Ave,Brooklyn,11234,Brooklyn,40.600248,-73.912051,318,46,666,3397327,3085900600,BK1891
NYC FLEET / DPRHIGHWAYP2-S2,DPR,1,EV Solar Arc Charger,2900 Flatbush Ave,Brooklyn,11234,Brooklyn,40.600248,-73.912051,318,46,666,3397327,3085900600,BK1891
NYC FLEET / DPRICAHNSTADIUM,DPR,2,Level 2 Charger,20 Randalls Is Rd,New York,10035,Manhattan,40.795535,-73.922671,111,8,240,1000000,1018190203,MN1191
NYC FLEET / DPRINWOODHLL-S1,DPR,1,EV Solar Arc Charger,600 W 218th St,New York,10034,Manhattan,40.872891,-73.918159,112,10,307,1065082,1022500058,MN1203
NYC FLEET / DPRINWOODHLL-S2,DPR,1,EV Solar Arc Charger,600 W 218th St,New York,10034,Manhattan,40.872891,-73.918159,112,10,307,1065082,1022500058,MN1203
NYC FLEET / DPRLITCHFLD1A-B,DPR,2,Level 2 Charger,95 Prospect Park West,Brooklyn,11215,Brooklyn,40.667391,-73.974508,355,39,177,3339260,3011170001,BK5591
NYC FLEET / DPRLITCHFLD2A-B,DPR,2,Level 2 Charger,95 Prospect Park West,Brooklyn,11215,Brooklyn,40.667391,-73.974508,355,39,177,3339260,3011170001,BK5591
NYC FLEET / DPRLITCHFLD3A-B,DPR,2,Level 2 Charger,95 Prospect Park West,Brooklyn,11215,Brooklyn,40.667391,-73.974508,355,39,177,3339260,3011170001,BK5591
NYC FLEET / DPRLITCHFLD4A-B,DPR,2,Level 2 Charger,95 Prospect Park West,Brooklyn,11215,Brooklyn,40.667391,-73.974508,355,39,177,3339260,3011170001,BK5591
NYC FLEET / DPRLITCHFLD5A-B,DPR,2,Level 2 Charger,95 Prospect Park West,Brooklyn,11215,Brooklyn,40.667391,-73.974508,355,39,177,3339260,3011170001,BK5591
NYC FLEET / DPRLITCHFLD6A-B,DPR,2,Level 2 Charger,95 Prospect Park West,Brooklyn,11215,Brooklyn,40.667391,-73.974508,355,39,177,3339260,3011170001,BK5591
NYC FLEET / DPRLITCHFLD7A-B,DPR,2,Level 2 Charger,95 Prospect Park West,Brooklyn,11215,Brooklyn,40.667391,-73.974508,355,39,177,3339260,3011170001,BK5591
NYC FLEET / DPRLYONSPL1A-B,DPR,2,Level 2 Charger,15 Murray Hulbert Ave,Staten Island,10301,Staten Island,40.637211,-74.073618,501,49,21,5155219,5004870100,SI0102
NYC FLEET / DPRLYONSPL2A-B,DPR,2,Level 2 Charger,2-6 Murray Hulbert Ave,Staten Island,10304,Staten Island,40.637675,-74.073719,501,49,21,,,SI0102
NYC FLEET / DPRLYONS-S1,DPR,1,EV Solar Arc Charger,405 Capodanno Blvd,Tompkinsville,10304,Staten Island,40.587755,-74.069261,502,50,7002,5145877,5034910116,SI0201
NYC FLEET / DPRMBLOT7-S1,DPR,1,EV Solar Arc Charger,829 Father Capodanno Blvd,Midland Beach,10305,Staten Island,40.575685,-74.083179,502,50,11201,5174902,5038320021,SI0202
NYC FLEET / DPRMBLOT7-S2,DPR,1,EV Solar Arc Charger,829 Father Capodanno Blvd,Midland Beach,10305,Staten Island,40.575685,-74.083179,502,50,11201,5174902,5038320021,SI0202
NYC FLEET / DPRMBLOT8_1_L3,DPR,1,Level 3 Fast Charger,920 Father Capodanno Blvd,Midland Beach,10305,Staten Island,40.575993,-74.082618,595,50,11201,,,SI0202
NYC FLEET / DPRMBLOT8_2_L3,DPR,1,Level 3 Fast Charger,920 Father Capodanno Blvd,Midland Beach,10305,Staten Island,40.575993,-74.082618,595,50,11201,,,SI0202
NYC FLEET / DPRMBLOT8-S1,DPR,1,EV Solar Arc Charger,Father Capodanno Blvd,Midland Beach,10305,Staten Island,,,,,,,,
NYC FLEET / DPRMBLOT8-S2,DPR,1,EV Solar Arc Charger,Father Capodanno Blvd,Midland Beach,10305,Staten Island,,,,,,,,
NYC FLEET / DPRMBLOT8-S3,DPR,1,EV Solar Arc Charger,Father Capodanno Blvd,Midland Beach,10305,Staten Island,,,,,,,,
NYC FLEET / DPRMILLPOND1&2,DPR,2,Level 2 Charger,Major Deegan Expy,West Bronx,10451,Bronx,,,,,,,,
NYC FLEET / DPRNMEADOW#1A-B,DPR,2,Level 2 Charger,97Th St Transverse,New York,10029,Manhattan,,,,,,,,
NYC FLEET / DPRNMEADOW#2A-B,DPR,2,Level 2 Charger,97Th St Transverse,New York,10029,Manhattan,,,,,,,,
NYC FLEET / DPROAKRIDGE#1#2,DPR,2,Level 2 Charger,Forest Park Dr,Woodhaven,11421,Queens,,,,,,,,
NYC FLEET / DPROCBRZAC_1_L3,DPR,1,Level 3 Fast Charger,625 Father Capodanno Blvd,South Beach,10305,Staten Island,40.582243,-74.074594,502,50,7002,5164735,5033550001,SI0201
NYC FLEET / DPROCBRZAC_2_L3,DPR,1,Level 3 Fast Charger,625 Father Capodanno Blvd,South Beach,10305,Staten Island,40.582243,-74.074594,502,50,7002,5164735,5033550001,SI0201
NYC FLEET / DPROCEANBR#1A-B,DPR,2,Level 2 Charger,631-643 Father Capodanno Blvd,South Beach,10305,Staten Island,40.581606,-74.075187,502,50,7002,5170654,5033550001,SI0201
NYC FLEET / DPROCEANBR#2A-B,DPR,2,Level 2 Charger,631-643 Father Capodanno Blvd,South Beach,10305,Staten Island,40.581606,-74.075187,502,50,7002,5170654,5033550001,SI0201
NYC FLEET / DPROLMBRADDICK1,DPR,1,Level 2 Charger,8 Olmsted Dr,Corona,11368,Queens,40.752164,-73.84963,481,21,38302,4541448,4020180500,QN8191
NYC FLEET / DPROLMSTD#10A-B,DPR,2,Level 2 Charger,117-2 Roosevelt Ave,Corona,11368,Queens,40.751876,-73.849331,481,21,38302,4050124,4020180500,QN8191
NYC FLEET / DPROLMSTD#11A-B,DPR,2,Level 2 Charger,117-2 Roosevelt Ave,Corona,11368,Queens,40.751876,-73.849331,481,21,38302,4050124,4020180500,QN8191
NYC FLEET / DPROLMSTD#12A-B,DPR,2,Level 2 Charger,117-2 Roosevelt Ave,Corona,11368,Queens,40.751876,-73.849331,481,21,38302,4050124,4020180500,QN8191
NYC FLEET / DPROLMSTD#13A-B,DPR,2,Level 2 Charger,117-2 Roosevelt Ave,Corona,11368,Queens,40.751876,-73.849331,481,21,38302,4050124,4020180500,QN8191
NYC FLEET / DPROLMSTD#14A-B,DPR,2,Level 2 Charger,8 Olmsted Dr,Corona,11368,Queens,40.752164,-73.84963,481,21,38302,4541448,4020180500,QN8191
NYC FLEET / DPROLMSTD#15A-B,DPR,2,Level 2 Charger,8 Olmsted Dr,Corona,11368,Queens,40.752164,-73.84963,481,21,38302,4541448,4020180500,QN8191
NYC FLEET / DPROLMSTD#16A-B,DPR,2,Level 2 Charger,6 Olmsted Dr,Corona,11368,Queens,40.752167,-73.849641,481,21,38302,4050124,4020180500,QN8191
NYC FLEET / DPROLMSTD#17A-B,DPR,2,Level 2 Charger,6 Olmsted Dr,Corona,11368,Queens,40.752167,-73.849641,481,21,38302,4050124,4020180500,QN8191
NYC FLEET / DPROLMSTD#18A-B,DPR,2,Level 2 Charger,6 Olmsted Dr,Corona,11368,Queens,40.752167,-73.849641,481,21,38302,4050124,4020180500,QN8191
NYC FLEET / DPROLMSTED#1A-B,DPR,2,Level 2 Charger,117-2 Roosevelt Ave,Corona,11368,Queens,40.751876,-73.849331,481,21,38302,4050124,4020180500,QN8191
NYC FLEET / DPROLMSTED#2A-B,DPR,2,Level 2 Charger,117-2 Roosevelt Ave,Corona,11368,Queens,40.751876,-73.849331,481,21,38302,4050124,4020180500,QN8191
NYC FLEET / DPROLMSTED#3A-B,DPR,2,Level 2 Charger,117-2 Roosevelt Ave,Corona,11368,Queens,40.751876,-73.849331,481,21,38302,4050124,4020180500,QN8191
NYC FLEET / DPROLMSTED#4A-B,DPR,2,Level 2 Charger,117-2 Roosevelt Ave,Corona,11368,Queens,40.751876,-73.849331,481,21,38302,4050124,4020180500,QN8191
NYC FLEET / DPROLMSTED#5A-B,DPR,2,Level 2 Charger,117-2 Roosevelt Ave,Corona,11368,Queens,40.751876,-73.849331,481,21,38302,4050124,4020180500,QN8191
NYC FLEET / DPROLMSTED#6A-B,DPR,2,Level 2 Charger,117-2 Roosevelt Ave,Corona,11368,Queens,40.751876,-73.849331,481,21,38302,4050124,4020180500,QN8191
NYC FLEET / DPROLMSTED#7A-B,DPR,2,Level 2 Charger,117-2 Roosevelt Ave,Corona,11368,Queens,40.751876,-73.849331,481,21,38302,4050124,4020180500,QN8191
NYC FLEET / DPROLMSTED#8A-B,DPR,2,Level 2 Charger,6 Olmsted Dr,Corona,11368,Queens,40.752167,-73.849641,481,21,38302,4050124,4020180500,QN8191
NYC FLEET / DPROLMSTED#9A-B,DPR,2,Level 2 Charger,6 Olmsted Dr,Corona,11368,Queens,40.752167,-73.849641,481,21,38302,4050124,4020180500,QN8191
NYC FLEET / DPROLMSTEDFOR#3,DPR,1,Level 2 Charger,12 Olmsted Dr,Corona,11368,Queens,40.752161,-73.849609,481,21,38302,4619884,4020180500,QN8191
NYC FLEET / DPROMSDFR#10#11,DPR,2,Level 2 Charger,12 Olmsted Dr,Corona,11368,Queens,40.752161,-73.849609,481,21,38302,4619884,4020180500,QN8191
NYC FLEET / DPROMSDFR#12#13,DPR,2,Level 2 Charger,12 Olmsted Dr,Corona,11368,Queens,40.752161,-73.849609,481,21,38302,4619884,4020180500,QN8191
NYC FLEET / DPROMSDFR#14#15,DPR,2,Level 2 Charger,12 Olmsted Dr,Corona,11368,Queens,40.752161,-73.849609,481,21,38302,4619884,4020180500,QN8191
NYC FLEET / DPROMSTDFOR#1#2,DPR,2,Level 2 Charger,12 Olmsted Dr,Corona,11368,Queens,40.752161,-73.849609,481,21,38302,4619884,4020180500,QN8191
NYC FLEET / DPROMSTDFOR#4#5,DPR,2,Level 2 Charger,12 Olmsted Dr,Corona,11368,Queens,40.752161,-73.849609,481,21,38302,4619884,4020180500,QN8191
NYC FLEET / DPROMSTDFOR#6#7,DPR,2,Level 2 Charger,12 Olmsted Dr,Corona,11368,Queens,40.752161,-73.849609,481,21,38302,4619884,4020180500,QN8191
NYC FLEET / DPROMSTDFOR#8#9,DPR,2,Level 2 Charger,12 Olmsted Dr,Corona,11368,Queens,40.752161,-73.849609,481,21,38302,4619884,4020180500,QN8191
NYC FLEET / DPROVERLOOK1A-B,DPR,2,Level 2 Charger,80-30 Park Ln,Kew Gardens,11415,Queens,40.710954,-73.835147,482,29,773,4442874,4033122000,QN0901
NYC FLEET / DPRPARADE1-2,DPR,2,Level 2 Charger,397 Coney Island Ave,Flatbush,11218,Brooklyn,40.649009,-73.971603,314,40,177,3256655,3050510001,BK5591
NYC FLEET / DPRPARADE3-4,DPR,2,Level 2 Charger,397 Coney Island Ave,Flatbush,11218,Brooklyn,40.649009,-73.971603,314,40,177,3256655,3050510001,BK5591
NYC FLEET / DPRPAYSONPLAY#1,DPR,2,Level 2 Charger,269 Dyckman St,New York,10034,Manhattan,40.866824,-73.928811,112,10,297,1000000,1022552000,MN1292
NYC FLEET / DPRPEPBURR-S1,DPR,1,EV Solar Arc Charger,2029 Burr Ave,Bronx,10461,Bronx,40.853828,-73.827513,210,13,300,2047778,2042490041,BX1003
NYC FLEET / DPRPEPBURR-S2,DPR,1,EV Solar Arc Charger,2029 Burr Ave,Middletown - Pelham Bay,10461,Bronx,40.853828,-73.827513,210,13,300,2047778,2042490041,BX1003
NYC FLEET / DPRPEPBURR-S3,DPR,1,EV Solar Arc Charger,2029 Burr Ave,Middletown - Pelham Bay,10461,Bronx,40.853828,-73.827513,210,13,300,2047778,2042490041,BX1003
NYC FLEET / DPRPRKOFAMER#1,DPR,2,Level 2 Charger,103-68 41st Ave,Corona,11368,Queens,40.74913,-73.861966,404,21,40501,,,QN0402
NYC FLEET / DPRPRSPCTYARDS1,DPR,1,EV Solar Arc Charger,48 West Dr,Brooklyn,11215,Brooklyn,40.664987,-73.973384,355,39,177,3411717,3011170001,BK5591
NYC FLEET / DPRPRSPCTYARDS2,DPR,1,EV Solar Arc Charger,48 West Dr,Brooklyn,11215,Brooklyn,40.664987,-73.973384,355,39,177,3411717,3011170001,BK5591
NYC FLEET / DPRQBLIC#1&2,DPR,2,Level 2 Charger,23-10 Queens Plaza S,Long Island City,11101,Queens,40.751136,-73.94204,402,26,1903,4005066,4004250005,QN0201
NYC FLEET / DPRQBLIC#3&4,DPR,2,Level 2 Charger,10Th Street And Queens Plaza South,Long Island City,11101,Queens,,,,,,,,
NYC FLEET / DPRQNSMSEUM#1#2,DPR,2,Level 2 Charger,Avenue Of The States,Corona,11368,Queens,,,,,,,,
NYC FLEET / DPRQNSSHOPS1A-B,DPR,2,Level 2 Charger,8298 88Th Pl,Flushing,11385,Queens,40.701474,-73.858238,405,32,639,,,QN0503
NYC FLEET / DPRQNSSHOPS2A-B,DPR,2,Level 2 Charger,8298 88Th Pl,Flushing,11385,Queens,40.701474,-73.858238,405,32,639,,,QN0503
NYC FLEET / DPRQNSSTHSE#1#2,DPR,2,Level 2 Charger,43 Flushing Meadows Corona Park Rd,Queens,11368,Queens,40.742377,-73.842157,481,21,38302,4000000,4020180001,QN8191
NYC FLEET / DPRQNSSTHSE#3#4,DPR,2,Level 2 Charger,43 Flushing Meadows Corona Park Rd,Queens,11368,Queens,40.742377,-73.842157,481,21,38302,4000000,4020180001,QN8191
NYC FLEET / DPRRANAQUA#1,DPR,1,Level 2 Charger,1 Bronx River Pkwy,Bronx,10462,Bronx,40.847311,-73.870827,227,15,334,2101002,2043330001,BX2791
NYC FLEET / DPRRANAQUA#2,DPR,1,Level 2 Charger,1 Bronx River Pkwy,Bronx,10462,Bronx,40.847311,-73.870827,227,15,334,2101002,2043330001,BX2791
NYC FLEET / DPRRANAQUA#3,DPR,1,Level 2 Charger,1 Bronx River Pkwy,Bronx,10462,Bronx,40.847311,-73.870827,227,15,334,2101002,2043330001,BX2791
NYC FLEET / DPRRANAQUA#4,DPR,2,Level 2 Charger,1 Bronx River Pkwy,Bronx,10462,Bronx,40.847311,-73.870827,227,15,334,2101002,2043330001,BX2791
NYC FLEET / DPRRIVERSIDE-S1,DPR,1,EV Solar Arc Charger,Hudson River Greenway,New York,10025,Manhattan,,,,,,,,
NYC FLEET / DPRRIVERSIDE-S2,DPR,1,EV Solar Arc Charger,Ny-9A,New York,10025,Manhattan,,,,,,,,
NYC FLEET / DPRRIVERSIDE-S3,DPR,1,EV Solar Arc Charger,223 Riverside Dr,New York,10025,Manhattan,40.795089,-73.976207,107,6,183,1034176,1012530004,MN0702
NYC FLEET / DPRRIVERSIDE-S4,DPR,1,EV Solar Arc Charger,223 Riverside Dr,New York,10025,Manhattan,40.795089,-73.976207,107,6,183,1034176,1012530004,MN0702
NYC FLEET / DPRROCKAWAY17ST,DPR,2,Level 2 Charger,16-25 Seagirt Blvd,Rockaway Park,11694,Queens,40.595127,-73.750371,414,31,101004,4299407,4156490001,QN1401
NYC FLEET / DPRROCKAWAY30,DPR,1,EV Solar Arc Charger,102 32 St,Rockaway Beach,11693,Queens,,,,,,,,
NYC FLEET / DPRROCKAWAY30B,DPR,1,EV Solar Arc Charger,1-09 Beach 30th St,Far Rockaway,11691,Queens,40.593116,-73.762539,414,31,99802,4000000,4158220048,QN1401
NYC FLEET / DPRROCKAWAY80S1,DPR,1,EV Solar Arc Charger,350 80 St,Queens,11693,Queens,,,,,,,,
NYC FLEET / DPRROCKAWAY80S2,DPR,1,EV Solar Arc Charger,350 80 St,Queens,11693,Queens,,,,,,,,
NYC FLEET / DPRROCKAWAY97S1,DPR,1,EV Solar Arc Charger,1 Beach 56th Pl,Queens,11692,Queens,40.590278,-73.786049,414,31,97202,,,QN1402
NYC FLEET / DPRROCKAWAY97S2,DPR,1,EV Solar Arc Charger,9111 Shore Front Pkwy,Queens,11693,Queens,40.584396,-73.813149,414,32,94203,,,QN1402
NYC FLEET / DPRROCKAWY86-S1,DPR,1,EV Solar Arc Charger,8601 Shore Front Pkwy,Far Rockaway,11691,Queens,40.584972,-73.810876,414,32,94203,4303674,4161500100,QN1402
NYC FLEET / DPRROCKAWY97-S1,DPR,1,EV Solar Arc Charger,9701 Shore Front Pkwy,Far Rockaway,11694,Queens,40.583177,-73.817764,414,32,94201,4549352,4161890050,QN1402
NYC FLEET / DPRSBLOT4-S1,DPR,1,EV Solar Arc Charger,405 Father Capodanno Blvd,South Beach,10305,Staten Island,40.587755,-74.069261,502,50,7002,5145877,5034910116,SI0201
NYC FLEET / DPRSBLOT4-S2,DPR,1,EV Solar Arc Charger,405 Father Capodanno Blvd,South Beach,10305,Staten Island,40.587755,-74.069261,502,50,7002,5145877,5034910116,SI0201
NYC FLEET / DPRSID1HDQT#1#2,DPR,2,Level 2 Charger,1150 Clove Rd,Staten Island,10301,Staten Island,40.618239,-74.105161,501,49,147,5112426,5003190001,SI0105
NYC FLEET / DPRSIFRSTRY#3#4,DPR,2,Level 2 Charger,21 Slosson Ave,Staten Island,10314,Staten Island,40.62089,-74.119394,501,49,147,5112422,5003190001,SI0105
NYC FLEET / DPRSIFRSTRY#5#6,DPR,2,Level 2 Charger,21-51 Slosson Ave,Castleton Corners,10314,Staten Island,40.62089,-74.119394,501,49,147,5112422,5003190001,SI0105
NYC FLEET / DPRSIFRSTRY#7#8,DPR,2,Level 2 Charger,21 Slosson Ave,Castleton Corners,10314,Staten Island,40.62089,-74.119394,501,49,147,5112422,5003190001,SI0105
NYC FLEET / DPRSIFRSTRY9&10,DPR,2,Level 2 Charger,21 Slosson Ave,Staten Island,10314,Staten Island,40.62089,-74.119394,501,49,147,5112422,5003190001,SI0105
NYC FLEET / DPRSISHOPS#1#2,DPR,2,Level 2 Charger,21 Slosson Ave,Staten Island,10314,Staten Island,40.62089,-74.119394,501,49,147,5112422,5003190001,SI0105
NYC FLEET / DPRSLTENNIS-S1,DPR,1,EV Solar Arc Charger,42 Revere St,Silver Lake,10301,Staten Island,40.62852,-74.100238,501,49,5901,5156178,5002390001,SI0104
NYC FLEET / DPRSLTENNIS-S2,DPR,1,EV Solar Arc Charger,42 Revere St,Silver Lake,10301,Staten Island,40.62852,-74.100238,501,49,5901,5156178,5002390001,SI0104
NYC FLEET / DPRSLVRLAKE1A-B,DPR,2,Level 2 Charger,42 Revere St,Staten Island,10301,Staten Island,40.62852,-74.100238,501,49,5901,5156178,5002390001,SI0104
NYC FLEET / DPRSLVRLAKE1-CP,DPR,1,Level 2 Charger,42 Revere St,Staten Island,10301,Staten Island,40.62852,-74.100238,501,49,5901,5156178,5002390001,SI0104
NYC FLEET / DPRSLVRLAKE2A-B,DPR,2,Level 2 Charger,42 Revere St,Staten Island,10301,Staten Island,40.62852,-74.100238,501,49,5901,5156178,5002390001,SI0104
NYC FLEET / DPRSLVRLAKE3A-B,DPR,2,Level 2 Charger,42 Revere St,Staten Island,10301,Staten Island,40.62852,-74.100238,501,49,5901,5156178,5002390001,SI0104
NYC FLEET / DPRSLVRLAKE4A-B,DPR,2,Level 2 Charger,42 Revere St,Staten Island,10301,Staten Island,40.62852,-74.100238,501,49,5901,5156178,5002390001,SI0104
NYC FLEET / DPRSLVRLAKE5A-B,DPR,2,Level 2 Charger,42 Revere St,Staten Island,10301,Staten Island,40.62852,-74.100238,501,49,5901,5156178,5002390001,SI0104
NYC FLEET / DPRSOUNDVIEW_#1,DPR,1,Level 2 Charger,1550 Lafayette Ave,Clason Point,10473,Bronx,40.819343,-73.878396,209,18,24,2125611,2035430001,BX0991
NYC FLEET / DPRSOUTHBEACH#1,DPR,2,Level 2 Charger,375 Sand Ln,Staten Island,10305,Staten Island,40.59048,-74.06675,502,50,74,5174859,5031227501,SI0201
NYC FLEET / DPRTOTTENBLG203,DPR,1,Level 2 Charger,208 Totten Ave,Bayside,11359,Queens,40.792442,-73.777563,407,19,999,4539849,4059170001,QN0761
NYC FLEET / DPRTOTTENBLG431,DPR,2,Level 2 Charger,431 Walter Reed Rd,Bayside,11359,Queens,40.794148,-73.775415,407,19,999,4539884,4059170001,QN0761
NYC FLEET / DPRWFMARINA#1#2,DPR,2,Level 2 Charger,1 Flushing Bay Promenade,East Elmhurst,11369,Queens,,,,,,,,
NYC FLEET / DPRWFMARINA-S2,DPR,1,EV Solar Arc Charger,1 Marina Rd,Queens,11368,Queens,40.760974,-73.857649,403,21,38302,,,QN8191
NYC FLEET / DPRWFMARINA-S3,DPR,1,EV Solar Arc Charger,109-5 Marina Rd,Queens,11368,Queens,,,,,,,,
NYC FLEET / DPRWFMARNA_1_L3,DPR,1,Level 3 Fast Charger,109-5 Marina Rd,Corona,11368,Queens,,,,,,,,
NYC FLEET / DPRWFMARNA_2_L3,DPR,1,Level 3 Fast Charger,109-5 Marina Rd,Queens,11368,Queens,,,,,,,,
NYC FLEET / DPRWFMARNA_3_L3,DPR,1,Level 3 Fast Charger,109-5 Marina Rd,Queens,11368,Queens,,,,,,,,
NYC FLEET / DPRWFMARNA_4_L3,DPR,1,Level 3 Fast Charger,109-5 Marina Rd,Queens,11368,Queens,,,,,,,,
NYC FLEET / DPRWFMARNA_5_L3,DPR,1,Level 3 Fast Charger,109-5 Marina Rd,Queens,11368,Queens,,,,,,,,
NYC FLEET / DSNY_BK01-1,DSNY,2,Level 2 Charger,161 Varick Ave,East Williamsburg,11237,Brooklyn,40.711118,-73.928548,301,34,44902,3400387,3029620001,BK0104
NYC FLEET / DSNY_BK01-DCFC1,DSNY,1,Level 3 Fast Charger,161 Varick Ave,East Williamsburg,11237,Brooklyn,40.711118,-73.928548,301,34,44902,3400387,3029620001,BK0104
NYC FLEET / DSNY_BK02,DSNY,2,Level 2 Charger,52-35 58th St,Queens,11377,Queens,40.734883,-73.909957,402,26,243,4462505,4023610268,QN0203
NYC FLEET / DSNY_BK03-1,DSNY,2,Level 2 Charger,525 Johnson Ave,Brooklyn,11237,Brooklyn,40.708726,-73.926318,301,34,44902,3070584,3029870016,BK0104
NYC FLEET / DSNY_BK04-1,DSNY,2,Level 2 Charger,161 Varick Ave,East Williamsburg,11237,Brooklyn,40.711118,-73.928548,301,34,44902,3400387,3029620001,BK0104
NYC FLEET / DSNY_BK04-2,DSNY,2,Level 2 Charger,161 Varick Ave,East Williamsburg,11237,Brooklyn,40.711118,-73.928548,301,34,44902,3400387,3029620001,BK0104
NYC FLEET / DSNY_BK05-1,DSNY,2,Level 2 Charger,606 Milford Street,East New York,11208,Brooklyn,40.660832,-73.8697,305,42,1078,3099068,3045620001,BK0503
NYC FLEET / DSNY_BK06-1,DSNY,1,Level 2 Charger,127 2Nd Ave,Brooklyn,11215,Brooklyn,40.671308,-73.994452,306,38,117,3022747,3010200001,BK0601
NYC FLEET / DSNY_BK06-2,DSNY,2,Level 2 Charger,127 2nd Ave,Gowanus,11215,Brooklyn,40.671308,-73.994452,306,38,117,3022747,3010200001,BK0601
NYC FLEET / DSNY_BK06A,DSNY,2,Level 2 Charger,1595 Washington Ave,Bronx,10457,Bronx,40.839498,-73.90231,203,15,167,2009477,2029040034,BX0302
NYC FLEET / DSNY_BK07-1,DSNY,2,Level 2 Charger,5100 1St Ave,Sunset Park,11232,Brooklyn,40.649977,-74.02012,307,38,1803,3000000,3007250200,BK0702
NYC FLEET / DSNY_BK08-1,DSNY,2,Level 2 Charger,1755 Pacific St,Crown Heights,11213,Brooklyn,40.67669,-73.931938,308,36,309,3330693,3013360018,BK0802
NYC FLEET / DSNY_BK09-1,DSNY,2,Level 2 Charger,690 New York Ave,Prospect Lefferts Gardens,11203,Brooklyn,40.657155,-73.947351,309,40,804,3327687,3048270039,BK0902
NYC FLEET / DSNY_BK10-1,DSNY,2,Level 2 Charger,5100 1St Ave,Brooklyn,11232,Brooklyn,40.649977,-74.02012,307,38,1803,3000000,3007250200,BK0702
NYC FLEET / DSNY_BK11-1,DSNY,2,Level 2 Charger,1824 Shore Parkway,Brooklyn,11214,Brooklyn,40.591314,-73.994488,311,47,304,3378180,3069430030,BK1103
NYC FLEET / DSNY_BK11-S1,DSNY,1,EV Solar Arc Charger,1824 Shore Pkwy,Brooklyn,11214,Brooklyn,40.591314,-73.994488,311,47,304,3378180,3069430030,BK1103
NYC FLEET / DSNY_BK11-S2,DSNY,1,EV Solar Arc Charger,1824 Shore Pkwy,Brooklyn,11214,Brooklyn,40.591314,-73.994488,311,47,304,3378180,3069430030,BK1103
NYC FLEET / DSNY_BK11-S3,DSNY,1,EV Solar Arc Charger,1824 Shore Pkwy,Brooklyn,11214,Brooklyn,40.591314,-73.994488,311,47,304,3378180,3069430030,BK1103
NYC FLEET / DSNY_BK11-S4,DSNY,1,EV Solar Arc Charger,1824 Shore Pkwy,Brooklyn,11214,Brooklyn,40.591314,-73.994488,311,47,304,3378180,3069430030,BK1103
NYC FLEET / DSNY_BK12-S1,DSNY,1,EV Solar Arc Charger,5602 19th Ave,Mapleton,11204,Brooklyn,40.622889,-73.982824,312,44,468,3328495,3054940089,BK1204
NYC FLEET / DSNY_BK12-S2,DSNY,1,EV Solar Arc Charger,5602 19th Ave,Mapleton,11204,Brooklyn,40.622889,-73.982824,312,44,468,3328495,3054940089,BK1204
NYC FLEET / DSNY_BK13_S1,DSNY,1,EV Solar Arc Charger,2012 Neptune Ave,Brooklyn,11224,Brooklyn,40.578665,-73.987588,313,47,326,3387557,3070180007,BK1302
NYC FLEET / DSNY_BK14-1,DSNY,2,Level 2 Charger,1397 Ralph Ave,Canarsie,11236,Brooklyn,40.642674,-73.919717,318,42,960,3221978,3079180145,BK1803
NYC FLEET / DSNY_BK15A-1,DSNY,2,Level 2 Charger,2501 Knapp St,Brooklyn,11235,Brooklyn,40.592214,-73.932546,315,46,628,3414032,3088350001,BK1503
NYC FLEET / DSNY_BK16-DCFC1,DSNY,1,Level 3 Fast Charger,50 Wortman Ave,Brooklyn,11207,Brooklyn,40.654488,-73.890676,305,42,1104,3097871,3043880001,BK0503
NYC FLEET / DSNY_BK16-DCFC2,DSNY,1,Level 3 Fast Charger,50-72 Wortman Ave,Brooklyn,11207,Brooklyn,40.654488,-73.890676,305,42,1104,3097871,3043880001,BK0503
NYC FLEET / DSNY_BK17-1,DSNY,1,Level 2 Charger,10502 Avenue D,Brooklyn,11236,Brooklyn,40.653831,-73.901511,318,42,1098,3256921,3081380001,BK0503
NYC FLEET / DSNY_BK17-2,DSNY,1,Level 2 Charger,10502 Avenue D,Brooklyn,11236,Brooklyn,40.653831,-73.901511,318,42,1098,3256921,3081380001,BK0503
NYC FLEET / DSNY_BK17-DCFC1,DSNY,1,Level 3 Fast Charger,10502 Avenue D,Brooklyn,11236,Brooklyn,40.653831,-73.901511,318,42,1098,3256921,3081380001,BK0503
NYC FLEET / DSNY_BK18-1,DSNY,1,Level 2 Charger,105-01 Foster Ave,Brooklyn,11236,Brooklyn,40.627727,-73.976281,314,40,480,3398029,3054260001,BK1402
NYC FLEET / DSNY_BK18-2,DSNY,1,Level 2 Charger,105-01 Foster Ave,Brooklyn,11236,Brooklyn,40.627727,-73.976281,314,40,480,3398029,3054260001,BK1402
NYC FLEET / DSNY_BK18-DCFC1,DSNY,1,Level 3 Fast Charger,105-01 Foster Ave,Brooklyn,11236,Brooklyn,40.627727,-73.976281,314,40,480,3398029,3054260001,BK1402
NYC FLEET / DSNY_BK18-DCFC2,DSNY,1,Level 3 Fast Charger,105-01 Foster Ave,Brooklyn,11236,Brooklyn,40.627727,-73.976281,314,40,480,3398029,3054260001,BK1402
NYC FLEET / DSNY_BKLCU-1,DSNY,2,Level 2 Charger,110 E 131st St,New York,10037,Manhattan,40.808657,-73.935809,111,9,242,1054511,1017790001,MN1102
NYC FLEET / DSNY_BX02-1,DSNY,2,Level 2 Charger,650 Casanova St,West Bronx,10474,Bronx,40.812786,-73.889857,202,17,9301,2006621,2027650177,BX0201
NYC FLEET / DSNY_BX04-1,DSNY,2,Level 2 Charger,525 Johnson Ave,East Williamsburg,11237,Brooklyn,40.708726,-73.926318,301,34,44902,3070584,3029870016,BK0104
NYC FLEET / DSNY_BX05-1,DSNY,1,Level 2 Charger,1331 Cromwell Ave,Bronx,10452,Bronx,40.839273,-73.920629,204,16,219,2008640,2028710077,BX0403
NYC FLEET / DSNY_BX05-2,DSNY,2,Level 2 Charger,465 Hamilton Ave,Gowanus,11232,Brooklyn,40.669156,-73.996907,306,38,11902,3023562,3010380001,BK0601
NYC FLEET / DSNY_BX06-2,DSNY,2,Level 2 Charger,800 E 176Th St,Bronx,10460,Bronx,40.842053,-73.889504,206,15,367,2097277,2029530021,BX0602
NYC FLEET / DSNY_BX06A-1,DSNY,2,Level 2 Charger,800 E 176Th St,Bronx,10460,Bronx,40.842053,-73.889504,206,15,367,2097277,2029530021,BX0602
NYC FLEET / DSNY_BX06A-2,DSNY,1,Level 2 Charger,800 E 176Th St,Bronx,10460,Bronx,40.842053,-73.889504,206,15,367,2097277,2029530021,BX0602
NYC FLEET / DSNY_BX07-1,DSNY,2,Level 2 Charger,423 W 215th St,New York,10034,Manhattan,40.869024,-73.913916,112,10,299,1082036,1022120001,MN1203
NYC FLEET / DSNY_BX08-1,DSNY,2,Level 2 Charger,423 W 215 St,New York,10034,Manhattan,40.869024,-73.913916,112,10,299,1082036,1022120001,MN1203
NYC FLEET / DSNY_BX10-1,DSNY,2,Level 2 Charger,850 Zerega Ave,East Bronx,10473,Bronx,40.825144,-73.843139,209,18,90,2094841,2037020001,BX0903
NYC FLEET / DSNY_BX12-1,DSNY,2,Level 2 Charger,1635 E 233Rd St,East Bronx,10475,Bronx,40.888188,-73.826903,212,12,456,2090261,2049740028,BX1202
NYC FLEET / DSNY_BX12-2,DSNY,2,Level 2 Charger,1635 E 233Rd St,East Bronx,10466,Bronx,40.888188,-73.826903,212,12,456,2090261,2049740028,BX1202
NYC FLEET / DSNY_BX12-3,DSNY,2,Level 2 Charger,1635 E 233Rd St,East Bronx,10466,Bronx,40.888188,-73.826903,212,12,456,2090261,2049740028,BX1202
NYC FLEET / DSNY_BX12-4,DSNY,2,Level 2 Charger,1635 E 233Rd St,East Bronx,10466,Bronx,40.888188,-73.826903,212,12,456,2090261,2049740028,BX1202
NYC FLEET / DSNY_BXENF-WASH,DSNY,2,Level 2 Charger,1595 Washington Ave,Bronx,10457,Bronx,40.839498,-73.90231,203,15,167,2009477,2029040034,BX0302
NYC FLEET / DSNY_CBS-1,DSNY,1,Level 2 Charger,10601 Avenue D,Brooklyn,11236,Brooklyn,40.654363,-73.900725,318,42,1098,3252759,3038710001,BK0503
NYC FLEET / DSNY_CBS-2,DSNY,2,Level 2 Charger,401 E 105th St,Canarsie,11236,Brooklyn,40.653513,-73.901371,318,42,1098,3256921,3081380001,BK0503
NYC FLEET / DSNY_CRS_MM-1,DSNY,2,Level 2 Charger,52-35 58Th St,Woodside,11377,Queens,40.734883,-73.909957,402,26,243,4462505,4023610268,QN0203
NYC FLEET / DSNY_CRS_PC-1,DSNY,1,Level 2 Charger,52-35 58Th Street,Woodside,11377,Queens,40.734883,-73.909957,402,26,243,4462505,4023610268,QN0203
NYC FLEET / DSNY_CRS_VAWNE1,DSNY,2,Level 2 Charger,52-35 58th St,Woodside,11377,Queens,40.734883,-73.909957,402,26,243,4462505,4023610268,QN0203
NYC FLEET / DSNY_CRS_VAWNE2,DSNY,2,Level 2 Charger,52-35 58th St,Woodside,11377,Queens,40.734883,-73.909957,402,26,243,4462505,4023610268,QN0203
NYC FLEET / DSNY_CRSBBMDCFC,DSNY,1,Level 3 Fast Charger,52-35 58th St,Queens,11377,Queens,40.734883,-73.909957,402,26,243,4462505,4023610268,QN0203
NYC FLEET / DSNY_CRSNEDCFC1,DSNY,1,Level 3 Fast Charger,52-35 58th St,Queens,11377,Queens,40.734883,-73.909957,402,26,243,4462505,4023610268,QN0203
NYC FLEET / DSNY_CRSNEDCFC2,DSNY,1,Level 3 Fast Charger,52-35 58th St,Queens,11377,Queens,40.734883,-73.909957,402,26,243,4462505,4023610268,QN0203
NYC FLEET / DSNY_CRSPCDCFC,DSNY,1,Level 3 Fast Charger,52-35 58th St,Queens,11377,Queens,40.734883,-73.909957,402,26,243,4462505,4023610268,QN0203
NYC FLEET / DSNY_CRSPSDCFC1,DSNY,1,Level 3 Fast Charger,52-35 58th St,Queens,11377,Queens,40.734883,-73.909957,402,26,243,4462505,4023610268,QN0203
NYC FLEET / DSNY_CRSQWDCFC1,DSNY,1,Level 3 Fast Charger,52-35 58th St,Queens,11377,Queens,40.734883,-73.909957,402,26,243,4462505,4023610268,QN0203
NYC FLEET / DSNY_CRSQWDCFC2,DSNY,1,Level 3 Fast Charger,52-35 58th St,Queens,11377,Queens,40.734883,-73.909957,402,26,243,4462505,4023610268,QN0203
NYC FLEET / DSNY_EMMS_LAB,DSNY,2,Level 2 Charger,1763 W Farms Rd,Bronx,10460,Bronx,40.835683,-73.882143,203,17,161,2010963,2030150097,BX0303
NYC FLEET / DSNY_FBF-S1,DSNY,1,EV Solar Arc Charger,50 Aviation Rd,Brooklyn,11234,Brooklyn,40.591839,-73.882699,356,46,70202,,,BK5691
NYC FLEET / DSNY_FBF-S2,DSNY,1,EV Solar Arc Charger,50 Aviation Rd,Brooklyn,11234,Brooklyn,40.591839,-73.882699,356,46,70202,,,BK5691
NYC FLEET / DSNY_FBF-S3,DSNY,1,EV Solar Arc Charger,50 Aviation Rd,Brooklyn,11234,Brooklyn,40.591839,-73.882699,356,46,70202,,,BK5691
NYC FLEET / DSNY_HENRY-1,DSNY,1,Level 2 Charger,80 Henry Street,New York,10002,Manhattan,40.71307,-73.993821,103,1,8,1079607,1002750003,MN0301
NYC FLEET / DSNY_HENRY-2,DSNY,1,Level 2 Charger,80 Henry Street,New York,10002,Manhattan,40.71307,-73.993821,103,1,8,1079607,1002750003,MN0301
NYC FLEET / DSNY_HENRY-3,DSNY,1,Level 2 Charger,80 Henry Street,New York,10002,Brooklyn,40.698451,-73.992546,302,33,1,3001700,3002260025,BK0201
NYC FLEET / DSNY_HENRY-4,DSNY,1,Level 2 Charger,80 Henry Street,New York,10002,Manhattan,40.71307,-73.993821,103,1,8,1079607,1002750003,MN0301
NYC FLEET / DSNY_M04-DCFC1,DSNY,1,Level 3 Fast Charger,650 W 57th St,New York,10019,Manhattan,40.771149,-73.993415,104,6,13502,1087609,1011040001,MN0402
NYC FLEET / DSNY_M04-DCFC2,DSNY,1,Level 3 Fast Charger,650 W 57th St,New York,10019,Manhattan,40.771149,-73.993415,104,6,13502,1087609,1011040001,MN0402
NYC FLEET / DSNY_M04-DCFC3,DSNY,1,Level 3 Fast Charger,630 W 57th St,New York,10019,Manhattan,40.770957,-73.992953,104,6,13502,,,MN0402
NYC FLEET / DSNY_M04-DCFC4,DSNY,1,Level 3 Fast Charger,650 W 57th St,New York,10019,Manhattan,40.771149,-73.993415,104,6,13502,1087609,1011040001,MN0402
NYC FLEET / DSNY_M07-DCFC1,DSNY,1,Level 3 Fast Charger,650 W 57th St,New York,10019,Manhattan,40.771149,-73.993415,104,6,13502,1087609,1011040001,MN0402
NYC FLEET / DSNY_M07-DCFC2,DSNY,1,Level 3 Fast Charger,650 W 57th St,New York,10019,Manhattan,40.771149,-73.993415,104,6,13502,1087609,1011040001,MN0402
NYC FLEET / DSNY_M07-DCFC3,DSNY,1,Level 3 Fast Charger,650 W 57th St,New York,10019,Manhattan,40.771149,-73.993415,104,6,13502,1087609,1011040001,MN0402
NYC FLEET / DSNY_M07-DCFC4,DSNY,1,Level 3 Fast Charger,650 W 57th St,New York,10019,Manhattan,40.771149,-73.993415,104,6,13502,1087609,1011040001,MN0402
NYC FLEET / DSNY_MBS-1,DSNY,1,Level 2 Charger,640 West 26Th Street,New York,10001,Manhattan,40.751183,-74.006594,104,3,9901,1012267,1006700050,MN0401
NYC FLEET / DSNY_MBS-DCFC1,DSNY,1,Level 3 Fast Charger,640 W 26th St,New York,10001,Manhattan,40.751183,-74.006594,104,3,9901,1012267,1006700050,MN0401
NYC FLEET / DSNY_MBS-DCFC2,DSNY,1,Level 3 Fast Charger,640 W 26th St,New York,10001,Manhattan,40.751183,-74.006594,104,3,9901,1012267,1006700050,MN0401
NYC FLEET / DSNY_MBS-DCFC3,DSNY,1,Level 3 Fast Charger,640 W 26th St,New York,10001,Manhattan,40.751183,-74.006594,104,3,9901,1012267,1006700050,MN0401
NYC FLEET / DSNY_MBS-DCFC4,DSNY,1,Level 3 Fast Charger,640 W 26th St,New York,10001,Manhattan,40.751183,-74.006594,104,3,9901,1012267,1006700050,MN0401
NYC FLEET / DSNY_MBS-DCFC5,DSNY,1,Level 3 Fast Charger,640 W 26th St,New York,10001,Manhattan,40.751183,-74.006594,104,3,9901,1012267,1006700050,MN0401
NYC FLEET / DSNY_MBS-DCFC6,DSNY,1,Level 3 Fast Charger,640 W 26th St,New York,10001,Manhattan,40.751183,-74.006594,104,3,9901,1012267,1006700050,MN0401
NYC FLEET / DSNY_MBS-DCFC7,DSNY,1,Level 3 Fast Charger,640 W 26th St,New York,10001,Manhattan,40.751183,-74.006594,104,3,9901,1012267,1006700050,MN0401
NYC FLEET / DSNY_MN01-1,DSNY,2,Level 2 Charger,353 Spring St,New York,10013,Manhattan,40.726159,-74.010712,102,3,37,1089625,1005967501,MN0201
NYC FLEET / DSNY_MN02-1,DSNY,2,Level 2 Charger,353 Spring St,New York,10013,Manhattan,40.726159,-74.010712,102,3,37,1089625,1005967501,MN0201
NYC FLEET / DSNY_MN03-1,DSNY,2,Level 2 Charger,South Street Pier 36,New York,10002,Manhattan,,,,,,,,
NYC FLEET / DSNY_MN03-2,DSNY,2,Level 2 Charger,South Street Pier 36,New York,10002,Manhattan,,,,,,,,
NYC FLEET / DSNY_MN03-3,DSNY,2,Level 2 Charger,South Street Pier 36,New York,10002,Manhattan,,,,,,,,
NYC FLEET / DSNY_MN03-DCFC1,DSNY,1,Level 3 Fast Charger,299 South St,New York,10002,Manhattan,40.710508,-73.986196,103,1,201,1079600,1002410013,MN0301
NYC FLEET / DSNY_MN03-DCFC2,DSNY,1,Level 3 Fast Charger,299 South St,New York,10002,Manhattan,40.710508,-73.986196,103,1,201,1079600,1002410013,MN0301
NYC FLEET / DSNY_MN04-1,DSNY,2,Level 2 Charger,930 W 57th St,New York,10019,Manhattan,,,,,,,,
NYC FLEET / DSNY_MN04-2,DSNY,2,Level 2 Charger,800E 176Th St,West Bronx,10460,Bronx,40.842053,-73.889504,206,15,367,2097277,2029530021,BX0602
NYC FLEET / DSNY_MN05_DCFC1,DSNY,1,Level 3 Fast Charger,353 Spring St,New York,10013,Manhattan,40.726159,-74.010712,102,3,37,1089625,1005967501,MN0201
NYC FLEET / DSNY_MN05_DCFC2,DSNY,1,Level 3 Fast Charger,353 Spring St,New York,10013,Manhattan,40.726159,-74.010712,102,3,37,1089625,1005967501,MN0201
NYC FLEET / DSNY_MN05-1,DSNY,2,Level 2 Charger,52 58th St,woodside,11377,Queens,,,,,,,,
NYC FLEET / DSNY_MN06-DCFC1,DSNY,1,Level 3 Fast Charger,299 South St,New York,10002,Manhattan,40.710508,-73.986196,103,1,201,1079600,1002410013,MN0301
NYC FLEET / DSNY_MN06-DCFC2,DSNY,1,Level 3 Fast Charger,299 South St,New York,10002,Manhattan,40.710508,-73.986196,103,1,201,1079600,1002410013,MN0301
NYC FLEET / DSNY_MN07-1,DSNY,2,Level 2 Charger,1787 W Farms Rd,Bronx,10460,Bronx,40.836086,-73.882066,203,17,161,2010955,2030150058,BX0303
NYC FLEET / DSNY_MN07-2,DSNY,2,Level 2 Charger,650 W 57Th St,New York,10019,Manhattan,40.771149,-73.993415,104,6,13502,1087609,1011040001,MN0402
NYC FLEET / DSNY_MN07-3,DSNY,1,Level 2 Charger,650 W 57Th St,New York,10019,Manhattan,40.771149,-73.993415,104,6,13502,1087609,1011040001,MN0402
NYC FLEET / DSNY_MN07-4,DSNY,1,Level 2 Charger,650 W 57Th St,New York,10019,Manhattan,40.771149,-73.993415,104,6,13502,1087609,1011040001,MN0402
NYC FLEET / DSNY_MN07-5,DSNY,1,Level 2 Charger,650 W 57Th St,New York,10019,Manhattan,40.771149,-73.993415,104,6,13502,1087609,1011040001,MN0402
NYC FLEET / DSNY_MN08-1,DSNY,2,Level 2 Charger,4036 9th Ave,New York,10034,Manhattan,40.869218,-73.913033,112,10,299,1082037,1022120001,MN1203
NYC FLEET / DSNY_MN09-1,DSNY,2,Level 2 Charger,125 E 149th St,West Bronx,10451,Bronx,40.818987,-73.928909,204,8,6301,2001102,2023520028,BX0401
NYC FLEET / DSNY_MN10-1,DSNY,2,Level 2 Charger,110 E 131St St,New York,10037,Manhattan,40.808657,-73.935809,111,9,242,1054511,1017790001,MN1102
NYC FLEET / DSNY_MN10-2,DSNY,2,Level 2 Charger,1921 Park Ave,New York,10037,Manhattan,40.808361,-73.936604,111,9,242,1054511,1017790001,MN1102
NYC FLEET / DSNY_MN10-3,DSNY,2,Level 2 Charger,110 E 131St St,New York,10037,Manhattan,40.808657,-73.935809,111,9,242,1054511,1017790001,MN1102
NYC FLEET / DSNY_MN10-4-ENF,DSNY,2,Level 2 Charger,110 E 130th St,New York,10037,Manhattan,40.808023,-73.936268,111,9,242,1000000,1017780006,MN1102
NYC FLEET / DSNY_MN10-5-ENF,DSNY,2,Level 2 Charger,110 E 131st St,New York,10037,Manhattan,40.808657,-73.935809,111,9,242,1054511,1017790001,MN1102
NYC FLEET / DSNY_MN11-1,DSNY,2,Level 2 Charger,217 E 127th St,New York,10035,Manhattan,40.804756,-73.934281,111,8,242,1087849,1017920005,MN1102
NYC FLEET / DSNY_MN11-2,DSNY,2,Level 2 Charger,217 E 127th St,New York,10035,Manhattan,40.804756,-73.934281,111,8,242,1087849,1017920005,MN1102
NYC FLEET / DSNY_MN11-3,DSNY,2,Level 2 Charger,217 E 127th St,New York,10035,Manhattan,40.804756,-73.934281,111,8,242,1087849,1017920005,MN1102
NYC FLEET / DSNY_MN12_DCFC1,DSNY,1,Level 3 Fast Charger,301 W 215 St,New York,10034,Manhattan,40.868199,-73.911997,112,10,299,1064485,1021960001,MN1203
NYC FLEET / DSNY_MN12_DCFC2,DSNY,1,Level 3 Fast Charger,301 W 215 St,New York,10034,Manhattan,40.868199,-73.911997,112,10,299,1064485,1021960001,MN1203
NYC FLEET / DSNY_MN12-1,DSNY,2,Level 2 Charger,301 West 215 Street,New York,10034,Manhattan,40.868199,-73.911997,112,10,299,1064485,1021960001,MN1203
NYC FLEET / DSNY_MN2_DCFC1,DSNY,1,Level 3 Fast Charger,353 Spring St,New York,10013,Manhattan,40.726159,-74.010712,102,3,37,1089625,1005967501,MN0201
NYC FLEET / DSNY_MN2_DCFC2,DSNY,1,Level 3 Fast Charger,353 Spring St,New York,10013,Manhattan,40.726159,-74.010712,102,3,37,1089625,1005967501,MN0201
NYC FLEET / DSNY_Q02-1,DSNY,1,Level 2 Charger,58-1 52 Rd,Woodside,11377,Queens,40.734957,-73.909719,402,26,243,4054170,4023470055,QN0203
NYC FLEET / DSNY_Q02-2,DSNY,2,Level 2 Charger,52-35 58Th Street,Flushing,11377,Queens,40.734883,-73.909957,402,26,243,4462505,4023610268,QN0203
NYC FLEET / DSNY_Q03-1,DSNY,2,Level 2 Charger,52-35 58Th St,Woodside,11377,Queens,40.734883,-73.909957,402,26,243,4462505,4023610268,QN0203
NYC FLEET / DSNY_Q04-1,DSNY,2,Level 2 Charger,52-35 58Th St,Woodside,11377,Queens,40.734883,-73.909957,402,26,243,4462505,4023610268,QN0203
NYC FLEET / DSNY_Q04-2,DSNY,1,Level 2 Charger,52-35 58Th Street,Woodside,11377,Queens,40.734883,-73.909957,402,26,243,4462505,4023610268,QN0203
NYC FLEET / DSNY_Q05_DCFC1,DSNY,1,Level 3 Fast Charger,48-01 58 Rd,Maspeth,11378,Queens,40.720249,-73.922845,405,26,219,4307983,4026000001,QN0501
NYC FLEET / DSNY_Q05_DCFC2,DSNY,1,Level 3 Fast Charger,48-01 58 Rd,Maspeth,11378,Queens,40.720249,-73.922845,405,26,219,4307983,4026000001,QN0501
NYC FLEET / DSNY_Q05-1,DSNY,2,Level 2 Charger,47-01 48Th Street,Maspeth,11377,Queens,,,,,,,,
NYC FLEET / DSNY_Q05-2,DSNY,2,Level 2 Charger,47-01 48Th St,Maspeth,11377,Queens,,,,,,,,
NYC FLEET / DSNY_Q06-1,DSNY,2,Level 2 Charger,2720 53Rd Ave,Woodside,11377,Queens,,,,,,,,
NYC FLEET / DSNY_Q07-1,DSNY,2,Level 2 Charger,120-15 31St Ave,Flushing,11354,Queens,40.769692,-73.847197,407,19,907,4610396,4043460075,QN0701
NYC FLEET / DSNY_Q07-2,DSNY,2,Level 2 Charger,120-15 31St Ave,Flushing,11354,Queens,40.769692,-73.847197,407,19,907,4610396,4043460075,QN0701
NYC FLEET / DSNY_Q07-3,DSNY,2,Level 2 Charger,30-19 122Nd St,Flushing,11354,Queens,40.770849,-73.846552,407,19,907,4570021,4043500001,QN0701
NYC FLEET / DSNY_Q07A-1,DSNY,2,Level 2 Charger,30-19 122Nd St,Flushing,11354,Queens,40.770849,-73.846552,407,19,907,4570021,4043500001,QN0701
NYC FLEET / DSNY_Q07A-2,DSNY,2,Level 2 Charger,30-19 122Nd St,Flushing,11354,Queens,40.770849,-73.846552,407,19,907,4570021,4043500001,QN0701
NYC FLEET / DSNY_Q09-1,DSNY,2,Level 2 Charger,13287 Atlantic Ave,Queens,11418,Queens,40.69657,-73.816405,409,29,14202,,,QN0902
NYC FLEET / DSNY_Q09-2,DSNY,2,Level 2 Charger,133-20 Atlantic Ave,Queens,11418,Queens,40.696682,-73.81595,409,29,152,,,QN0903
NYC FLEET / DSNY_Q09-DCFC1,DSNY,1,Level 3 Fast Charger,13287 Atlantic Ave,Queens,11418,Queens,40.69657,-73.816405,409,29,14202,,,QN0902
NYC FLEET / DSNY_Q10-1,DSNY,2,Level 2 Charger,130-23 150Th Ave,Jamaica,11430,Queens,40.664778,-73.810159,410,28,84602,4257531,4118840001,QN1001
NYC FLEET / DSNY_Q13J-1,DSNY,2,Level 2 Charger,153-67 146Th Ave,Jamaica,11434,Queens,40.664629,-73.784675,413,31,306,4433112,4150010073,QN1306
NYC FLEET / DSNY_Q13J-2,DSNY,2,Level 2 Charger,153-67 146 Ave,Jamaica,11434,Queens,40.664629,-73.784675,413,31,306,4433112,4150010073,QN1306
NYC FLEET / DSNY_Q14_DCFC1,DSNY,1,Level 3 Fast Charger,51-10 Almeda Ave,Far Rockaway,11691,Queens,40.597844,-73.782485,414,31,97207,4616024,4159800100,QN1491
NYC FLEET / DSNY_Q14-1,DSNY,1,Level 2 Charger,51-10 Almeda Ave,Queens,11691,Queens,40.597844,-73.782485,414,31,97207,4616024,4159800100,QN1491
NYC FLEET / DSNY_Q14-2,DSNY,2,Level 2 Charger,51-10 Almeda Ave,Far Rockaway,11691,Queens,40.597844,-73.782485,414,31,97207,4616024,4159800100,QN1491
NYC FLEET / DSNY_Q14-3,DSNY,2,Level 2 Charger,51-10 Almeda Ave,Far Rockaway,11691,Queens,40.597844,-73.782485,414,31,97207,4616024,4159800100,QN1491
NYC FLEET / DSNY_QBS-DCFC1,DSNY,1,Level 3 Fast Charger,52-07 58th St,Woodside,11377,Queens,40.735462,-73.909675,402,26,243,4054170,4023470055,QN0203
NYC FLEET / DSNY_QBS-DCFC2,DSNY,1,Level 3 Fast Charger,52-07 58th St,Woodside,11377,Queens,40.735462,-73.909675,402,26,243,4054170,4023470055,QN0203
NYC FLEET / DSNY_QBS-DCFC3,DSNY,1,Level 3 Fast Charger,52-07 58th St,Woodside,11377,Queens,40.735462,-73.909675,402,26,243,4054170,4023470055,QN0203
NYC FLEET / DSNY_QBS-DCFC4,DSNY,1,Level 3 Fast Charger,52-07 58th St,Woodside,11377,Queens,40.735462,-73.909675,402,26,243,4054170,4023470055,QN0203
NYC FLEET / DSNY_QBS-DCFC5,DSNY,1,Level 3 Fast Charger,52-07 58th St,Woodside,11377,Queens,40.735462,-73.909675,402,26,243,4054170,4023470055,QN0203
NYC FLEET / DSNY_QBS-DCFC6,DSNY,1,Level 3 Fast Charger,52-07 58th St,Woodside,11377,Queens,40.735462,-73.909675,402,26,243,4054170,4023470055,QN0203
NYC FLEET / DSNY_QBSROOF-1,DSNY,2,Level 2 Charger,52-07 58Th St,Woodside,11377,Queens,40.735462,-73.909675,402,26,243,4054170,4023470055,QN0203
NYC FLEET / DSNY_QBSROOF-2,DSNY,2,Level 2 Charger,52 58Th St,Woodside,11377,Queens,,,,,,,,
NYC FLEET / DSNY_QBSROOF-4,DSNY,1,Level 2 Charger,52-07 58Th St,Woodside,11377,Queens,40.735462,-73.909675,402,26,243,4054170,4023470055,QN0203
NYC FLEET / DSNY_QBSSHOP-1,DSNY,1,Level 2 Charger,52-07 58Th St,Woodside,11377,Queens,40.735462,-73.909675,402,26,243,4054170,4023470055,QN0203
NYC FLEET / DSNY_QBSSHOP-2,DSNY,1,Level 2 Charger,52-07 58Th St,Woodside,11377,Queens,40.735462,-73.909675,402,26,243,4054170,4023470055,QN0203
NYC FLEET / DSNY_QENFDCFC-1,DSNY,1,Level 3 Fast Charger,2720 53rd Ave,Queens,11377,Queens,,,,,,,,
NYC FLEET / DSNY_QENFDCFC-2,DSNY,1,Level 3 Fast Charger,2720 53rd Ave,Queens,11377,Queens,,,,,,,,
NYC FLEET / DSNY_QENFDCFC-3,DSNY,1,Level 3 Fast Charger,2720 53rd Ave,Queens,11377,Queens,,,,,,,,
NYC FLEET / DSNY_QW01-DCFC1,DSNY,1,Level 3 Fast Charger,34-28 21st St,Queens,11106,Queens,40.762336,-73.934464,401,26,43,4005787,4005230012,QN0105
NYC FLEET / DSNY_QW01-DCFC2,DSNY,1,Level 3 Fast Charger,34-28 21st St,Queens,11106,Queens,40.762336,-73.934464,401,26,43,4005787,4005230012,QN0105
NYC FLEET / DSNY_RBS-1,DSNY,1,Level 2 Charger,2 Muldoon Ave,Staten Island,10314,Staten Island,40.575017,-74.196645,503,51,22801,5158124,5059000500,SI0391
NYC FLEET / DSNY_SI01-DCFC1,DSNY,1,Level 3 Fast Charger,539 Jersey St,Staten Island,10301,Staten Island,40.636097,-74.084519,501,49,11,5106487,5000340001,SI0101
NYC FLEET / DSNY_SI01-DCFC2,DSNY,1,Level 3 Fast Charger,539 Jersey St,Staten Island,10301,Staten Island,40.636097,-74.084519,501,49,11,5106487,5000340001,SI0101
NYC FLEET / DSNY_SI02-S1,DSNY,1,EV Solar Arc Charger,2538 Richmond Ave,Staten Island,10314,Staten Island,40.586223,-74.168484,502,51,22802,,,SI0291
NYC FLEET / DSNY_SI1A-S1,DSNY,1,EV Solar Arc Charger,3 Muldoon Ave,Staten Island,10314,Staten Island,40.575234,-74.196696,503,51,22801,5158125,5059000500,SI0391
NYC FLEET / DSNY_SI1A-S2,DSNY,1,EV Solar Arc Charger,3 Muldoon Ave,Staten Island,10314,Staten Island,40.575234,-74.196696,503,51,22801,5158125,5059000500,SI0391
NYC FLEET / DSNY_SI2_DCFC1,DSNY,1,Level 3 Fast Charger,2538 Richmond Ave,New Springville,10314,Staten Island,40.586223,-74.168484,502,51,22802,,,SI0291
NYC FLEET / DSNY_SI2_DCFC2,DSNY,1,Level 3 Fast Charger,2538 Richmond Ave,New Springville,10314,Staten Island,40.586223,-74.168484,502,51,22802,,,SI0291
NYC FLEET / DSNY_SI2-1,DSNY,2,Level 2 Charger,2500 Richmond Ave,Heartland Village,10314,Staten Island,40.586997,-74.168316,502,51,22802,5041599,5025200001,SI0291
NYC FLEET / DSNY_SI2-2,DSNY,2,Level 2 Charger,2500 Richmond Ave,Heartland Village,10314,Staten Island,40.586997,-74.168316,502,51,22802,5041599,5025200001,SI0291
NYC FLEET / DSNY_SI3-1,DSNY,2,Level 2 Charger,1323 Muldoon Ave,Staten Island,10314,Staten Island,40.571144,-74.195327,503,51,22801,5130986,5059000500,SI0391
NYC FLEET / DSNY_SI3A-S1,DSNY,1,EV Solar Arc Charger,3 Muldoon Ave,Staten Island,10314,Staten Island,40.575234,-74.196696,503,51,22801,5158125,5059000500,SI0391
NYC FLEET / DSNY_SI3A-S2,DSNY,1,EV Solar Arc Charger,3 Muldoon Ave,Staten Island,10314,Staten Island,40.575234,-74.196696,503,51,22801,5158125,5059000500,SI0391
NYC FLEET / DSNY_SITS,DSNY,2,Level 2 Charger,450 West Service Road,Staten Island,10314,Staten Island,40.583744,-74.193041,502,50,22802,5141714,5026850100,SI0291
NYC FLEET / DSNY_SITS-S1,DSNY,1,EV Solar Arc Charger,600 West Service Road,Travis - Chelsea,10314,Staten Island,40.583069,-74.192892,502,50,22802,5141714,5026850100,SI0291
NYC FLEET / DSNY_SPARE,DSNY,1,Level 2 Charger,640 west 26th street,New York,10001,Manhattan,40.751183,-74.006594,104,3,9901,1012267,1006700050,MN0401
NYC FLEET / DSNY_SPARE-1,DSNY,2,Level 2 Charger,803 Forbell St,East New York,11208,Brooklyn,40.664595,-73.860612,305,42,1220,3099064,3045550001,BK0505
NYC FLEET / DSNY_SPARE-3,DSNY,1,Level 2 Charger,52-35 58th street,Woodside,11377,Queens,40.734883,-73.909957,402,26,243,4462505,4023610268,QN0203
NYC FLEET / DSNY_SPARESINGL,DSNY,1,Level 2 Charger,640 west 26th street,New York,10001,Manhattan,40.751183,-74.006594,104,3,9901,1012267,1006700050,MN0401
NYC FLEET / DSNY_SPRSTLOT-1,DSNY,2,Level 2 Charger,353 Spring Street,New York,10014,Manhattan,40.726159,-74.010712,102,3,37,1089625,1005967501,MN0201
NYC FLEET / DSNY_SPRSTLOT-2,DSNY,2,Level 2 Charger,353 Spring Street,New York,10014,Manhattan,40.726159,-74.010712,102,3,37,1089625,1005967501,MN0201
NYC FLEET / DSNY_SWM-S1,DSNY,1,EV Solar Arc Charger,3 Muldoon Ave,Staten Island,10314,Staten Island,40.575234,-74.196696,503,51,22801,5158125,5059000500,SI0391
NYC FLEET / DSNY_SWM-S2,DSNY,1,EV Solar Arc Charger,3 Muldoon Ave,Staten Island,10314,Staten Island,40.575234,-74.196696,503,51,22801,5158125,5059000500,SI0391
NYC FLEET / FDNY 35ST LIC1,FDNY,1,Level 2 Charger,48-34 35Th St,Long Island City,11101,Queens,40.740165,-73.930693,402,26,19901,4003451,4002540001,QN0202
NYC FLEET / FDNY 35ST LIC2,FDNY,1,Level 2 Charger,48-34 35Th St,Long Island City,11101,Queens,40.740165,-73.930693,402,26,19901,4003451,4002540001,QN0202
NYC FLEET / FDNY 35ST LIC3,FDNY,1,Level 2 Charger,48-34 35Th St,Long Island City,11101,Queens,40.740165,-73.930693,402,26,19901,4003451,4002540001,QN0202
NYC FLEET / FDNY 35ST LIC4,FDNY,1,Level 2 Charger,48-58 35Th St,Long Island City,11101,Queens,40.740126,-73.9307,402,26,19901,4003451,4002540001,QN0202
NYC FLEET / FDNY_35EMPIRE#1,FDNY,1,Level 2 Charger,35 Empire Blvd,Brooklyn,11205,Brooklyn,40.663276,-73.961227,355,35,177,3029669,3011830051,BK5591
NYC FLEET / FDNY_405LOT#1,FDNY,1,Level 2 Charger,418 A Weaver Ave,Queens,11359,Queens,40.793414,-73.775096,407,19,999,4459162,4059170001,QN0761
NYC FLEET / FDNY_E176#1,FDNY,1,Level 2 Charger,453 E 176th St,Bronx,10457,Bronx,40.846206,-73.899394,206,15,395,2009541,2029090040,BX0602
NYC FLEET / FDNY_FAB14-1,FDNY,1,Level 2 Charger,Randalls Island Fire Academy,New York,10035,Manhattan,40.795535,-73.922671,111,8,240,1000000,1018190203,MN1191
NYC FLEET / FDNY_FAB9-1,FDNY,1,Level 2 Charger,Randalls Island Fire Academy,New York,10035,Manhattan,40.795535,-73.922671,111,8,240,1000000,1018190203,MN1191
NYC FLEET / FDNY_FORTTOTT#1,FDNY,1,Level 2 Charger,325 Pratt Ave,Queens,11359,Queens,40.791437,-73.774482,407,19,999,4539814,4059170001,QN0761
NYC FLEET / FDNY_FTB400B-1,FDNY,1,Level 2 Charger,400 Murray Ave,Queens,11359,Queens,40.79273,-73.777616,407,19,999,4453917,4059170001,QN0761
NYC FLEET / FDNY_REVIEW-1,FDNY,1,Level 2 Charger,30-30 Review Ave,Queens,11101,Queens,40.736818,-73.939753,402,26,19902,4003565,4002940173,QN0202
NYC FLEET / FDNY_REVIEW-2,FDNY,1,Level 2 Charger,30-30 Review Ave,Queens,11101,Queens,40.736818,-73.939753,402,26,19902,4003565,4002940173,QN0202
NYC FLEET / FDNY121ST,FDNY,1,Level 2 Charger,91-45 121St St,Queens,11418,Queens,40.695411,-73.82626,409,29,14202,4196913,4093750007,QN0902
NYC FLEET / FDNY9METROTECH1,FDNY,1,Level 2 Charger,9 Metrotech Center,Brooklyn,11201,Brooklyn,40.69486,-73.984674,302,33,1502,3058187,3020470011,BK0202
NYC FLEET / FDNY9METROTECH2,FDNY,1,Level 2 Charger,9 Metrotech Center,Brooklyn,11201,Brooklyn,40.69486,-73.984674,302,33,1502,3058187,3020470011,BK0202
NYC FLEET / FDNY9METROTECH3,FDNY,1,Level 2 Charger,9 Metrotech Center,Brooklyn,11201,Brooklyn,40.69486,-73.984674,302,33,1502,3058187,3020470011,BK0202
NYC FLEET / FDNY9METROTECH4,FDNY,1,Level 2 Charger,9 Metrotech Center,Brooklyn,11201,Brooklyn,40.69486,-73.984674,302,33,1502,3058187,3020470011,BK0202
NYC FLEET / FDNY9METROTECH5,FDNY,1,Level 2 Charger,9 Metrotech Center,Brooklyn,11201,Brooklyn,40.69486,-73.984674,302,33,1502,3058187,3020470011,BK0202
NYC FLEET / FDNY9METROTECH6,FDNY,1,Level 2 Charger,9 Metrotech Center,Brooklyn,11201,Brooklyn,40.69486,-73.984674,302,33,1502,3058187,3020470011,BK0202
NYC FLEET / FDNY9METROTECH7,FDNY,1,Level 2 Charger,9 Metrotech Center,Brooklyn,11201,Brooklyn,40.69486,-73.984674,302,33,1502,3058187,3020470011,BK0202
NYC FLEET / FDNY9METROTECH8,FDNY,2,Level 2 Charger,9 MetroTech Center,Brooklyn,11201,Brooklyn,40.69486,-73.984674,302,33,1502,3058187,3020470011,BK0202
NYC FLEET / FDNYBRIELLESSI,FDNY,2,Level 2 Charger,475 Brielle Ave,Staten Island,10314,Staten Island,40.593273,-74.135732,502,50,27302,5134761,5019550001,SI0203
NYC FLEET / FDNYCIHOSP,FDNY,1,Level 2 Charger,2600-2698 E 6Th St,Brooklyn,11235,Brooklyn,40.586579,-73.96381,313,48,370,,,BK1301
NYC FLEET / HPD_BK_ENF_1_L3,HPD,1,Level 3 Fast Charger,701 Euclid Ave,East New York,11208,Brooklyn,40.669676,-73.870515,305,42,120801,3098536,3044610001,BK0505
NYC FLEET / HPD_BK_ENF_2_L3,HPD,1,Level 3 Fast Charger,701 Euclid Ave,East New York,11208,Brooklyn,40.669676,-73.870515,305,42,120801,3098536,3044610001,BK0505
NYC FLEET / HRA_11THAVE-1,HRA,2,Level 2 Charger,260 11th Ave,New York,10001,Manhattan,40.75131,-74.005233,104,3,9902,1012389,1006980001,MN0401
NYC FLEET / HRA_11THAVE-2,HRA,2,Level 2 Charger,260 11th Ave,New York,10001,Manhattan,40.75131,-74.005233,104,3,9902,1012389,1006980001,MN0401
NYC FLEET / HRA_11THAVE-3,HRA,2,Level 2 Charger,260 11th Ave,New York,10001,Manhattan,40.75131,-74.005233,104,3,9902,1012389,1006980001,MN0401
NYC FLEET / HRA_11THAVE-4,HRA,2,Level 2 Charger,260 11th Ave,New York,10001,Manhattan,40.75131,-74.005233,104,3,9902,1012389,1006980001,MN0401
NYC FLEET / HRA_11THAVE-5,HRA,2,Level 2 Charger,260 11th Ave,New York,10001,Manhattan,40.75131,-74.005233,104,3,9902,1012389,1006980001,MN0401
NYC FLEET / HRA_11THAVE-6,HRA,2,Level 2 Charger,260 11th Ave,New York,10001,Manhattan,40.75131,-74.005233,104,3,9902,1012389,1006980001,MN0401
NYC FLEET / HRA_11THAVE-7,HRA,2,Level 2 Charger,260 11th Ave,New York,10001,Manhattan,40.75131,-74.005233,104,3,9902,1012389,1006980001,MN0401
NYC FLEET / HRA_11THAVE-8,HRA,2,Level 2 Charger,260 11th Ave,New York,10001,Manhattan,40.75131,-74.005233,104,3,9902,1012389,1006980001,MN0401
NYC FLEET / NYCHA 23ASH1A B,NYCHA,2,Level 2 Charger,23 Ash St,Greenpoint,11222,Brooklyn,40.738096,-73.954533,301,33,57901,3063679,3024770060,BK0101
NYC FLEET / NYCHA 23ASH2A B,NYCHA,2,Level 2 Charger,23 Ash St,Greenpoint,11222,Brooklyn,40.738096,-73.954533,301,33,57901,3063679,3024770060,BK0101
NYC FLEET / NYCHA 23ASH3A B,NYCHA,2,Level 2 Charger,23 Ash St,Greenpoint,11222,Brooklyn,40.738096,-73.954533,301,33,57901,3063679,3024770060,BK0101
NYC FLEET / NYCHA_CYPRHL-S1,NYCHA,1,EV Solar Arc Charger,1260 Sutter Ave,Brooklyn,11208,Brooklyn,40.672807,-73.871627,305,42,1210,3337020,3042920061,BK0505
NYC FLEET / NYCHA_LEX-S1,NYCHA,1,EV Solar Arc Charger,67 35th St,Brooklyn,11232,Brooklyn,40.656695,-74.006815,307,38,1802,3336900,3006870001,BK0702
NYC FLEET / NYCHA_LIC1A-B,NYCHA,2,Level 2 Charger,37 49Th Ave,Long Island City,11101,Queens,,,,,,,,
NYC FLEET / NYCHA_LIC2A-B,NYCHA,2,Level 2 Charger,36 49Th Ave,Long Island City,11101,Queens,,,,,,,,
NYC FLEET / NYCHA_MBMO_1,NYCHA,1,Level 2 Charger,1980 Lexington Ave,New York,10035,Manhattan,40.801789,-73.939319,111,9,196,1054377,1017690005,MN1102
NYC FLEET / NYCHA_QSIPRMG_1,NYCHA,1,Level 2 Charger,90-20 170Th St,Jamaica,11432,Queens,40.708578,-73.790579,412,27,460,4209721,4098020041,QN1201
NYC FLEET / NYCHA_RAVENS-S1,NYCHA,1,EV Solar Arc Charger,35-35 21st St,Queens,11106,Queens,40.760888,-73.935819,401,26,47,4430706,4003350002,QN0105
NYC FLEET / NYCHA_SOTOMY-S1,NYCHA,1,EV Solar Arc Charger,1741 Bruckner Blvd,The Bronx,10472,Bronx,40.825243,-73.867481,209,18,44,,,BX0901
NYC FLEET / NYCHAALSMITH_S1,NYCHA,1,EV Solar Arc Charger,3 St. James Pl,New York,10038,Manhattan,40.71108,-74.000397,103,1,25,1077416,1001110100,MN0301
NYC FLEET / NYCHAALSMITH02,NYCHA,2,Level 2 Charger,3 St. James Pl,New York,10038,Manhattan,40.71108,-74.000397,103,1,25,1077416,1001110100,MN0301
NYC FLEET / NYPD_102PCT-1,NYPD,1,Level 2 Charger,87-34 118th St,Queens,11418,Queens,40.699311,-73.83157,409,29,122,4195880,4093270021,QN0902
NYC FLEET / NYPD_102PCT-2,NYPD,1,Level 2 Charger,87-34 118th St,Queens,11418,Queens,40.699311,-73.83157,409,29,122,4195880,4093270021,QN0902
NYC FLEET / NYPD_106PCT-1,NYPD,1,Level 2 Charger,103-53 101st St,Queens,11417,Queens,40.682344,-73.840046,410,29,112,4201325,4095050061,QN0904
NYC FLEET / NYPD_107PCT-1,NYPD,1,Level 2 Charger,71-01 Parsons Blvd,Queens,11365,Queens,40.7301,-73.810908,408,24,122704,4445325,4067970040,QN0802
NYC FLEET / NYPD_112PCT-1,NYPD,1,Level 2 Charger,68-40 Austin St,Forest Hills,11375,Queens,40.72244,-73.851014,406,29,711,4077446,4032340022,QN0602
NYC FLEET / NYPD_113PCT-1,NYPD,1,Level 2 Charger,167-02 Baisley Blvd,Jamaica,11434,Queens,40.679976,-73.776214,412,28,33403,4270044,4124950045,QN1204
NYC FLEET / NYPD_114P_1_L3,NYPD,1,Level 3 Fast Charger,3416 Astoria Blvd,Long Island City,11103,Queens,40.769581,-73.915593,401,22,6501,4009361,4006320030,QN0103
NYC FLEET / NYPD_115P_1_L3,NYPD,1,Level 3 Fast Charger,92-01 Northern Blvd,Flushing,11372,Queens,40.75656,-73.87593,403,21,351,4034862,4014220034,QN0301
NYC FLEET / NYPD_17PCT-1,NYPD,1,Level 2 Charger,167 E 51st St,New York,10022,Manhattan,40.756812,-73.971142,106,4,100,1036462,1013060033,MN0604
NYC FLEET / NYPD_17PCT-2,NYPD,1,Level 2 Charger,844 3rd Ave,New York,10022,Manhattan,40.756738,-73.970117,106,4,100,1036462,1013060033,MN0604
NYC FLEET / NYPD_19PCT_1_L3,NYPD,1,Level 3 Fast Charger,157 E 67th St,New York,10065,Manhattan,40.76696,-73.963856,108,4,120,1072190,1014020029,MN0802
NYC FLEET / NYPD_25PCT-2,NYPD,1,Level 2 Charger,120 E 119th St,New York,10035,Manhattan,40.800892,-73.941025,111,9,182,1054360,1017670062,MN1102
NYC FLEET / NYPD_30PCT-1,NYPD,1,Level 2 Charger,451 W 151st St,New York,10031,Manhattan,40.828615,-73.943847,109,7,23501,1081826,1020660009,MN0903
NYC FLEET / NYPD_30PCT-2,NYPD,1,Level 2 Charger,451 W 151st St,New York,10031,Manhattan,40.828615,-73.943847,109,7,23501,1081826,1020660009,MN0903
NYC FLEET / NYPD_32PCT-1,NYPD,1,Level 2 Charger,250 W 135th St,New York,10030,Manhattan,40.815908,-73.945151,110,9,228,1075467,1019400048,MN1002
NYC FLEET / NYPD_33PCT-1,NYPD,1,Level 2 Charger,2207 Amsterdam Ave,New York,10032,Manhattan,40.840712,-73.93564,112,10,249,1086200,1021120010,MN1201
NYC FLEET / NYPD_33PCT-2,NYPD,1,Level 2 Charger,2207 Amsterdam Ave,New York,10032,Manhattan,40.840712,-73.93564,112,10,249,1086200,1021120010,MN1201
NYC FLEET / NYPD_34PCT-1,NYPD,1,Level 2 Charger,4295 Broadway,New York,10033,Manhattan,40.85126,-73.935186,112,10,271,1064415,1021800108,MN1202
NYC FLEET / NYPD_34PCT-2,NYPD,1,Level 2 Charger,4295 Broadway,New York,10033,Manhattan,40.85126,-73.935186,112,10,271,1064415,1021800108,MN1202
NYC FLEET / NYPD_40PCT,NYPD,1,Level 2 Charger,257 Alexander Ave,The Bronx,10454,Bronx,40.810347,-73.924941,201,8,39,2000700,2023140030,BX0101
NYC FLEET / NYPD_41PCT-1,NYPD,1,Level 2 Charger,1035 Longwood Ave,The Bronx,10459,Bronx,40.816198,-73.896,202,17,89,2090437,2027320001,BX0201
NYC FLEET / NYPD_41PCT-2,NYPD,1,Level 2 Charger,1035 Longwood Ave,The Bronx,10459,Bronx,40.816198,-73.896,202,17,89,2090437,2027320001,BX0201
NYC FLEET / NYPD_62PCT-1,NYPD,1,Level 2 Charger,1925 Bath Ave,Brooklyn,11214,Brooklyn,40.602329,-74.00318,311,38,282,3167815,3064060045,BK1102
NYC FLEET / NYPD_66PCT-1,NYPD,1,Level 2 Charger,5822 16th Ave,Brooklyn,11204,Brooklyn,40.625843,-73.990929,312,44,242,3131362,3055020043,BK1202
NYC FLEET / NYPD_67PCT-1,NYPD,1,Level 2 Charger,2900 Snyder Ave,Brooklyn,11226,Brooklyn,40.648867,-73.950471,317,40,824,3117400,3051110024,BK1701
NYC FLEET / NYPD_68PCT-1,NYPD,1,Level 2 Charger,333 65th St,Brooklyn,11220,Brooklyn,40.638827,-74.022721,310,47,70,3144156,3058170055,BK1001
NYC FLEET / NYPD_68PCT-2,NYPD,1,Level 2 Charger,333 65th St,Brooklyn,11220,Brooklyn,40.638827,-74.022721,310,47,70,3144156,3058170055,BK1001
NYC FLEET / NYPD_69PCT-1,NYPD,1,Level 2 Charger,9720 Foster Ave,Brooklyn,11236,Brooklyn,40.648606,-73.905256,318,42,1098,3229075,3081470026,BK0503
NYC FLEET / NYPD_69PCT-2,NYPD,1,Level 2 Charger,9720 Foster Ave,Brooklyn,11236,Brooklyn,40.648606,-73.905256,318,42,1098,3229075,3081470026,BK0503
NYC FLEET / NYPD_71PCT-1,NYPD,1,Level 2 Charger,421 Empire Blvd,Brooklyn,11225,Brooklyn,40.664113,-73.947763,309,35,331,3034563,3013100001,BK0901
NYC FLEET / NYPD_71PCT-2,NYPD,1,Level 2 Charger,421 Empire Blvd,Brooklyn,11225,Brooklyn,40.664113,-73.947763,309,35,331,3034563,3013100001,BK0901
NYC FLEET / NYPD_72PCT_1_L3,NYPD,1,Level 3 Fast Charger,830 4 Ave,Sunset Park,11232,Brooklyn,40.65815,-74.00044,307,38,101,3009843,3006680029,BK0702
NYC FLEET / NYPD_72PCT_2_L3,NYPD,1,Level 3 Fast Charger,830 4 Ave,Sunset Park,11232,Brooklyn,40.65815,-74.00044,307,38,101,3009843,3006680029,BK0702
NYC FLEET / NYPD_73PCT_1_L3,NYPD,1,Level 3 Fast Charger,1470 East New York Avenue,Brooklyn,11370,Brooklyn,40.671122,-73.913501,316,41,924,3080735,3034970002,BK1602
NYC FLEET / NYPD_73PCT_2_L3,NYPD,1,Level 3 Fast Charger,1470 East New York Avenue,Brooklyn,11370,Brooklyn,40.671122,-73.913501,316,41,924,3080735,3034970002,BK1602
NYC FLEET / NYPD_73PCT_3_L3,NYPD,1,Level 3 Fast Charger,1470 East New York Avenue,Brooklyn,11212,Brooklyn,40.671122,-73.913501,316,41,924,3080735,3034970002,BK1602
NYC FLEET / NYPD_73PCT_4_L3,NYPD,1,Level 3 Fast Charger,1470 East New York Avenue,Brooklyn,11212,Brooklyn,40.671122,-73.913501,316,41,924,3080735,3034970002,BK1602
NYC FLEET / NYPD_75PCT-1,NYPD,1,Level 2 Charger,1000 Sutter Ave,Brooklyn,11208,Brooklyn,40.671352,-73.88181,305,42,1164,3089813,3040510016,BK0502
NYC FLEET / NYPD_7PCT_1_L3,NYPD,1,Level 3 Fast Charger,25 Pitt St,New York,10002,Manhattan,40.716401,-73.983493,103,1,12,1004078,1003420060,MN0302
NYC FLEET / NYPD_81PCT-1,NYPD,1,Level 2 Charger,30 Ralph Ave,Brooklyn,11221,Brooklyn,40.689456,-73.924024,303,41,387,3044596,3016330039,BK0302
NYC FLEET / NYPD_81PCT-2,NYPD,1,Level 2 Charger,30 Ralph Ave,Brooklyn,11221,Brooklyn,40.689456,-73.924024,303,41,387,3044596,3016330039,BK0302
NYC FLEET / NYPD_83PCT-1,NYPD,1,Level 2 Charger,480 Knickerbocker Ave,Brooklyn,11237,Brooklyn,40.698466,-73.917768,304,37,433,3326387,3033070022,BK0402
NYC FLEET / NYPD_90PCT-1,NYPD,1,Level 2 Charger,487 Broadway,Brooklyn,11211,Brooklyn,40.7063,-73.951781,301,34,527,3063633,3024650100,BK0102
NYC FLEET / NYPD_94PCT-1,NYPD,1,Level 2 Charger,9096 Meserole Ave,Brooklyn,11222,Brooklyn,,,,,,,,
NYC FLEET / NYPD_ABBOTST-1,NYPD,1,Level 2 Charger,500 Abbot Street,The Bronx,10470,Bronx,40.908297,-73.853698,212,11,414,2071627,2051010012,BX1203
NYC FLEET / NYPD_ABBOTST-2,NYPD,1,Level 2 Charger,500 Abbot Street,The Bronx,10470,Bronx,40.908297,-73.853698,212,11,414,2071627,2051010012,BX1203
NYC FLEET / NYPD_ABBOTST-3,NYPD,1,Level 2 Charger,500 Abbot Street,The Bronx,10470,Bronx,40.908297,-73.853698,212,11,414,2071627,2051010012,BX1203
NYC FLEET / NYPD_ARCHERGN-1,NYPD,1,Level 2 Charger,92-33 168th St,Queens,11433,Queens,40.705661,-73.79211,412,27,444,4617186,4102097501,QN1201
NYC FLEET / NYPD_ARCHERGN-2,NYPD,1,Level 2 Charger,92-33 168th St,Queens,11433,Queens,40.705661,-73.79211,412,27,444,4617186,4102097501,QN1201
NYC FLEET / NYPD_BMS_1_L3,NYPD,1,Level 3 Fast Charger,59-06 Laurel Hill Blvd,Queens,11377,Queens,40.736834,-73.906426,402,26,243,4054168,4023440030,QN0203
NYC FLEET / NYPD_BMS_2_L3,NYPD,1,Level 3 Fast Charger,59-06 Laurel Hill Blvd,Queens,11377,Queens,40.736834,-73.906426,402,26,243,4054168,4023440030,QN0203
NYC FLEET / NYPD_BMS-1,NYPD,1,Level 2 Charger,59-06 Laurel Hill Blvd,Queens,11377,Queens,40.736834,-73.906426,402,26,243,4054168,4023440030,QN0203
NYC FLEET / NYPD_BMS-2,NYPD,1,Level 2 Charger,59-06 Laurel Hill Blvd,Queens,11377,Queens,40.736834,-73.906426,402,26,243,4054168,4023440030,QN0203
NYC FLEET / NYPD_BMS-3,NYPD,1,Level 2 Charger,59-06 Laurel Hill Blvd,Queens,11377,Queens,40.736834,-73.906426,402,26,243,4054168,4023440030,QN0203
NYC FLEET / NYPD_BMS-4,NYPD,1,Level 2 Charger,59-06 Laurel Hill Blvd,Queens,11377,Queens,40.736834,-73.906426,402,26,243,4054168,4023440030,QN0203
NYC FLEET / NYPD_BMS-5,NYPD,1,Level 2 Charger,59-06 Laurel Hill Blvd,Queens,11377,Queens,40.736834,-73.906426,402,26,243,4054168,4023440030,QN0203
NYC FLEET / NYPD_BMS-6,NYPD,1,Level 2 Charger,59-06 Laurel Hill Blvd,Queens,11377,Queens,40.736834,-73.906426,402,26,243,4054168,4023440030,QN0203
NYC FLEET / NYPD_BMS-7,NYPD,1,Level 2 Charger,59-06 Laurel Hill Blvd,Queens,11377,Queens,40.736834,-73.906426,402,26,243,4054168,4023440030,QN0203
NYC FLEET / NYPD_BMS-8,NYPD,1,Level 2 Charger,59-06 Laurel Hill Blvd,Queens,11377,Queens,40.736834,-73.906426,402,26,243,4054168,4023440030,QN0203
NYC FLEET / NYPD_CADET_1_L3,NYPD,1,Level 3 Fast Charger,235 E 20Th St,New York,10003,Manhattan,40.736468,-73.983311,106,2,64,1019613,1009010006,MN0602
NYC FLEET / NYPD_CADET_2_L3,NYPD,1,Level 3 Fast Charger,235 E 20Th St,New York,10003,Manhattan,40.736468,-73.983311,106,2,64,1019613,1009010006,MN0602
NYC FLEET / NYPD_COLLPTTOW1,NYPD,1,Level 2 Charger,31-40 College Point Blvd,Flushing,11354,Queens,40.76822,-73.840605,407,19,907,4596067,4043840010,QN0701
NYC FLEET / NYPD_COLLPTTOW2,NYPD,1,Level 2 Charger,31-22 College Point Blvd,Flushing,11354,Queens,40.768682,-73.841095,407,19,907,4605716,4043820001,QN0701
NYC FLEET / NYPD_COLLPTTOW3,NYPD,1,Level 2 Charger,31-22 College Point Blvd,Flushing,11354,Queens,40.768682,-73.841095,407,19,907,4605716,4043820001,QN0701
NYC FLEET / NYPD_COLLPTTOW4,NYPD,1,Level 2 Charger,31-22 College Point Blvd,Flushing,11354,Queens,40.768682,-73.841095,407,19,907,4605716,4043820001,QN0701
NYC FLEET / NYPD_CPRKP_1_L3,NYPD,1,Level 3 Fast Charger,W 86 St/Traverse Rd,New York,10024,Manhattan,,,,,,,,
NYC FLEET / NYPD_CRS_1_L3,NYPD,1,Level 3 Fast Charger,53-15 58Th St,Flushing,11377,Queens,40.733733,-73.91054,402,26,243,4054276,4023610150,QN0203
NYC FLEET / NYPD_CRS_2_L3,NYPD,1,Level 3 Fast Charger,53-15 58Th St,Flushing,11377,Queens,40.733733,-73.91054,402,26,243,4054276,4023610150,QN0203
NYC FLEET / NYPD_FBF-S1,NYPD,1,EV Solar Arc Charger,3260 Flatbush Ave,Brooklyn,11234,Brooklyn,40.588627,-73.899217,356,46,666,3397749,3085900700,BK1891
NYC FLEET / NYPD_FBF-S2,NYPD,1,EV Solar Arc Charger,3260 Flatbush Ave,Brooklyn,11234,Brooklyn,40.588627,-73.899217,356,46,666,3397749,3085900700,BK1891
NYC FLEET / NYPD_HIGHWAY2-1,NYPD,1,Level 2 Charger,2900 Flatbush Ave,Brooklyn,11234,Brooklyn,40.600248,-73.912051,318,46,666,3397327,3085900600,BK1891
NYC FLEET / NYPD_HIGHWAY2-2,NYPD,1,Level 2 Charger,2900 Flatbush Ave,Brooklyn,11234,Brooklyn,40.600248,-73.912051,318,46,666,3397327,3085900600,BK1891
NYC FLEET / NYPD_HIGHWAY2-3,NYPD,2,Level 2 Charger,2900 Flatbush Ave,Brooklyn,11234,Brooklyn,40.600248,-73.912051,318,46,666,3397327,3085900600,BK1891
NYC FLEET / NYPD_MIDNORTH-1,NYPD,1,Level 2 Charger,306 W 54th St,New York,10019,Manhattan,40.765016,-73.984835,104,3,133,1082822,1010440038,MN0402
NYC FLEET / NYPD_MIDNORTH-2,NYPD,1,Level 2 Charger,306 W 54th St,New York,10019,Manhattan,40.765016,-73.984835,104,3,133,1082822,1010440038,MN0402
NYC FLEET / NYPD_MIDSOUTH1,NYPD,1,Level 2 Charger,357 W 35th St,New York,10001,Manhattan,40.753599,-73.994712,104,3,111,1013564,1007590008,MN0401
NYC FLEET / NYPD_MIDSOUTH2,NYPD,1,Level 2 Charger,357 W 35th St,New York,10001,Manhattan,40.753599,-73.994712,104,3,111,1013564,1007590008,MN0401
NYC FLEET / NYPD_PCT109,NYPD,2,Level 2 Charger,37-05 Union St,Queens,11354,Queens,40.762286,-73.827436,407,20,865,4113348,4050110006,QN0707
NYC FLEET / NYPD_PCT45_1,NYPD,1,Level 2 Charger,2877 Barkley Ave,New York,10465,Bronx,40.830714,-73.827125,210,13,166,2097742,2055310040,BX1002
NYC FLEET / NYPD_PCT47_1,NYPD,1,Level 2 Charger,4111 Laconia Ave,New York,10466,Bronx,40.887306,-73.84727,212,12,424,2065163,2048760001,BX1203
NYC FLEET / NYPD_PCT47_2,NYPD,1,Level 2 Charger,4111 Laconia Ave,New York,10466,Bronx,40.887306,-73.84727,212,12,424,2065163,2048760001,BX1203
NYC FLEET / NYPD_PCT47_3,NYPD,1,Level 2 Charger,4111 Laconia Ave,New York,10466,Bronx,40.887306,-73.84727,212,12,424,2065163,2048760001,BX1203
NYC FLEET / NYPD_PCT47_4,NYPD,1,Level 2 Charger,4111 Laconia Ave,The Bronx,10466,Bronx,40.887306,-73.84727,212,12,424,2065163,2048760001,BX1203
NYC FLEET / NYPD_PCT47_5,NYPD,1,Level 2 Charger,4111 Laconia Ave,The Bronx,10466,Bronx,40.887306,-73.84727,212,12,424,2065163,2048760001,BX1203
NYC FLEET / NYPD_PCT47_6,NYPD,1,Level 2 Charger,4111 Laconia Ave,The Bronx,10466,Bronx,40.887306,-73.84727,212,12,424,2065163,2048760001,BX1203
NYC FLEET / NYPD_PSA1_1_L3,NYPD,1,Level 3 Fast Charger,2860 W 23Rd St,Coney Island,11224,Brooklyn,40.576884,-73.990241,313,47,326,3397616,3070150040,BK1302
NYC FLEET / NYPD_PSA3_1_L3,NYPD,1,Level 3 Fast Charger,25 Central Ave,Bushwick,11206,Brooklyn,40.70226,-73.932478,304,34,425,3392857,3031480001,BK0401
NYC FLEET / NYPD_PSA3_2_L3,NYPD,1,Level 3 Fast Charger,25 Central Ave,Bushwick,11206,Brooklyn,40.70226,-73.932478,304,34,425,3392857,3031480001,BK0401
NYC FLEET / NYPD_PSA4-1,NYPD,1,Level 2 Charger,130 Loisaida Ave,New York,10009,Manhattan,40.724887,-73.978259,103,2,2602,1075834,1003780001,MN0303
NYC FLEET / NYPD_PSA4-2,NYPD,1,Level 2 Charger,130 Loisaida Ave,New York,10009,Manhattan,40.724887,-73.978259,103,2,2602,1075834,1003780001,MN0303
NYC FLEET / NYPD_PSA4-3,NYPD,1,Level 2 Charger,136 Loisaida Ave,New York,10009,Manhattan,40.725041,-73.978148,103,2,2602,1084875,1003780004,MN0303
NYC FLEET / NYPD_PSA4-4,NYPD,1,Level 2 Charger,130 Loisaida Ave,New York,10009,Manhattan,40.724887,-73.978259,103,2,2602,1075834,1003780001,MN0303
NYC FLEET / NYPD_PSA4-5,NYPD,1,Level 2 Charger,126 Loisaida Ave,New York,10009,Manhattan,40.724783,-73.978335,103,2,2602,1075834,1003780001,MN0303
NYC FLEET / NYPD_PSA4-6,NYPD,1,Level 2 Charger,126 Loisaida Ave,New York,10009,Manhattan,40.724783,-73.978335,103,2,2602,1075834,1003780001,MN0303
NYC FLEET / NYPD_PSA5-1,NYPD,1,Level 2 Charger,221 E 123rd St,New York,10035,Manhattan,40.802127,-73.936108,111,8,194,1087233,1017880009,MN1102
NYC FLEET / NYPD_PSA5-2,NYPD,1,Level 2 Charger,221 E 123rd St,New York,10035,Manhattan,40.802127,-73.936108,111,8,194,1087233,1017880009,MN1102
NYC FLEET / NYPD_PSA7-1,NYPD,1,Level 2 Charger,737 Melrose Ave,The Bronx,10451,Bronx,40.820729,-73.915665,201,17,69,2101214,2024020017,BX0102
NYC FLEET / NYPD_PSA7-2,NYPD,1,Level 2 Charger,737 Melrose Ave,The Bronx,10451,Bronx,40.820729,-73.915665,201,17,69,2101214,2024020017,BX0102
NYC FLEET / NYPD_RDMNK_1_L3,NYPD,1,Level 3 Fast Charger,Rodmans Neck,Bronx,10464,Bronx,40.855351,-73.801579,228,13,504,2000000,2056500001,BX2891
NYC FLEET / NYPD_RDMNK_2_L3,NYPD,1,Level 3 Fast Charger,Rodmans Neck,Bronx,10464,Bronx,40.855351,-73.801579,228,13,504,2000000,2056500001,BX2891
NYC FLEET / NYPD_SPRGFLD-1,NYPD,1,Level 2 Charger,174-20 N Boundary Rd,Queens,11430,Queens,40.657122,-73.771566,413,31,716,4607238,4142600001,QN8381
NYC FLEET / NYPD_SPRGFLD-2,NYPD,1,Level 2 Charger,174-20 N Boundary Rd,Queens,11430,Queens,40.657122,-73.771566,413,31,716,4607238,4142600001,QN8381
NYC FLEET / NYPD_SPRGFLD-3,NYPD,1,Level 2 Charger,174-20 N Boundary Rd,Queens,11430,Queens,40.657122,-73.771566,413,31,716,4607238,4142600001,QN8381
NYC FLEET / NYPD_SPRGFLD-4,NYPD,1,Level 2 Charger,174-20 N Boundary Rd,Queens,11430,Queens,40.657122,-73.771566,413,31,716,4607238,4142600001,QN8381
NYC FLEET / NYPD_SPRGFLD-5,NYPD,1,Level 2 Charger,174-20 N Boundary Rd,Queens,11430,Queens,40.657122,-73.771566,413,31,716,4607238,4142600001,QN8381
NYC FLEET / NYPD_SPRGFLD-6,NYPD,1,Level 2 Charger,174-20 N Boundary Rd,Queens,11430,Queens,40.657122,-73.771566,413,31,716,4607238,4142600001,QN8381
NYC FLEET / NYPD_SRG_1_L3,NYPD,1,Level 3 Fast Charger,521 W 57th St,New York,10019,Manhattan,40.76948,-73.989397,104,6,13502,1027074,1010867501,MN0402
NYC FLEET / NYPD_SRG2,NYPD,1,Level 2 Charger,1278 Sedgwick Ave,The Bronx,10452,Bronx,40.840261,-73.928514,204,16,201,2003522,2025300021,BX0402
NYC FLEET / NYPD_TD12-1,NYPD,1,Level 2 Charger,480 Morris Park Ave,The Bronx,10460,Bronx,,,,,,,,
NYC FLEET / NYPD_TD12-2,NYPD,1,Level 2 Charger,480 Morris Park Ave,The Bronx,10460,Bronx,,,,,,,,
NYC FLEET / NYPD105PCT-2,NYPD,2,Level 2 Charger,92-08 222Nd St,Queens Village,11428,Queens,40.726329,-73.734788,413,23,560,4230132,4107370001,QN1303
NYC FLEET / NYPD111PCT-1,NYPD,2,Level 2 Charger,1964 Northern Blvd,Bayside,11361,Queens,,,,,,,,
NYC FLEET / NYPD122PCT-1,NYPD,2,Level 2 Charger,2320 Hylan Blvd,New Dorp,10306,Staten Island,40.5743,-74.105888,502,50,11203,5107580,5039060001,SI0202
NYC FLEET / NYPD122PCT-2,NYPD,1,Level 2 Charger,2320 Hylan Blvd,Staten Island,10306,Staten Island,40.5743,-74.105888,502,50,11203,5107580,5039060001,SI0202
NYC FLEET / NYPD25PCT-1,NYPD,2,Level 2 Charger,120 E 119Th St,New York,10035,Manhattan,40.800892,-73.941025,111,9,182,1054360,1017670062,MN1102
NYC FLEET / NYPD44PCT-1,NYPD,2,Level 2 Charger,1264 River Ave,Concourse,10452,Bronx,40.837181,-73.920451,204,16,197,2003017,2024890077,BX0401
NYC FLEET / NYPD49PCT-1,NYPD,2,Level 2 Charger,2121 Eastchestr Rd,East Bronx,10461,Bronx,40.856047,-73.843944,211,13,296,2097543,2042050001,BX1102
NYC FLEET / NYPD60PCT-1,NYPD,2,Level 2 Charger,2927 W 8Th St,Coney Island,11224,Brooklyn,40.576822,-73.976465,313,48,354,3196591,3072790290,BK1302
NYC FLEET / NYPD61PCT-1,NYPD,2,Level 2 Charger,1016 Gravesend Neck Rd,Sheepshead Bay,11223,Brooklyn,40.59445,-73.960233,315,48,584,3200557,3073710065,BK1501
NYC FLEET / NYPD72PCT-1,NYPD,2,Level 2 Charger,830 4Th Ave,Greenwood,11232,Brooklyn,40.65815,-74.00044,307,38,101,3009843,3006680029,BK0702
NYC FLEET / NYPD73PCT-1,NYPD,2,Level 2 Charger,401 Thomas S Boyland St,Brownsville,11212,Brooklyn,40.670653,-73.913955,316,41,924,3080735,3034970002,BK1602
NYC FLEET / NYPD7PCT-1,NYPD,2,Level 2 Charger,19 1/2 Pitt St,New York,10002,Manhattan,40.716209,-73.983605,103,1,12,1004078,1003420060,MN0302
NYC FLEET / NYPDACADEMY-S1,NYPD,1,EV Solar Arc Charger,3529 College Point Blvd,Flushing,11354,Queens,40.762473,-73.835496,407,20,869,,,QN0707
NYC FLEET / NYPDACADEMY-S2,NYPD,1,EV Solar Arc Charger,3529 College Point Blvd,Flushing,11354,Queens,40.762473,-73.835496,407,20,869,,,QN0707
NYC FLEET / NYPDACADEMY-S3,NYPD,1,EV Solar Arc Charger,130-30 28Th Ave,Flushing,11354,Queens,40.772829,-73.838857,407,19,907,4537931,4043270100,QN0701
NYC FLEET / NYPDACADEMY-S4,NYPD,1,EV Solar Arc Charger,130-30 28Th Ave,Flushing,11354,Queens,40.772829,-73.838857,407,19,907,4537931,4043270100,QN0701
NYC FLEET / NYPDBXTRAFFC-S1,NYPD,1,EV Solar Arc Charger,4223 Third Ave,Bronx,10457,Bronx,40.84707,-73.895984,206,15,395,2000000,2030430072,BX0602
NYC FLEET / NYPDBXTRAFFC-S2,NYPD,1,EV Solar Arc Charger,4223 Third Ave,Bronx,10457,Bronx,40.84707,-73.895984,206,15,395,2000000,2030430072,BX0602
NYC FLEET / NYPDERIEBASN_S1,NYPD,1,EV Solar Arc Charger,700 Columbia St,Red Hook,11231,Brooklyn,40.667954,-74.010346,306,38,5302,3000000,3006120210,BK0601
NYC FLEET / NYPDFSD-CRS1A-B,NYPD,2,Level 2 Charger,53-01 58Th St,Flushing,11377,Queens,40.734205,-73.910298,402,26,243,4054276,4023610150,QN0203
NYC FLEET / NYPDHQ_1PP_1_L3,NYPD,1,Level 3 Fast Charger,1 Police Plaza Path,New York,10038,Manhattan,40.712348,-74.000891,101,1,2901,1079143,1001190001,MN0102
NYC FLEET / NYPDHQ_1PP_2_L3,NYPD,1,Level 3 Fast Charger,29 Avenue Of The Finest,New York,10038,Manhattan,40.710369,-74.00136,101,1,2901,1001389,1001137501,MN0102
NYC FLEET / NYPDHQ_1PP_3_L3,NYPD,1,Level 3 Fast Charger,Rose St,New York,10038,Manhattan,,,,,,,,
NYC FLEET / NYPDHQ_1PP_4_L3,NYPD,1,Level 3 Fast Charger,1 Police Plaza Path,New York,10038,Manhattan,40.712348,-74.000891,101,1,2901,1079143,1001190001,MN0102
NYC FLEET / NYPDHQ_1PP_5_L3,NYPD,1,Level 3 Fast Charger,Rose St,New York,10038,Manhattan,,,,,,,,
NYC FLEET / NYPDHQ_1PP_6_L3,NYPD,1,Level 3 Fast Charger,17 Frankfort St,New York,10038,Manhattan,40.710932,-74.003481,101,1,1501,,,MN0101
NYC FLEET / NYPDHQ_1PP_7_L3,NYPD,1,Level 3 Fast Charger,1 Police Plaza,New York,10007,Manhattan,40.712348,-74.000891,101,1,2901,1079143,1001190001,MN0102
NYC FLEET / NYPDHQ_1PP_8_L3,NYPD,1,Level 3 Fast Charger,1 Police Plaza,New York,10038,Manhattan,40.712348,-74.000891,101,1,2901,1079143,1001190001,MN0102
NYC FLEET / NYPDHQ_1PP_9_L3,NYPD,1,Level 3 Fast Charger,1 Police Plaza,New York,10038,Manhattan,40.712348,-74.000891,101,1,2901,1079143,1001190001,MN0102
NYC FLEET / NYPDHQ_1PP10_L3,NYPD,1,Level 3 Fast Charger,1 Police Plaza Path,New York,10038,Manhattan,40.712348,-74.000891,101,1,2901,1079143,1001190001,MN0102
NYC FLEET / NYPDSSHOP4_1_L3,NYPD,1,Level 3 Fast Charger,49-21 Metropolitan Ave,New York,11385,Queens,40.713639,-73.917886,405,30,53502,4059022,4026110452,QN0501
NYC FLEET / NYPDSSHOP9_1_L3,NYPD,1,Level 3 Fast Charger,669 W 158 St,New York,10032,Manhattan,40.836055,-73.947657,112,7,247,1090854,1201329999,MN1201
NYC FLEET / NYPDSSHOP9_2_L3,NYPD,1,Level 3 Fast Charger,669 W 158 St,New York,10032,Manhattan,40.836055,-73.947657,112,7,247,1090854,1201329999,MN1201
NYC FLEET / NYPDSSHOP9_3_L3,NYPD,1,Level 3 Fast Charger,669 W 158 St,New York,10032,Manhattan,40.836055,-73.947657,112,7,247,1090854,1201329999,MN1201
NYC FLEET / NYPDSSHOP9_4_L3,NYPD,1,Level 3 Fast Charger,669 W 158 St,New York,10032,Manhattan,40.836055,-73.947657,112,7,247,1090854,1201329999,MN1201
NYC FLEET / OCME SISEAVIEW,OCME,2,Level 2 Charger,460 Brielle Ave,Staten Island,10314,Staten Island,40.593798,-74.135437,502,50,181,5154986,5009550170,SI0203
NYC FLEET / OCME_26ST_1_L3,OCME,1,Level 3 Fast Charger,421 E 26th St,New York,10016,Manhattan,40.738575,-73.976588,106,4,62,1087242,1009620100,MN0603
NYC FLEET / OCME_26ST_2_L3,OCME,1,Level 3 Fast Charger,421 E 26th St,New York,10001,Manhattan,40.738575,-73.976588,106,4,62,1087242,1009620100,MN0603
NYC FLEET / OCME_26ST_S1_L3,OCME,1,Level 3 Fast Charger,421 E 26th St,New York,10001,Manhattan,40.738575,-73.976588,106,4,62,1087242,1009620100,MN0603
NYC FLEET / OCME_26ST_S2_L3,OCME,1,Level 3 Fast Charger,421 E 26th St,New York,10001,Manhattan,40.738575,-73.976588,106,4,62,1087242,1009620100,MN0603
NYC FLEET / OCME_26ST_S3_L3,OCME,1,Level 3 Fast Charger,421 E 26th St,New York,10001,Manhattan,40.738575,-73.976588,106,4,62,1087242,1009620100,MN0603
NYC FLEET / OCME_26ST_S4_L3,OCME,1,Level 3 Fast Charger,421 E 26th St,New York,10001,Manhattan,40.738575,-73.976588,106,4,62,1087242,1009620100,MN0603
NYC FLEET / OCME_26ST_S5_L3,OCME,1,Level 3 Fast Charger,421 E 26th St,New York,10001,Manhattan,40.738575,-73.976588,106,4,62,1087242,1009620100,MN0603
NYC FLEET / OCME_26ST-1,OCME,2,Level 2 Charger,421 E 26Th St,New York,10016,Manhattan,40.738575,-73.976588,106,4,62,1087242,1009620100,MN0603
NYC FLEET / OCME_BKLN-1,OCME,2,Level 2 Charger,599 Winthrop St,East Flatbush,11203,Brooklyn,40.657723,-73.940499,309,40,808,3397939,3048120001,BK0902
NYC FLEET / OCME_QUEENS-1,OCME,2,Level 2 Charger,160-15 82Nd Dr,Jamaica,11432,Queens,40.717155,-73.805825,408,24,1267,4439812,4068580001,QN0802
NYC FLEET / OEMHQ_1_L3,NYCEM,1,Level 3 Fast Charger,165 Cadman Plz E,Downtown Brooklyn,11201,Brooklyn,40.698761,-73.98987,302,33,13,3000172,3000850006,BK0202
NYC FLEET / OEMHQ_2_L3,NYCEM,1,Level 3 Fast Charger,165 Cadman Plz E,Downtown Brooklyn,11201,Brooklyn,40.698761,-73.98987,302,33,13,3000172,3000850006,BK0202
NYC FLEET / OEMHQARC-S1,NYCEM,1,EV Solar Arc Charger,42 Red Cross Pl,Downtown Brooklyn,11201,Brooklyn,40.699502,-73.989556,302,33,13,,,BK0202
NYC FLEET / OEMHQARC-S2,NYCEM,1,EV Solar Arc Charger,42 Red Cross Pl,Downtown Brooklyn,11201,Brooklyn,40.699502,-73.989556,302,33,13,,,BK0202
NYC FLEET / OEMHQARC-S3,NYCEM,1,EV Solar Arc Charger,165 Cadman Plaza E,Brooklyn,11201,Brooklyn,40.698761,-73.98987,302,33,13,3000172,3000850006,BK0202
NYC FLEET / OEMHQARC-S4,NYCEM,1,EV Solar Arc Charger,165 Cadman Plaza E,Brooklyn,11201,Brooklyn,40.698761,-73.98987,302,33,13,3000172,3000850006,BK0202
NYC FLEET / OEMHQCADMAN-1,NYCEM,1,Level 2 Charger,165 Cadman Plaza E,Brooklyn,11201,Brooklyn,40.698761,-73.98987,302,33,13,3000172,3000850006,BK0202
NYC FLEET / OEMHQCADMAN-10,NYCEM,1,Level 2 Charger,165 Cadman Plaza E,Brooklyn,11201,Brooklyn,40.698761,-73.98987,302,33,13,3000172,3000850006,BK0202
NYC FLEET / OEMHQCADMAN-12,NYCEM,1,Level 2 Charger,165 Cadman Plaza E,Brooklyn,11201,Brooklyn,40.698761,-73.98987,302,33,13,3000172,3000850006,BK0202
NYC FLEET / OEMHQCADMAN-2,NYCEM,1,Level 2 Charger,165 Cadman Plaza E,Brooklyn,11201,Brooklyn,40.698761,-73.98987,302,33,13,3000172,3000850006,BK0202
NYC FLEET / OEMHQCADMAN-3,NYCEM,1,Level 2 Charger,165 Cadman Plaza E,Brooklyn,11201,Brooklyn,40.698761,-73.98987,302,33,13,3000172,3000850006,BK0202
NYC FLEET / OEMHQCADMAN-4,NYCEM,1,Level 2 Charger,165 Cadman Plaza E,Brooklyn,11201,Brooklyn,40.698761,-73.98987,302,33,13,3000172,3000850006,BK0202
NYC FLEET / OEMHQCADMAN-6,NYCEM,1,Level 2 Charger,165 Cadman Plaza E,Brooklyn,11201,Brooklyn,40.698761,-73.98987,302,33,13,3000172,3000850006,BK0202
NYC FLEET / OEMHQCADMAN-7,NYCEM,1,Level 2 Charger,165 Cadman Plaza E,Brooklyn,11201,Brooklyn,40.698761,-73.98987,302,33,13,3000172,3000850006,BK0202
NYC FLEET / OEMWAREHSE_1_L3,NYCEM,1,Level 3 Fast Charger,930 Flushing Ave,Brooklyn,11206,Brooklyn,40.702555,-73.934382,304,34,391,3071838,3031400001,BK0401
NYC FLEET / OEMWAREHSE_2_L3,NYCEM,1,Level 3 Fast Charger,930 Flushing Ave,East Williamsburg,11206,Brooklyn,40.702555,-73.934382,304,34,391,3071838,3031400001,BK0401
NYC FLEET / PROB_340BAYST,PROB,2,Level 2 Charger,340 Bay St,Tompkinsville,10301,Staten Island,40.63368,-74.075159,501,49,21,5013302,5005030032,SI0102
NYC FLEET / TLC_WOODSIDE_S1,TLC,1,EV Solar Arc Charger,24-55 Brooklyn Queens Expy W,Woodside,11377,Queens,40.764199,-73.902694,401,22,299,4022499,4010160045,QN0171
NYC FLEET / TLC_WOODSIDE_S2,TLC,1,EV Solar Arc Charger,24-55 Brooklyn Queens Expy W,Woodside,11377,Queens,40.764199,-73.902694,401,22,299,4022499,4010160045,QN0171
NYC FLEET / TLC_WOODSIDE_S3,TLC,1,EV Solar Arc Charger,24-55 Brooklyn Queens Expy W,Woodside,11377,Queens,40.764199,-73.902694,401,22,299,4022499,4010160045,QN0171
NYCTLC / TLC 1,TLC,2,Level 2 Charger,3189 123rd St,College Point,11354,Queens,40.768295,-73.845753,407,19,907,4438020,4043920025,QN0701
NYCTLC / TLC 10,TLC,2,Level 2 Charger,3189 123rd St,College Point,11354,Queens,40.768295,-73.845753,407,19,907,4438020,4043920025,QN0701
NYCTLC / TLC 11,TLC,2,Level 2 Charger,3189 123rd St,College Point,11354,Queens,40.768295,-73.845753,407,19,907,4438020,4043920025,QN0701
NYCTLC / TLC 12,TLC,2,Level 2 Charger,3189 123rd St,College Point,11354,Queens,40.768295,-73.845753,407,19,907,4438020,4043920025,QN0701
NYCTLC / TLC 2,TLC,2,Level 2 Charger,3189 123rd St,College Point,11354,Queens,40.768295,-73.845753,407,19,907,4438020,4043920025,QN0701
NYCTLC / TLC 3,TLC,2,Level 2 Charger,3189 123rd St,College Point,11354,Queens,40.768295,-73.845753,407,19,907,4438020,4043920025,QN0701
NYCTLC / TLC 4,TLC,2,Level 2 Charger,31-89 123rd St,College Point,11354,Queens,40.768295,-73.845753,407,19,907,4438020,4043920025,QN0701
NYCTLC / TLC 5,TLC,2,Level 2 Charger,31-89 123rd St,College Point,11354,Queens,40.768295,-73.845753,407,19,907,4438020,4043920025,QN0701
NYCTLC / TLC 6,TLC,2,Level 2 Charger,31-89 123rd St,College Point,11354,Queens,40.768295,-73.845753,407,19,907,4438020,4043920025,QN0701
NYCTLC / TLC 7,TLC,2,Level 2 Charger,31-89 123rd St,College Point,11354,Queens,40.768295,-73.845753,407,19,907,4438020,4043920025,QN0701
NYCTLC / TLC 8,TLC,2,Level 2 Charger,31-89 123rd St,College Point,11354,Queens,40.768295,-73.845753,407,19,907,4438020,4043920025,QN0701
NYCTLC / TLC 9,TLC,2,Level 2 Charger,3189 123rd St,College Point,11354,Queens,40.768295,-73.845753,407,19,907,4438020,4043920025,QN0701
BAT Lightpole Charger 1,DCAS,1,Level 2 Charger,58th St Brooklyn Army Terminal,Brooklyn,11220,Brooklyn,,,,,,,,
BAT Lightpole Charger 2,DCAS,1,Level 2 Charger,58th St Brooklyn Army Terminal,Brooklyn,11220,Brooklyn,,,,,,,,
BAT Lightpole Charger 3,DCAS,1,Level 2 Charger,58th St Brooklyn Army Terminal,Brooklyn,11220,Brooklyn,,,,,,,,
BAT Lightpole Charger 4,DCAS,1,Level 2 Charger,58th St Brooklyn Army Terminal,Brooklyn,11220,Brooklyn,,,,,,,,
BAT Lightpole Charger 5,DCAS,1,Level 2 Charger,58th St Brooklyn Army Terminal,Brooklyn,11220,Brooklyn,,,,,,,,
BAT Lightpole Charger 6,DCAS,1,Level 2 Charger,58th St Brooklyn Army Terminal,Brooklyn,11220,Brooklyn,,,,,,,,
DCAS ROADIE 1,DCAS,1,Mobile Charger,,,,,,,,,,,,
DCAS ROADIE 2,DCAS,1,Mobile Charger,,,,,,,,,,,,
DEP ROADIE 1,DEP,1,Mobile Charger,,,,,,,,,,,,
DOC ROADIE 1,DOC,1,Mobile Charger,,,,,,,,,,,,
DOC_MOBI_1,DOC,1,Mobile Charger,Hazen St,Riker's Island,10474,Bronx,,,,,,,,
DOH 56 DRIVE NISSAN,DOH,1,Level 2 Charger,56-17 56th Dr.,Maspeth,11378,Queens,40.72441,-73.914492,402,26,219,4058946,4025850002,QN0501
DOH BEDFORD NISSAN 1,DOH,1,Level 2 Charger,485 Throop Ave.,Brooklyn,11221,Brooklyn,40.685654,-73.941462,303,36,277,3051782,3018260001,BK0302
DOH BEDFORD NISSAN 2,DOH,1,Level 2 Charger,485 Throop Ave.,Brooklyn,11221,Brooklyn,40.685654,-73.941462,303,36,277,3051782,3018260001,BK0302
DOH BELLEVUE NISSAN 1,DOH,1,Level 2 Charger,455 1st Ave.,New York,10016,Manhattan,40.739162,-73.976894,106,2,66,1020610,1009320017,MN0603
DOH BELLEVUE NISSAN 2,DOH,1,Level 2 Charger,455 1st Ave.,New York,10016,Manhattan,40.739162,-73.976894,106,2,66,1020610,1009320017,MN0603
DOT LOT 190 ST,DOT,5,DOT Municipal Level 2 Charger,2478 Jerome Avenue,Bronx,10468,Bronx,40.863249,-73.90068,207,14,401,2014125,2031890009,BX0701
DOT LOT COURT SQ,DOT,9,DOT Municipal Level 2 Charger,45-40 Court Square,Queens,11101,Queens,40.745815,-73.943549,402,26,1901,4000699,4000830018,QN0201
DOT LOT COURT SQ 1 L3,DOT,4,DOT Municipal Level 3 Charger,45-40 Court Square,Queens,11101,Queens,40.745815,-73.943549,402,26,1901,4000699,4000830018,QN0201
DOT LOT ESSEX ST,DOT,9,DOT Municipal Level 2 Charger,105-113 Essex Street & 112-120 Ludlow Street,New York,10002,Manhattan,40.719086,-73.98794,103,1,18,1005326,1004100038,MN0302
DOT LOT ESSEX ST 1 L3,DOT,4,DOT Municipal Level 3 Charger,105-113 Essex Street & 112-120 Ludlow Street,New York,10002,Manhattan,40.719086,-73.98794,103,1,18,1005326,1004100038,MN0302
DOT LOT QUEENS BOROUGH HALL L2,DOT,31,DOT Municipal Level 2 Charger,80-25 126th Street,Queens,11415,Queens,40.714856,-73.82705,409,29,21601,4206524,4096570001,QN0901
DOT LOT QUEENS BOROUGH HALL L3,DOT,3,DOT Municipal Level 3 Charger,80-25 126th Street,Queens,11415,Queens,40.714856,-73.82705,409,29,21601,4206524,4096570001,QN0901
DOT LOT QUEENS FAMILY COURT,DOT,3,DOT Municipal Level 2 Charger,150-07 Archer Avenue,Queens,11432,Queens,40.701386,-73.80374,412,27,240,4215602,4100920001,QN1201
DOT LOT QUEENSBORO HALL FIELD,DOT,3,DOT Municipal Level 2 Charger,80-25 126th Street,Queens,11415,Queens,40.714856,-73.82705,409,29,21601,4206524,4096570001,QN0901
DOT LOT ST GEORGE,DOT,5,DOT Municipal Level 2 Charger,54 Central Avenue,Staten Island,10301,Staten Island,40.640566,-74.076713,501,49,3,5151736,5000060021,SI0101
DOT ROADIE 1,DOT,1,Mobile Charger,,,,,,,,,,,,
DPR ROADIE 1,DPR,1,Mobile Charger,,,,,,,,,,,,
DSNY ROADIE 1,DSNY,1,Mobile Charger,,,,,,,,,,,,
DSNY ROADIE 2,DSNY,1,Mobile Charger,,,,,,,,,,,,
DSNY_CLIPPER_BETTSENG-1,DSNY,2,Level 2 Charger,52-35 58th Street,Woodside,11377,Queens,40.734883,-73.909957,402,26,243,4462505,4023610268,QN0203
DSNY_CLIPPER_BK04-3,DSNY,1,Level 2 Charger,161 Varick Avenue,Brooklyn,11237,Brooklyn,40.711118,-73.928548,301,34,44902,3400387,3029620001,BK0104
DSNY_CLIPPER_BK05-2,DSNY,2,Level 2 Charger,606 Milford Street,East New York,11208,Brooklyn,40.660832,-73.8697,305,42,1078,3099068,3045620001,BK0503
DSNY_CLIPPER_BK05-3,DSNY,2,Level 2 Charger,606 Milford Street,East New York,11208,Brooklyn,40.660832,-73.8697,305,42,1078,3099068,3045620001,BK0503
DSNY_CLIPPER_CRSBBMEXEC-1,DSNY,2,Level 2 Charger,52-35 58th Street,Woodside,11377,Queens,40.734883,-73.909957,402,26,243,4462505,4023610268,QN0203
DSNY_CLIPPER_CRSBBMEXEC-2,DSNY,2,Level 2 Charger,52-35 58th Street,Woodside,11377,Queens,40.734883,-73.909957,402,26,243,4462505,4023610268,QN0203
DSNY_CLIPPER_CRSBIT,DSNY,2,Level 2 Charger,52-35 58th Street,Woodside,11377,Queens,40.734883,-73.909957,402,26,243,4462505,4023610268,QN0203
DSNY_CLIPPER_FRSHKLLSBBM-1,DSNY,2,Level 2 Charger,1000 West Service Rd,Staten Island,10314,Staten Island,40.571144,-74.195327,503,51,22801,5130986,5059000500,SI0391
DSNY_CLIPPER_FRSHKLLSSI3-1,DSNY,2,Level 2 Charger,1000 West Service Rd,Staten Island,10314,Staten Island,40.571144,-74.195327,503,51,22801,5130986,5059000500,SI0391
DSNY_ENPHASE_CRSBBMS4-1,DSNY,1,Level 2 Charger,52-35 58th Street,Woodside,11377,Queens,40.734883,-73.909957,402,26,243,4462505,4023610268,QN0203
DSNY_ENPHASE_CRSBBMS4-2,DSNY,1,Level 2 Charger,52-35 58th Street,Woodside,11377,Queens,40.734883,-73.909957,402,26,243,4462505,4023610268,QN0203
DSNY_ENPHASE_CRSBBMS4-3,DSNY,1,Level 2 Charger,52-35 58th Street,Woodside,11377,Queens,40.734883,-73.909957,402,26,243,4462505,4023610268,QN0203
DSNY_ENPHASE_CRSBBMS4-4,DSNY,1,Level 2 Charger,52-35 58th Street,Woodside,11377,Queens,40.734883,-73.909957,402,26,243,4462505,4023610268,QN0203
DSNY_ENPHASE_CRSBBMS4-5,DSNY,1,Level 2 Charger,52-35 58th Street,Woodside,11377,Queens,40.734883,-73.909957,402,26,243,4462505,4023610268,QN0203
NYCEM LC,NYCEM,4,Level 2 Charger,930 Flushing Ave,Bushwick,11206,Brooklyn,40.702555,-73.934382,304,34,391,3071838,3031400001,BK0401
NYPD ROADIE 1,NYPD,1,Mobile Charger,,,,,,,,,,,,
NYPD ROADIE 2,NYPD,1,Mobile Charger,,,,,,,,,,,,
DOT Flo 13th St,DOT,2,L2 DOT Flo Curbside Charger,"13th Street: 5th Avenue, 4th Avenue",Brooklyn,11215,Brooklyn,,,,,,,,
DOT Flo 225th St,DOT,2,L2 DOT Flo Curbside Charger,"225th Street: Merrick Boulevard, 135th Avenue",Queens,14413,Queens,,,,,,,,
DOT Flo 30th Place,DOT,6,L2 DOT Flo Curbside Charger,30th Pl between Thomson Ave and 47th Ave,Queens,11101,Queens,,,,,,,,
DOT Flo 33rd St,DOT,2,L2 DOT Flo Curbside Charger,"33rd Street: 31st Avenue, Broadway",Queens,11106,Queens,,,,,,,,
DOT Flo 35th St,DOT,2,L2 DOT Flo Curbside Charger,"35th Street: 30th Avenue, 28th Avenue",Queens,11103,Queens,,,,,,,,
DOT Flo 38th St,DOT,4,L2 DOT Flo Curbside Charger,"38th Street: 36th Avenue, 35th Avenue",Queens,11101,Queens,,,,,,,,
DOT Flo 3rd Ave,DOT,6,L2 DOT Flo Curbside Charger,"3rd Avenue: 33rd Street, 34th Street",Brooklyn,11232,Brooklyn,,,,,,,,
DOT Flo 41st Ave,DOT,2,L2 DOT Flo Curbside Charger,"41st Avenue: 81st Street, Baxter Avenue",Queens,11373,Queens,,,,,,,,
DOT Flo 43rd St,DOT,2,L2 DOT Flo Curbside Charger,"43rd Street: 5th Avenue, 4th Avenue",Brooklyn,11232,Brooklyn,,,,,,,,
DOT Flo 72nd St,DOT,2,L2 DOT Flo Curbside Charger,"72nd Street: 37th Avenue, 35th Avenue",Queens,11372,Queens,,,,,,,,
DOT Flo 8th St,DOT,2,L2 DOT Flo Curbside Charger,"8th Street: 6th Avenue, 7th Avenue",Brooklyn,11215,Brooklyn,,,,,,,,
DOT Flo Bedford Park Blvd,DOT,4,L2 DOT Flo Curbside Charger,"Bedford Park Boulevard: Goulden Avenue, Paul Avenue",Bronx,10468,Bronx,,,,,,,,
DOT Flo Broadway,DOT,4,L2 DOT Flo Curbside Charger,"Broadway: West 242nd Street, West 240th Street",Bronx,10471,Bronx,,,,,,,,
DOT Flo Brooklyn Ave,DOT,2,L2 DOT Flo Curbside Charger,"Brooklyn Avenue: St. Marks Avenue, Prospect Place",Brooklyn,11213,Brooklyn,,,,,,,,
DOT Flo Clarkson Ave,DOT,4,L2 DOT Flo Curbside Charger,"Clarkson Avenue: 40th Street, Albany Avenue",Brooklyn,11203,Brooklyn,,,,,,,,
DOT Flo Court St,DOT,2,L2 DOT Flo Curbside Charger,"Court Street: 1st Place, Carroll Street",Brooklyn,11231,Brooklyn,,,,,,,,
DOT Flo Dekalb Ave,DOT,2,L2 DOT Flo Curbside Charger,"Dekalb Avenue: East Gun Hill Road, East 212th Street",Bronx,10467,Bronx,,,,,,,,
DOT Flo E 67th St,DOT,2,L2 DOT Flo Curbside Charger,"East 67th Street: York Avenue, 1st Avenue",Manhattan,10065,Manhattan,,,,,,,,
DOT Flo E 78th St,DOT,2,L2 DOT Flo Curbside Charger,"East 78th Street: Park Avenue, Lexington Avenue",Manhattan,10075,Manhattan,,,,,,,,
DOT Flo East End Ave,DOT,2,L2 DOT Flo Curbside Charger,"East End Ave: East 88th Street, East 87th Street",Manhattan,10128,Manhattan,,,,,,,,
DOT Flo Elton St,DOT,4,L2 DOT Flo Curbside Charger,"Elton Street: Flatlands Avenue, Locke Street",Brooklyn,11207,Brooklyn,,,,,,,,
DOT Flo Fort Washington Ave,DOT,2,L2 DOT Flo Curbside Charger,"Fort Washington Avenue: West 164th Street, West 165th Street",Manhattan,10032,Manhattan,,,,,,,,
DOT Flo Lenox Rd,DOT,4,L2 DOT Flo Curbside Charger,"Lenox Road: New York Avenue, East 34th Street",Brooklyn,11226,Brooklyn,,,,,,,,
DOT Flo Leonard St,DOT,4,L2 DOT Flo Curbside Charger,Leonard St between Lafayette and Centre Streets,Manhattan,10013,Manhattan,,,,,,,,
DOT Flo Linden Blvd,DOT,4,L2 DOT Flo Curbside Charger,"Linden Boulevard: East 96th Street, Rockaway Parkway",Brooklyn,11212,Brooklyn,,,,,,,,
DOT Flo Marcus Garvey Blvd,DOT,2,L2 DOT Flo Curbside Charger,"Marcus Garvey Boulevard: Broadway, Park Avenue",Brooklyn,11206,Brooklyn,,,,,,,,
DOT Flo Mason Ave,DOT,4,L2 DOT Flo Curbside Charger,"Mason Avenue: Seaview, Delaware Avenue",Staten Island,10305,Staten Island,,,,,,,,
DOT Flo Meeker Ave,DOT,6,L2 DOT Flo Curbside Charger,"Meeker Avenue: Metropolitan Avenue, Rodney Street",Brooklyn,11211,Brooklyn,,,,,,,,
DOT Flo N 4th St,DOT,4,L2 DOT Flo Curbside Charger,"North 4th Street: Bedford Avenue, Berry Street",Brooklyn,11249,Brooklyn,,,,,,,,
DOT Flo Norman Ave,DOT,4,L2 DOT Flo Curbside Charger,"Norman Avenue: Dobbin Street, Guernsey Street",Brooklyn,11222,Brooklyn,,,,,,,,
DOT Flo Prospect Park W,DOT,2,L2 DOT Flo Curbside Charger,"Prospect Park West: 5th Street, 6th Street",Brooklyn,11215,Brooklyn,,,,,,,,
DOT Flo Putnam Pl,DOT,2,L2 DOT Flo Curbside Charger,"Putnam Place: East Gun Hill Rd., Reservoir Oval West",Bronx,10467,Bronx,,,,,,,,
DOT Flo Queens Blvd,DOT,4,L2 DOT Flo Curbside Charger,"Queens Boulevard: 34th Street, 33rd Street",Queens,11101,Queens,,,,,,,,
DOT Flo Red Cross Place,DOT,6,L2 DOT Flo Curbside Charger,Red Cross Pl between Cadman Pl E and Bk Bridge Blvd/Adams St,Brooklyn,11201,Brooklyn,,,,,,,,
DOT Flo Stuyvesant Ave,DOT,2,L2 DOT Flo Curbside Charger,"Stuyvesant Avenue: Fulton Street, Chauncey Street",Brooklyn,11233,Brooklyn,,,,,,,,
DOT Flo W 76th St,DOT,2,L2 DOT Flo Curbside Charger,"West 76th Street: Amsterdam Avenue, Columbus Avenue",Manhattan,10023,Manhattan,,,,,,,,
DOT Flo W 84th St,DOT,2,L2 DOT Flo Curbside Charger,"West 84th Street: Amsterdam Avenue, Columbus Avenue",Manhattan,10024,Manhattan,,,,,,,,
DOT Flo W 93rd St,DOT,2,L2 DOT Flo Curbside Charger,"West 93rd Street: Central Park West, Columbus Ave",Manhattan,10025,Manhattan,,,,,,,,
